{"amenity/atm/f25812-e91767":{"name":"Народный банк","locationSet":{"include":["kg","kz","uz"]},"geometry":["point","vertex"],"matchScore":2,"terms":["народный банк"],"tags":{"amenity":"atm","brand:wikidata":"Q1046186"},"addTags":{"amenity":"atm","brand":"Народный банк","brand:wikidata":"Q1046186","name":"Народный банк","operator":"Народный банк","operator:wikidata":"Q1046186"}},"amenity/bank/f25812-894181":{"name":"Народный банк","locationSet":{"include":["kg","kz","uz"]},"geometry":["point","area"],"matchScore":2,"terms":["народный банк"],"tags":{"amenity":"bank","brand:wikidata":"Q1046186"},"addTags":{"amenity":"bank","brand":"Народный банк","brand:wikidata":"Q1046186","name":"Народный банк"}},"amenity/ice_cream/fd1d7e-3c9560":{"name":"33 пингвина","locationSet":{"include":["by","kg","kz","ru","uz"]},"geometry":["point","area"],"matchScore":2,"terms":["33 пингвина"],"tags":{"amenity":"ice_cream","brand:wikidata":"Q110147993"},"addTags":{"amenity":"ice_cream","brand":"33 пингвина","brand:wikidata":"Q110147993","name":"33 пингвина"}},"shop/bakery/paul-652955":{"name":"Paul","locationSet":{"include":["ae","az","be","bh","by","ci","cy","cz","eg","es","fr","ga","gb","ge","gr","id","in","jo","jp","kw","kz","lb","lu","ma","mu","my","om","pa","ph","pl","pt","qa","ro","ru","sa","sg","th","tn","tw","ua","us","uz","vn","za"]},"geometry":["point","area"],"matchScore":2,"terms":["paul"],"tags":{"brand:wikidata":"Q3370417","shop":"bakery"},"addTags":{"brand":"Paul","brand:wikidata":"Q3370417","name":"Paul","shop":"bakery"}},"shop/mobile_phone/svyaznoy-fee8f4":{"name":"Связной","locationSet":{"include":["by","ru","uz"]},"geometry":["point","area"],"matchScore":2,"terms":["svyaznoy","связной"],"tags":{"brand:wikidata":"Q65371","shop":"mobile_phone"},"addTags":{"brand":"Связной","brand:en":"Svyaznoy","brand:wikidata":"Q65371","name":"Связной","name:en":"Svyaznoy","shop":"mobile_phone"}},"tourism/hotel/lottehotel-304b57":{"name":"Lotte Hotel","locationSet":{"include":["jp","kr","mm","ru","us","uz","vn"]},"geometry":["point","area"],"matchScore":2,"terms":["lotte","lotte hotels & resorts"],"fields":["name","brand","{tourism/hotel}"],"tags":{"brand:wikidata":"Q326720","tourism":"hotel"},"addTags":{"brand":"Lotte Hotels & Resorts","brand:wikidata":"Q326720","name":"Lotte Hotel","short_name":"Lotte","tourism":"hotel"}},"amenity/post_box/b5e0b2-f090a1":{"name":"O\u2019zbеkiston Pochtasi","locationSet":{"include":["uz"]},"geometry":["point","vertex"],"matchScore":2,"terms":["o\u2019zbеkiston pochtasi","ozbеkiston pochtasi aj"],"tags":{"amenity":"post_box","operator:wikidata":"Q105227651"},"addTags":{"amenity":"post_box","operator":"O\u2019zbеkiston Pochtasi","operator:wikidata":"Q105227651"}},"amenity/post_office/b5e0b2-9811e4":{"name":"O\u2019zbеkiston Pochtasi","locationSet":{"include":["uz"]},"geometry":["point","area"],"matchScore":2,"terms":["o\u2019zbеkiston pochtasi","ozbеkiston pochtasi aj"],"fields":["name","operator","{amenity/post_office}"],"tags":{"amenity":"post_office","operator:wikidata":"Q105227651"},"addTags":{"amenity":"post_office","operator":"O\u2019zbеkiston Pochtasi","operator:wikidata":"Q105227651"}},"power/line/uzbekenergo-1301e2":{"name":"UzbekEnergo","locationSet":{"include":["uz"]},"geometry":["line"],"matchScore":2,"terms":["uzbekenergo"],"tags":{"operator:wikidata":"Q4469715","power":"line"},"addTags":{"operator":"UzbekEnergo","operator:wikidata":"Q4469715","power":"line"}},"power/minor_line/uzbekenergo-47c44f":{"name":"UzbekEnergo","locationSet":{"include":["uz"]},"geometry":["line"],"matchScore":2,"terms":["uzbekenergo"],"tags":{"operator:wikidata":"Q4469715","power":"minor_line"},"addTags":{"operator":"UzbekEnergo","operator:wikidata":"Q4469715","power":"minor_line"}},"power/pole/uzbekenergo-8d481d":{"name":"UzbekEnergo","locationSet":{"include":["uz"]},"geometry":["point","vertex"],"matchScore":2,"terms":["uzbekenergo"],"tags":{"operator:wikidata":"Q4469715","power":"pole"},"addTags":{"operator":"UzbekEnergo","operator:wikidata":"Q4469715","power":"pole"}},"power/tower/uzbekenergo-566258":{"name":"UzbekEnergo","locationSet":{"include":["uz"]},"geometry":["point","vertex"],"matchScore":2,"terms":["uzbekenergo"],"tags":{"operator:wikidata":"Q4469715","power":"tower"},"addTags":{"operator":"UzbekEnergo","operator:wikidata":"Q4469715","power":"tower"}}}