{"amenity/atm/alphabank-d80ec2":{"name":"Alpha Bank","locationSet":{"include":["gb","gr","lu"]},"geometry":["point","vertex"],"matchScore":2,"terms":["alpha bank"],"tags":{"amenity":"atm","brand:wikidata":"Q747394"},"addTags":{"amenity":"atm","brand":"Alpha Bank","brand:wikidata":"Q747394","name":"Alpha Bank","operator":"Alpha Bank","operator:wikidata":"Q747394"}},"amenity/atm/bankofcyprus-7a48a6":{"name":"Bank of Cyprus","locationSet":{"include":["cy","gr"]},"geometry":["point","vertex"],"matchScore":2,"terms":["bank of cyprus","kıbrıs bankası","τράπεζα κύπρου"],"tags":{"amenity":"atm","brand:wikidata":"Q806678"},"addTags":{"amenity":"atm","brand":"Bank of Cyprus","brand:wikidata":"Q806678","name":"Bank of Cyprus","name:el":"Τράπεζα Κύπρου","name:tr":"Kıbrıs Bankası","operator":"Bank of Cyprus","operator:wikidata":"Q806678"}},"amenity/atm/eurobank-f234fb":{"name":"Eurobank Ergasias","locationSet":{"include":["cy","gb","gr","lu"]},"geometry":["point","vertex"],"matchScore":2,"terms":["eurobank","eurobank ergasias"],"tags":{"amenity":"atm","brand:wikidata":"Q951850"},"addTags":{"amenity":"atm","brand":"Eurobank","brand:wikidata":"Q951850","name":"Eurobank","operator":"Eurobank","operator:wikidata":"Q951850"}},"amenity/atm/nationalbankofgreece-650be4":{"name":"Εθνική Τράπεζα","locationSet":{"include":["gr"]},"geometry":["point","vertex"],"matchScore":2,"terms":["national bank of greece","εθνική τράπεζα"],"tags":{"amenity":"atm","brand:wikidata":"Q1816028"},"addTags":{"amenity":"atm","brand":"Εθνική Τράπεζα","brand:el":"Εθνική Τράπεζα","brand:en":"National Bank of Greece","brand:wikidata":"Q1816028","name":"Εθνική Τράπεζα","name:el":"Εθνική Τράπεζα","name:en":"National Bank of Greece","operator":"Εθνική Τράπεζα","operator:wikidata":"Q1816028"}},"amenity/atm/piraeusbank-650be4":{"name":"Τράπεζα Πειραιώς","locationSet":{"include":["gr"]},"geometry":["point","vertex"],"matchScore":2,"terms":["piraeus","piraeus bank","πειραιώς","τράπεζα πειραιώς"],"tags":{"amenity":"atm","brand:wikidata":"Q3312"},"addTags":{"amenity":"atm","brand":"Τράπεζα Πειραιώς","brand:el":"Τράπεζα Πειραιώς","brand:en":"Piraeus Bank","brand:wikidata":"Q3312","name":"Τράπεζα Πειραιώς","name:el":"Τράπεζα Πειραιώς","name:en":"Piraeus Bank","operator":"Τράπεζα Πειραιώς","operator:wikidata":"Q3312","short_name":"Πειραιώς","short_name:el":"Πειραιώς","short_name:en":"Piraeus"}},"amenity/bank/alphabank-96fa25":{"name":"Alpha Bank","locationSet":{"include":["gb","gr","lu"]},"geometry":["point","area"],"matchScore":2,"terms":["alpha bank"],"tags":{"amenity":"bank","brand:wikidata":"Q747394"},"addTags":{"amenity":"bank","brand":"Alpha Bank","brand:wikidata":"Q747394","name":"Alpha Bank"}},"amenity/bank/bankofcyprus-d6ed4a":{"name":"Bank of Cyprus","locationSet":{"include":["cy","gr"]},"geometry":["point","area"],"matchScore":2,"terms":["bank of cyprus","kıbrıs bankası","τράπεζα κύπρου"],"tags":{"amenity":"bank","brand:wikidata":"Q806678"},"addTags":{"amenity":"bank","brand":"Bank of Cyprus","brand:wikidata":"Q806678","name":"Bank of Cyprus","name:el":"Τράπεζα Κύπρου","name:tr":"Kıbrıs Bankası"}},"amenity/bank/eurobank-158d7a":{"name":"Eurobank Ergasias","locationSet":{"include":["cy","gb","gr","lu"]},"geometry":["point","area"],"matchScore":2,"terms":["eurobank","eurobank ergasias"],"tags":{"amenity":"bank","brand:wikidata":"Q951850"},"addTags":{"amenity":"bank","brand":"Eurobank","brand:wikidata":"Q951850","name":"Eurobank"}},"amenity/bank/nationalbankofgreece-f14c4e":{"name":"Εθνική Τράπεζα","locationSet":{"include":["gr"]},"geometry":["point","area"],"matchScore":2,"terms":["national bank of greece","εθνική τράπεζα"],"tags":{"amenity":"bank","brand:wikidata":"Q1816028"},"addTags":{"amenity":"bank","brand":"Εθνική Τράπεζα","brand:el":"Εθνική Τράπεζα","brand:en":"National Bank of Greece","brand:wikidata":"Q1816028","name":"Εθνική Τράπεζα","name:el":"Εθνική Τράπεζα","name:en":"National Bank of Greece"}},"amenity/bank/piraeusbank-f14c4e":{"name":"Τράπεζα Πειραιώς","locationSet":{"include":["gr"]},"geometry":["point","area"],"matchScore":2,"terms":["piraeus","piraeus bank","πειραιώς","τράπεζα πειραιώς"],"tags":{"amenity":"bank","brand:wikidata":"Q3312"},"addTags":{"amenity":"bank","brand":"Τράπεζα Πειραιώς","brand:el":"Τράπεζα Πειραιώς","brand:en":"Piraeus Bank","brand:wikidata":"Q3312","name":"Τράπεζα Πειραιώς","name:el":"Τράπεζα Πειραιώς","name:en":"Piraeus Bank","short_name":"Πειραιώς","short_name:el":"Πειραιώς","short_name:en":"Piraeus"}},"amenity/cafe/coffee_shop/coffeeisland-7939ef":{"name":"Coffee Island","locationSet":{"include":["cy","gr"]},"geometry":["point","area"],"matchScore":2,"terms":["coffee island"],"reference":{"key":"cuisine","value":"coffee_shop"},"tags":{"amenity":"cafe","brand:wikidata":"Q60867333","cuisine":"coffee_shop"},"addTags":{"amenity":"cafe","brand":"Coffee Island","brand:wikidata":"Q60867333","cuisine":"coffee_shop","name":"Coffee Island","takeaway":"yes"}},"amenity/cafe/coffee_shop/mikel-349bad":{"name":"Mikel","locationSet":{"include":["ae","au","cy","de","eg","gb","gr","sa","us"]},"geometry":["point","area"],"matchScore":2,"terms":["mikel"],"reference":{"key":"cuisine","value":"coffee_shop"},"tags":{"amenity":"cafe","brand:wikidata":"Q16952021","cuisine":"coffee_shop"},"addTags":{"amenity":"cafe","brand":"Mikel","brand:wikidata":"Q16952021","cuisine":"coffee_shop","name":"Mikel","takeaway":"yes"}},"amenity/charging_station/ionity-b625d6":{"name":"Ionity","locationSet":{"include":["by","bg","cz","hu","pl","md","ro","ru","sk","ua","ax","gg","je","cq","dk","ee","fo","fi","is","ie","im","lv","lt","no","sj","se","gb","al","ad","ba","hr","gi","gr","va","it","mt","me","mk","pt","sm","rs","si","es","xk","at","be","fr","de","li","lu","mc","nl","ch"]},"geometry":["point","area"],"matchScore":2,"terms":["ionity","ionity gmbh"],"fields":["name","brand","{amenity/charging_station}"],"tags":{"amenity":"charging_station","brand:wikidata":"Q42717773"},"addTags":{"amenity":"charging_station","brand":"Ionity","brand:wikidata":"Q42717773"}},"amenity/cinema/cineplexx-8f1bb5":{"name":"Cineplexx","locationSet":{"include":["al","at","ba","gr","hr","it","me","mk","ro","rs","si","xk"]},"geometry":["point","area"],"matchScore":2,"terms":["cineplexx"],"fields":["name","brand","{amenity/cinema}"],"tags":{"amenity":"cinema","brand:wikidata":"Q873340"},"addTags":{"amenity":"cinema","brand":"Cineplexx","brand:wikidata":"Q873340","name":"Cineplexx"}},"amenity/cinema/odeon-031144":{"name":"Odeon","locationSet":{"include":["gb","gr","ie","it"]},"geometry":["point","area"],"matchScore":2,"terms":["odeon","odeon cinema"],"fields":["name","brand","{amenity/cinema}"],"tags":{"amenity":"cinema","brand:wikidata":"Q6127470"},"addTags":{"amenity":"cinema","brand":"Odeon","brand:wikidata":"Q6127470","name":"Odeon"}},"amenity/fast_food/burger/everest-6b115c":{"name":"Everest","locationSet":{"include":["gr"]},"geometry":["point","area"],"matchScore":2,"terms":["everest"],"reference":{"key":"cuisine","value":"burger"},"tags":{"amenity":"fast_food","brand:wikidata":"Q62273299","cuisine":"burger"},"addTags":{"amenity":"fast_food","brand":"Everest","brand:wikidata":"Q62273299","cuisine":"burger","name":"Everest","takeaway":"yes"}},"amenity/fast_food/oakberryacaibowls-df46eb":{"name":"Oakberry Açaí bowls","locationSet":{"include":["ae","au","bh","br","ch","cl","co","de","es","gr","hr","il","mt","mx","pe","pt","py","sa","th","us"]},"geometry":["point","area"],"matchScore":2,"terms":["oakberry açaí bowls"],"tags":{"amenity":"fast_food","brand:wikidata":"Q104870840"},"addTags":{"amenity":"fast_food","brand":"Oakberry Açaí bowls","brand:wikidata":"Q104870840","cuisine":"açaí","name":"Oakberry Açaí bowls","takeaway":"yes"}},"amenity/fast_food/pizza/spizzico-7eb3e4":{"name":"Spizzico","locationSet":{"include":["ch","fr","gr","it","us"]},"geometry":["point","area"],"matchScore":2,"terms":["spizzico"],"reference":{"key":"cuisine","value":"pizza"},"tags":{"amenity":"fast_food","brand:wikidata":"Q1419041","cuisine":"pizza"},"addTags":{"amenity":"fast_food","brand":"Spizzico","brand:wikidata":"Q1419041","cuisine":"pizza","name":"Spizzico","takeaway":"yes"}},"amenity/fast_food/sandwich/gregorys-6b115c":{"name":"Γρηγόρης","locationSet":{"include":["gr"]},"geometry":["point","area"],"matchScore":2,"terms":["gregorys","γρηγόρης"],"reference":{"key":"cuisine","value":"sandwich"},"tags":{"amenity":"fast_food","brand:wikidata":"Q62273834","cuisine":"sandwich"},"addTags":{"amenity":"fast_food","brand":"Γρηγόρης","brand:el":"Γρηγόρης","brand:en":"Gregorys","brand:wikidata":"Q62273834","cuisine":"sandwich","name":"Γρηγόρης","name:el":"Γρηγόρης","name:en":"Gregorys","takeaway":"yes"}},"amenity/fuel/aegean-c67f2c":{"name":"Aegean","locationSet":{"include":["gr"]},"geometry":["point","area"],"matchScore":2,"terms":["aegean"],"fields":["name","brand","{amenity/fuel}"],"tags":{"amenity":"fuel","brand:wikidata":"Q28146598"},"addTags":{"amenity":"fuel","brand":"Aegean","brand:wikidata":"Q28146598","name":"Aegean"}},"amenity/fuel/as24-3463db":{"name":"AS 24","locationSet":{"include":["at","be","bg","cz","de","dk","es","fr","gb","ge","gr","hr","hu","ie","it","lt","lu","mk","nl","pl","pt","ro","rs","se","si","sk","ua"]},"geometry":["point","area"],"matchScore":2,"terms":["as 24"],"fields":["name","brand","{amenity/fuel}"],"tags":{"amenity":"fuel","brand:wikidata":"Q2819394"},"addTags":{"amenity":"fuel","brand":"AS 24","brand:wikidata":"Q2819394","hgv":"only","name":"AS 24"}},"amenity/fuel/auchan-fcb99f":{"name":"Auchan","locationSet":{"include":["al","ad","ba","hr","gi","gr","va","it","mt","me","mk","pt","sm","rs","si","es","xk","by","bg","cz","hu","pl","md","ro","ru","sk","ua","at","be","fr","de","li","lu","mc","nl","ch"]},"geometry":["point","area"],"matchScore":2,"terms":["auchan"],"fields":["name","brand","{amenity/fuel}"],"tags":{"amenity":"fuel","brand:wikidata":"Q758603"},"addTags":{"amenity":"fuel","brand":"Auchan","brand:wikidata":"Q758603","name":"Auchan"}},"amenity/fuel/avin-c67f2c":{"name":"Avin","locationSet":{"include":["gr"]},"geometry":["point","area"],"matchScore":2,"terms":["avin"],"fields":["name","brand","{amenity/fuel}"],"tags":{"amenity":"fuel","brand:wikidata":"Q19903165"},"addTags":{"amenity":"fuel","brand":"Avin","brand:wikidata":"Q19903165","name":"Avin"}},"amenity/fuel/eko-41a515":{"name":"EKO (Ελλάδα)","locationSet":{"include":["bg","cy","gr","me","mk","rs"]},"geometry":["point","area"],"matchScore":2,"terms":["eko","εκο"],"fields":["name","brand","{amenity/fuel}"],"tags":{"amenity":"fuel","brand:wikidata":"Q903198"},"addTags":{"amenity":"fuel","brand":"EKO","brand:wikidata":"Q903198","name":"EKO"}},"amenity/fuel/revoil-c67f2c":{"name":"Revoil","locationSet":{"include":["gr"]},"geometry":["point","area"],"matchScore":2,"terms":["revoil"],"fields":["name","brand","{amenity/fuel}"],"tags":{"amenity":"fuel","brand:wikidata":"Q62530755"},"addTags":{"amenity":"fuel","brand":"Revoil","brand:wikidata":"Q62530755","name":"Revoil"}},"amenity/fuel/a9320e-c67f2c":{"name":"ΕΛΙΝΟΙΛ","locationSet":{"include":["gr"]},"geometry":["point","area"],"matchScore":2,"terms":["ελινοιλ"],"fields":["name","brand","{amenity/fuel}"],"tags":{"amenity":"fuel","brand:wikidata":"Q12876543"},"addTags":{"amenity":"fuel","brand":"ΕΛΙΝΟΙΛ","brand:wikidata":"Q12876543","name":"ΕΛΙΝΟΙΛ"}},"amenity/fuel/1b5559-c67f2c":{"name":"ΕΤΕΚΑ","locationSet":{"include":["gr"]},"geometry":["point","area"],"matchScore":2,"terms":["ετεκα"],"fields":["name","brand","{amenity/fuel}"],"tags":{"amenity":"fuel","brand:wikidata":"Q31283952"},"addTags":{"amenity":"fuel","brand":"ΕΤΕΚΑ","brand:wikidata":"Q31283952","name":"ΕΤΕΚΑ"}},"amenity/ice_cream/amorino-6cf168":{"name":"Amorino","locationSet":{"include":["ae","ch","cz","de","es","fr","gb","gr","ie","it","lu","ma","mt","mx","nc","pt","qa","re","us"]},"geometry":["point","area"],"matchScore":2,"terms":["amorino"],"tags":{"amenity":"ice_cream","brand:wikidata":"Q2843884"},"addTags":{"amenity":"ice_cream","brand":"Amorino","brand:wikidata":"Q2843884","name":"Amorino"}},"amenity/money_transfer/moneygram-11f94e":{"name":"MoneyGram","locationSet":{"include":["ca","de","fr","gr","mx","us"]},"geometry":["point","area"],"matchScore":2,"terms":["moneygram"],"tags":{"amenity":"money_transfer","brand:wikidata":"Q1944412"},"addTags":{"amenity":"money_transfer","brand":"MoneyGram","brand:wikidata":"Q1944412","name":"MoneyGram"}},"amenity/parcel_locker/zbox-5a86e9":{"name":"Packeta","locationSet":{"include":["by","bg","cz","hu","pl","md","ro","ru","sk","ua","ax","gg","je","cq","dk","ee","fo","fi","is","ie","im","lv","lt","no","sj","se","gb","al","ad","ba","hr","gi","gr","va","it","mt","me","mk","pt","sm","rs","si","es","xk","at","be","fr","de","li","lu","mc","nl","ch"]},"geometry":["point","vertex"],"matchScore":2,"terms":["packeta"],"fields":["name","brand","{amenity/parcel_locker}"],"reference":{"key":"amenity","value":"parcel_locker"},"tags":{"amenity":"parcel_locker","brand:wikidata":"Q67809905"},"addTags":{"amenity":"parcel_locker","brand":"Packeta","brand:wikidata":"Q67809905","name":"Z-Box"}},"amenity/restaurant/pizza/francomanca-6f1a9d":{"name":"Franco Manca","locationSet":{"include":["gb","gr","it"]},"geometry":["point","area"],"matchScore":2,"terms":["franco manca"],"reference":{"key":"cuisine","value":"pizza"},"tags":{"amenity":"restaurant","brand:wikidata":"Q28404417","cuisine":"pizza"},"addTags":{"amenity":"restaurant","brand":"Franco Manca","brand:wikidata":"Q28404417","cuisine":"pizza","name":"Franco Manca","takeaway":"yes"}},"amenity/restaurant/gourmetburgerkitchen-8abded":{"name":"Gourmet Burger Kitchen","locationSet":{"include":["gb","gr","ie"]},"geometry":["point","area"],"matchScore":2,"terms":["gbk","gourmet burger kitchen"],"tags":{"amenity":"restaurant","brand:wikidata":"Q5588445"},"addTags":{"amenity":"restaurant","brand":"Gourmet Burger Kitchen","brand:wikidata":"Q5588445","cuisine":"burger","name":"Gourmet Burger Kitchen","short_name":"GBK"}},"amenity/vending_machine/continental-123edb":{"name":"Continental","locationSet":{"include":["by","bg","cz","hu","pl","md","ro","ru","sk","ua","ax","gg","je","cq","dk","ee","fo","fi","is","ie","im","lv","lt","no","sj","se","gb","al","ad","ba","hr","gi","gr","va","it","mt","me","mk","pt","sm","rs","si","es","xk","at","be","fr","de","li","lu","mc","nl","ch"]},"geometry":["point","vertex"],"matchScore":2,"terms":["continental"],"tags":{"amenity":"vending_machine","brand:wikidata":"Q64739247"},"addTags":{"amenity":"vending_machine","brand":"Continental","brand:wikidata":"Q64739247","name":"Continental","vending":"bicycle_tube"}},"amenity/vending_machine/schwalbe-123edb":{"name":"Schwalbe","locationSet":{"include":["by","bg","cz","hu","pl","md","ro","ru","sk","ua","ax","gg","je","cq","dk","ee","fo","fi","is","ie","im","lv","lt","no","sj","se","gb","al","ad","ba","hr","gi","gr","va","it","mt","me","mk","pt","sm","rs","si","es","xk","at","be","fr","de","li","lu","mc","nl","ch"]},"geometry":["point","vertex"],"matchScore":2,"terms":["schwalbe"],"tags":{"amenity":"vending_machine","brand:wikidata":"Q1312213"},"addTags":{"amenity":"vending_machine","brand":"Schwalbe","brand:wikidata":"Q1312213","name":"Schwalbe","vending":"bicycle_tube"}},"office/estate_agent/vonpollrealestate-c99072":{"name":"von Poll Real Estate","locationSet":{"include":["by","bg","cz","hu","pl","md","ro","ru","sk","ua","ax","gg","je","cq","dk","ee","fo","fi","is","ie","im","lv","lt","no","sj","se","gb","al","ad","ba","hr","gi","gr","va","it","mt","me","mk","pt","sm","rs","si","es","xk","at","be","fr","de","li","lu","mc","nl","ch"],"exclude":["at","de"]},"geometry":["point","area"],"matchScore":2,"terms":["von poll immobilien","von poll real estate","vonpoll","vonpoll commercial"],"tags":{"brand:wikidata":"Q96026696","office":"estate_agent"},"addTags":{"brand":"von Poll Real Estate","brand:wikidata":"Q96026696","name":"von Poll Real Estate","office":"estate_agent"}},"shop/bakery/paul-652955":{"name":"Paul","locationSet":{"include":["ae","az","be","bh","by","ci","cy","cz","eg","es","fr","ga","gb","ge","gr","id","in","jo","jp","kw","kz","lb","lu","ma","mu","my","om","pa","ph","pl","pt","qa","ro","ru","sa","sg","th","tn","tw","ua","us","uz","vn","za"]},"geometry":["point","area"],"matchScore":2,"terms":["paul"],"tags":{"brand:wikidata":"Q3370417","shop":"bakery"},"addTags":{"brand":"Paul","brand:wikidata":"Q3370417","name":"Paul","shop":"bakery"}},"shop/bakery/veneti-ec42d9":{"name":"Βενέτη","locationSet":{"include":["gr"]},"geometry":["point","area"],"matchScore":2,"terms":["veneti","βενέτη","βενέτης"],"tags":{"brand:wikidata":"Q106776278","shop":"bakery"},"addTags":{"alt_name":"Βενέτης","brand":"Βενέτη","brand:wikidata":"Q106776278","int_name":"Veneti","name":"Βενέτη","name:en":"Veneti","shop":"bakery"}},"shop/bakery/terkenlis-e9ca96":{"name":"Τερκενλής","locationSet":{"include":["cy","gr","mk"]},"geometry":["point","area"],"matchScore":2,"terms":["terkenlis","τερκενλής"],"tags":{"brand:wikidata":"Q16956985","shop":"bakery"},"addTags":{"brand":"Τερκενλής","brand:wikidata":"Q16956985","int_name":"Terkenlis","name":"Τερκενλής","name:en":"Terkenlis","shop":"bakery"}},"shop/bookmaker/942bba-caf969":{"name":"ΟΠΑΠ","locationSet":{"include":["cy","gr"]},"geometry":["point","area"],"matchScore":2,"terms":["οπαπ"],"tags":{"brand:wikidata":"Q2007823","shop":"bookmaker"},"addTags":{"brand":"ΟΠΑΠ","brand:wikidata":"Q2007823","name":"ΟΠΑΠ","shop":"bookmaker"}},"shop/car/smart-f30ed8":{"name":"Smart","locationSet":{"include":["by","bg","cz","hu","pl","md","ro","ru","sk","ua","ax","gg","je","cq","dk","ee","fo","fi","is","ie","im","lv","lt","no","sj","se","gb","al","ad","ba","hr","gi","gr","va","it","mt","me","mk","pt","sm","rs","si","es","xk","at","be","fr","de","li","lu","mc","nl","ch"]},"geometry":["point","area"],"matchScore":2,"terms":["smart"],"fields":["name","brand","{shop/car}"],"tags":{"brand:wikidata":"Q156490","shop":"car"},"addTags":{"brand":"Smart","brand:wikidata":"Q156490","name":"Smart","shop":"car"}},"shop/chemist/lilly-2bdbc0":{"name":"Lilly Drogerie (Ελλάδα)","locationSet":{"include":["gr"]},"geometry":["point","area"],"matchScore":2,"terms":["lilly"],"tags":{"brand:wikidata":"Q111764460","shop":"chemist"},"addTags":{"brand":"Lilly","brand:wikidata":"Q111764460","name":"Lilly","shop":"chemist"}},"shop/chocolate/leonidas-0e7f90":{"name":"Leonidas","locationSet":{"include":["be","cz","fr","gb","gr","nl"]},"geometry":["point","area"],"matchScore":2,"terms":["leonidas"],"tags":{"brand:wikidata":"Q80335","shop":"chocolate"},"addTags":{"brand":"Leonidas","brand:wikidata":"Q80335","name":"Leonidas","shop":"chocolate"}},"shop/clothes/colloseum-3648e4":{"name":"Colloseum","locationSet":{"include":["at","cz","de","gr","lv","pl","ru","sk"]},"geometry":["point","area"],"matchScore":2,"terms":["colloseum"],"tags":{"brand:wikidata":"Q15794685","shop":"clothes"},"addTags":{"brand":"Colloseum","brand:wikidata":"Q15794685","name":"Colloseum","shop":"clothes"}},"shop/clothes/maje-99ba8f":{"name":"Maje","locationSet":{"include":["by","bg","cz","hu","pl","md","ro","ru","sk","ua","ax","gg","je","cq","dk","ee","fo","fi","is","ie","im","lv","lt","no","sj","se","gb","al","ad","ba","hr","gi","gr","va","it","mt","me","mk","pt","sm","rs","si","es","xk","at","be","fr","de","li","lu","mc","nl","ch","cn","hk","sg","tw","uk","us"]},"geometry":["point","area"],"matchScore":2,"terms":["maje"],"tags":{"brand:wikidata":"Q3280458","shop":"clothes"},"addTags":{"brand":"Maje","brand:wikidata":"Q3280458","clothes":"women","name":"Maje","shop":"clothes"}},"shop/convenience/minimix-57794c":{"name":"Mini Mix","locationSet":{"include":["at","be","cy","cz","de","es","fr","gb","gr","it","me","nl","pt"]},"geometry":["point","area"],"matchScore":2,"terms":["mini mix","mini mix markt"],"tags":{"brand:wikidata":"Q327854","shop":"convenience"},"addTags":{"brand":"Mini Mix","brand:wikidata":"Q327854","name":"Mini Mix","shop":"convenience"}},"shop/convenience/viva-856fe1":{"name":"Viva","locationSet":{"include":["by","bg","cz","hu","pl","md","ro","ru","sk","ua","ax","gg","je","cq","dk","ee","fo","fi","is","ie","im","lv","lt","no","sj","se","gb","al","ad","ba","hr","gi","gr","va","it","mt","me","mk","pt","sm","rs","si","es","xk","at","be","fr","de","li","lu","mc","nl","ch"]},"geometry":["point","area"],"matchScore":2,"terms":["viva"],"tags":{"brand:wikidata":"Q168238","shop":"convenience"},"addTags":{"brand":"Viva","brand:wikidata":"Q168238","name":"Viva","shop":"convenience"}},"shop/department_store/marksandspencer-679c9d":{"name":"Marks & Spencer","locationSet":{"include":["gb","gr","ie","ru"]},"geometry":["point","area"],"matchScore":2,"terms":["m and s","marks & spencer","маркс и спенсер"],"tags":{"brand:wikidata":"Q714491","shop":"department_store"},"addTags":{"brand":"Marks & Spencer","brand:wikidata":"Q714491","name":"Marks & Spencer","shop":"department_store"}},"shop/doityourself/praktiker-573a37":{"name":"Praktiker","locationSet":{"include":["bg","gr","hu","ro","tr"]},"geometry":["point","area"],"matchScore":2,"terms":["praktiker"],"searchable":false,"tags":{"brand:wikidata":"Q680214","shop":"doityourself"},"addTags":{"brand":"Praktiker","brand:wikidata":"Q680214","name":"Praktiker","shop":"doityourself"}},"shop/electrical/kafkas-7ed04e":{"name":"Kafkas","locationSet":{"include":["gr"]},"geometry":["point","area"],"matchScore":2,"terms":["kafkas"],"tags":{"brand:wikidata":"Q68201770","shop":"electrical"},"addTags":{"brand":"Kafkas","brand:wikidata":"Q68201770","name":"Kafkas","shop":"electrical"}},"shop/electronics/mediamarkt-51d852":{"name":"MediaMarkt","locationSet":{"include":["at","be","ch","de","es","gr","hu","it","nl","pl","pt","se","tr"]},"geometry":["point","area"],"matchScore":2,"terms":["mediamarkt"],"tags":{"brand:wikidata":"Q2381223","shop":"electronics"},"addTags":{"brand":"MediaMarkt","brand:wikidata":"Q2381223","name":"MediaMarkt","shop":"electronics"}},"shop/furniture/habitat-4d9d78":{"name":"Habitat (non-UK)","locationSet":{"include":["be","de","es","gr","is","lu","no","pt","tr"]},"geometry":["point","area"],"matchScore":2,"terms":["habitat"],"tags":{"brand:wikidata":"Q689059","shop":"furniture"},"addTags":{"brand":"Habitat","brand:wikidata":"Q689059","name":"Habitat","shop":"furniture"}},"shop/furniture/momax-a18722":{"name":"Mömax","locationSet":{"include":["by","bg","cz","hu","pl","md","ro","ru","sk","ua","ax","gg","je","cq","dk","ee","fo","fi","is","ie","im","lv","lt","no","sj","se","gb","al","ad","ba","hr","gi","gr","va","it","mt","me","mk","pt","sm","rs","si","es","xk","at","be","fr","de","li","lu","mc","nl","ch"]},"geometry":["point","area"],"matchScore":2,"terms":["mömax"],"tags":{"brand:wikidata":"Q56388481","shop":"furniture"},"addTags":{"brand":"Mömax","brand:wikidata":"Q56388481","name":"Mömax","shop":"furniture"}},"shop/furniture/xxxlutz-5acc6e":{"name":"XXXLutz","locationSet":{"include":["by","bg","cz","hu","pl","md","ro","ru","sk","ua","ax","gg","je","cq","dk","ee","fo","fi","is","ie","im","lv","lt","no","sj","se","gb","al","ad","ba","hr","gi","gr","va","it","mt","me","mk","pt","sm","rs","si","es","xk","at","be","fr","de","li","lu","mc","nl","ch"],"exclude":["bg"]},"geometry":["point","area"],"matchScore":2,"terms":["xxxlutz"],"tags":{"brand:wikidata":"Q70339467","shop":"furniture"},"addTags":{"brand":"XXXLutz","brand:wikidata":"Q70339467","name":"XXXLutz","shop":"furniture"}},"shop/mobile_phone/cosmote-d5175a":{"name":"Cosmote","locationSet":{"include":["gr"]},"geometry":["point","area"],"matchScore":2,"terms":["cosmote"],"tags":{"brand:wikidata":"Q1136203","shop":"mobile_phone"},"addTags":{"brand":"Cosmote","brand:wikidata":"Q1136203","name":"Cosmote","shop":"mobile_phone"}},"shop/mobile_phone/windhellas-d5175a":{"name":"WIND Hellas","locationSet":{"include":["gr"]},"geometry":["point","area"],"matchScore":2,"terms":["wind","wind hellas"],"tags":{"brand:wikidata":"Q10711016","shop":"mobile_phone"},"addTags":{"brand":"WIND Hellas","brand:wikidata":"Q10711016","name":"WIND Hellas","shop":"mobile_phone"}},"shop/mobile_phone/germanos-602a3b":{"name":"Γερμανός","locationSet":{"include":["cy","gr"]},"geometry":["point","area"],"matchScore":2,"terms":["germanos","γερμανός"],"tags":{"brand:wikidata":"Q9267542","shop":"mobile_phone"},"addTags":{"brand":"Γερμανός","brand:wikidata":"Q9267542","name":"Γερμανός","name:el":"Γερμανός","name:en":"Germanos","shop":"mobile_phone"}},"shop/perfumery/equivalenza-59ad61":{"name":"Equivalenza","locationSet":{"include":["ad","ao","at","be","ca","cv","de","do","es","fr","gr","gt","ie","it","mx","mz","nl","pe","pt","ro","tn","uk"]},"geometry":["point","area"],"matchScore":2,"terms":["equivalenza"],"tags":{"brand:wikidata":"Q104649798","shop":"perfumery"},"addTags":{"brand":"Equivalenza","brand:wikidata":"Q104649798","name":"Equivalenza","shop":"perfumery"}},"shop/supermarket/auchan-925d9b":{"name":"Auchan","locationSet":{"include":["al","ad","ba","hr","gi","gr","va","it","mt","me","mk","pt","sm","rs","si","es","xk","by","bg","cz","hu","pl","md","ro","ru","sk","ua","at","be","fr","de","li","lu","mc","nl","ch","cn"],"exclude":["ru"]},"geometry":["point","area"],"matchScore":2,"terms":["auchan"],"tags":{"brand:wikidata":"Q758603","shop":"supermarket"},"addTags":{"brand":"Auchan","brand:wikidata":"Q758603","name":"Auchan","shop":"supermarket"}},"shop/supermarket/eurospar-4b5e11":{"name":"Eurospar","locationSet":{"include":["by","bg","cz","hu","pl","md","ro","ru","sk","ua","ax","gg","je","cq","dk","ee","fo","fi","is","ie","im","lv","lt","no","sj","se","gb","al","ad","ba","hr","gi","gr","va","it","mt","me","mk","pt","sm","rs","si","es","xk","at","be","fr","de","li","lu","mc","nl","ch"]},"geometry":["point","area"],"matchScore":2,"terms":["eurospar"],"tags":{"brand:wikidata":"Q12309283","shop":"supermarket"},"addTags":{"brand":"Eurospar","brand:wikidata":"Q12309283","name":"Eurospar","shop":"supermarket"}},"shop/supermarket/mixmarkt-3f43e2":{"name":"Mix Markt","locationSet":{"include":["at","be","cy","cz","de","es","fr","gb","gr","it","me","nl","pt"]},"geometry":["point","area"],"matchScore":2,"terms":["mix markt"],"tags":{"brand:wikidata":"Q327854","shop":"supermarket"},"addTags":{"brand":"Mix Markt","brand:wikidata":"Q327854","name":"Mix Markt","shop":"supermarket"}},"shop/supermarket/abvassilopoulos-37450e":{"name":"ΑΒ Βασιλόπουλος","locationSet":{"include":["gr"]},"geometry":["point","area"],"matchScore":2,"terms":["ab vassilopoulos","αβ βασιλόπουλος"],"tags":{"brand:wikidata":"Q4721807","shop":"supermarket"},"addTags":{"brand":"ΑΒ Βασιλόπουλος","brand:el":"ΑΒ Βασιλόπουλος","brand:en":"AB Vassilopoulos","brand:wikidata":"Q4721807","name":"ΑΒ Βασιλόπουλος","name:el":"ΑΒ Βασιλόπουλος","name:en":"AB Vassilopoulos","shop":"supermarket"}},"shop/supermarket/galaxias-37450e":{"name":"Γαλαξίας","locationSet":{"include":["gr"]},"geometry":["point","area"],"matchScore":2,"terms":["galaxias","γαλαξίας"],"tags":{"brand:wikidata":"Q5518063","shop":"supermarket"},"addTags":{"brand":"Γαλαξίας","brand:el":"Γαλαξίας","brand:en":"Galaxias","brand:wikidata":"Q5518063","name":"Γαλαξίας","name:el":"Γαλαξίας","name:en":"Galaxias","shop":"supermarket"}},"shop/supermarket/masoutis-37450e":{"name":"Μασούτης","locationSet":{"include":["gr"]},"geometry":["point","area"],"matchScore":2,"terms":["masoutis","μασούτης"],"tags":{"brand:wikidata":"Q6783887","shop":"supermarket"},"addTags":{"brand":"Μασούτης","brand:el":"Μασούτης","brand:en":"Masoutis","brand:wikidata":"Q6783887","name":"Μασούτης","name:el":"Μασούτης","name:en":"Masoutis","shop":"supermarket"}},"shop/supermarket/sklavenitis-40667a":{"name":"Σκλαβενίτης","locationSet":{"include":["cy","gr"]},"geometry":["point","area"],"matchScore":2,"terms":["sklavenitis","σκλαβενίτης"],"tags":{"brand:wikidata":"Q7536037","shop":"supermarket"},"addTags":{"brand":"Σκλαβενίτης","brand:el":"Σκλαβενίτης","brand:en":"Sklavenitis","brand:wikidata":"Q7536037","name":"Σκλαβενίτης","name:el":"Σκλαβενίτης","name:en":"Sklavenitis","shop":"supermarket"}},"shop/toys/jumbo-f2bb45":{"name":"Jumbo","locationSet":{"include":["al","ba","cy","gr","md","me","mk","ro","rs","xk"]},"geometry":["point","area"],"matchScore":2,"terms":["jumbo"],"tags":{"brand:wikidata":"Q3562323","shop":"toys"},"addTags":{"brand":"Jumbo","brand:wikidata":"Q3562323","name":"Jumbo","shop":"toys"}},"shop/variety_store/flyingtigercopenhagen-37d726":{"name":"Flying Tiger Copenhagen","locationSet":{"include":["at","be","ch","cy","cz","de","dk","ee","es","fi","fr","gb","gr","hu","ie","is","it","jp","kr","lt","lv","mt","nl","no","pl","pt","se","sk"]},"geometry":["point","area"],"matchScore":2,"terms":["flying tiger","flying tiger copenhagen","tgr","tiger"],"tags":{"brand:wikidata":"Q2786319","shop":"variety_store"},"addTags":{"brand":"Flying Tiger Copenhagen","brand:wikidata":"Q2786319","name":"Flying Tiger Copenhagen","shop":"variety_store","short_name":"Flying Tiger"}},"tourism/hotel/bandbhotel-fc8c2c":{"name":"B&B Hotel","locationSet":{"include":["by","bg","cz","hu","pl","md","ro","ru","sk","ua","ax","gg","je","cq","dk","ee","fo","fi","is","ie","im","lv","lt","no","sj","se","gb","al","ad","ba","hr","gi","gr","va","it","mt","me","mk","pt","sm","rs","si","es","xk","at","be","fr","de","li","lu","mc","nl","ch","br"]},"geometry":["point","area"],"matchScore":2,"terms":["b&b hotels"],"fields":["name","brand","{tourism/hotel}"],"tags":{"brand:wikidata":"Q794939","tourism":"hotel"},"addTags":{"brand":"B&B Hotels","brand:wikidata":"Q794939","name":"B&B Hotel","tourism":"hotel"}},"tourism/hotel/motelone-046fe6":{"name":"Motel One","locationSet":{"include":["by","bg","cz","hu","pl","md","ro","ru","sk","ua","ax","gg","je","cq","dk","ee","fo","fi","is","ie","im","lv","lt","no","sj","se","gb","al","ad","ba","hr","gi","gr","va","it","mt","me","mk","pt","sm","rs","si","es","xk","at","be","fr","de","li","lu","mc","nl","ch"]},"geometry":["point","area"],"matchScore":2,"terms":["motel one"],"fields":["name","brand","{tourism/hotel}"],"tags":{"brand:wikidata":"Q391080","tourism":"hotel"},"addTags":{"brand":"Motel One","brand:wikidata":"Q391080","name":"Motel One","tourism":"hotel"}},"amenity/charging_station/eon-7f623e":{"name":"E.ON","locationSet":{"include":["by","bg","cz","hu","pl","md","ro","ru","sk","ua","ax","gg","je","cq","dk","ee","fo","fi","is","ie","im","lv","lt","no","sj","se","gb","al","ad","ba","hr","gi","gr","va","it","mt","me","mk","pt","sm","rs","si","es","xk","at","be","fr","de","li","lu","mc","nl","ch"]},"geometry":["point","area"],"matchScore":2,"terms":["e-on drive","e.on"],"fields":["name","operator","{amenity/charging_station}"],"tags":{"amenity":"charging_station","operator:wikidata":"Q270223"},"addTags":{"amenity":"charging_station","operator":"E.ON","operator:wikidata":"Q270223"}},"amenity/charging_station/evbox-7f623e":{"name":"EVBOX","locationSet":{"include":["by","bg","cz","hu","pl","md","ro","ru","sk","ua","ax","gg","je","cq","dk","ee","fo","fi","is","ie","im","lv","lt","no","sj","se","gb","al","ad","ba","hr","gi","gr","va","it","mt","me","mk","pt","sm","rs","si","es","xk","at","be","fr","de","li","lu","mc","nl","ch"]},"geometry":["point","area"],"matchScore":2,"terms":["evbox"],"fields":["name","operator","{amenity/charging_station}"],"tags":{"amenity":"charging_station","operator:wikidata":"Q28406392"},"addTags":{"amenity":"charging_station","operator":"EVBOX","operator:wikidata":"Q28406392"}},"amenity/charging_station/qpark-7f623e":{"name":"Q-Park","locationSet":{"include":["by","bg","cz","hu","pl","md","ro","ru","sk","ua","ax","gg","je","cq","dk","ee","fo","fi","is","ie","im","lv","lt","no","sj","se","gb","al","ad","ba","hr","gi","gr","va","it","mt","me","mk","pt","sm","rs","si","es","xk","at","be","fr","de","li","lu","mc","nl","ch"]},"geometry":["point","area"],"matchScore":2,"terms":["q-park"],"fields":["name","operator","{amenity/charging_station}"],"tags":{"amenity":"charging_station","operator:wikidata":"Q1127798"},"addTags":{"amenity":"charging_station","operator":"Q-Park","operator:wikidata":"Q1127798"}},"amenity/charging_station/788cf3-e68869":{"name":"ΔΕΗ","locationSet":{"include":["gr"]},"geometry":["point","area"],"matchScore":2,"terms":["δεη"],"fields":["name","operator","{amenity/charging_station}"],"tags":{"amenity":"charging_station","operator:wikidata":"Q326345"},"addTags":{"amenity":"charging_station","operator":"ΔΕΗ","operator:wikidata":"Q326345"}},"amenity/post_box/hellenicpost-d6ef5f":{"name":"Ελληνικά Ταχυδρομεία","locationSet":{"include":["gr"]},"geometry":["point","vertex"],"matchScore":2,"terms":["hellenic post","ελληνικά ταχυδρομεία","ελτα"],"tags":{"amenity":"post_box","operator:wikidata":"Q1275135"},"addTags":{"amenity":"post_box","operator":"Ελληνικά Ταχυδρομεία","operator:el":"Ελληνικά Ταχυδρομεία","operator:en":"Hellenic Post","operator:wikidata":"Q1275135","short_name":"ΕΛΤΑ"}},"amenity/post_office/hellenicpost-f0c950":{"name":"Ελληνικά Ταχυδρομεία","locationSet":{"include":["gr"]},"geometry":["point","area"],"matchScore":2,"terms":["hellenic post","ελληνικά ταχυδρομεία","ελτα"],"fields":["name","operator","{amenity/post_office}"],"tags":{"amenity":"post_office","operator:wikidata":"Q1275135"},"addTags":{"amenity":"post_office","operator":"Ελληνικά Ταχυδρομεία","operator:el":"Ελληνικά Ταχυδρομεία","operator:en":"Hellenic Post","operator:wikidata":"Q1275135","short_name":"ΕΛΤΑ"}},"man_made/water_tower/41a232-23dae7":{"name":"ΕΥΑΘ","locationSet":{"include":["gr"]},"geometry":["area","point"],"matchScore":2,"terms":["ευαθ"],"tags":{"man_made":"water_tower","operator:wikidata":"Q15919663"},"addTags":{"man_made":"water_tower","operator":"ΕΥΑΘ","operator:wikidata":"Q15919663"}},"man_made/water_tower/41df5e-23dae7":{"name":"ΕΥΔΑΠ","locationSet":{"include":["gr"]},"geometry":["area","point"],"matchScore":2,"terms":["ευδαπ"],"tags":{"man_made":"water_tower","operator:wikidata":"Q15088495"},"addTags":{"man_made":"water_tower","operator":"ΕΥΔΑΠ","operator:wikidata":"Q15088495"}},"man_made/water_works/41a232-1c8757":{"name":"ΕΥΑΘ","locationSet":{"include":["gr"]},"geometry":["point","area"],"matchScore":2,"terms":["ευαθ"],"tags":{"man_made":"water_works","operator:wikidata":"Q15919663"},"addTags":{"man_made":"water_works","operator":"ΕΥΑΘ","operator:wikidata":"Q15919663"}},"man_made/water_works/41df5e-1c8757":{"name":"ΕΥΔΑΠ","locationSet":{"include":["gr"]},"geometry":["point","area"],"matchScore":2,"terms":["ευδαπ"],"tags":{"man_made":"water_works","operator:wikidata":"Q15088495"},"addTags":{"man_made":"water_works","operator":"ΕΥΔΑΠ","operator:wikidata":"Q15088495"}},"office/energy_supplier/elpedison-d62fd2":{"name":"Elpedison","locationSet":{"include":["gr"]},"geometry":["point","area"],"matchScore":2,"terms":["elpedison"],"tags":{"office":"energy_supplier","operator:wikidata":"Q28026003"},"addTags":{"name":"Elpedison","office":"energy_supplier","operator":"Elpedison","operator:wikidata":"Q28026003"}},"office/energy_supplier/publicpowercorporationsa-d62fd2":{"name":"Public Power Corporation SA","locationSet":{"include":["gr"]},"geometry":["point","area"],"matchScore":2,"terms":["public power corporation sa"],"tags":{"office":"energy_supplier","operator:wikidata":"Q326345"},"addTags":{"name":"Public Power Corporation SA","office":"energy_supplier","operator":"Public Power Corporation SA","operator:wikidata":"Q326345"}},"office/energy_supplier/wattvolt-d62fd2":{"name":"Watt+Volt","locationSet":{"include":["gr"]},"geometry":["point","area"],"matchScore":2,"terms":["watt+volt"],"tags":{"office":"energy_supplier","operator:wikidata":"Q25047624"},"addTags":{"name":"Watt+Volt","office":"energy_supplier","operator":"Watt+Volt","operator:wikidata":"Q25047624"}},"office/water_utility/41a232-0a36a3":{"name":"ΕΥΑΘ","locationSet":{"include":["gr"]},"geometry":["point","area"],"matchScore":2,"terms":["ευαθ"],"tags":{"office":"water_utility","operator:wikidata":"Q15919663"},"addTags":{"name":"ΕΥΑΘ","office":"water_utility","operator":"ΕΥΑΘ","operator:wikidata":"Q15919663"}},"office/water_utility/41df5e-0a36a3":{"name":"ΕΥΔΑΠ","locationSet":{"include":["gr"]},"geometry":["point","area"],"matchScore":2,"terms":["ευδαπ"],"tags":{"office":"water_utility","operator:wikidata":"Q15088495"},"addTags":{"name":"ΕΥΔΑΠ","office":"water_utility","operator":"ΕΥΔΑΠ","operator:wikidata":"Q15088495"}},"power/generator/innogy-16c9d0":{"name":"Innogy","locationSet":{"include":["by","bg","cz","hu","pl","md","ro","ru","sk","ua","ax","gg","je","cq","dk","ee","fo","fi","is","ie","im","lv","lt","no","sj","se","gb","al","ad","ba","hr","gi","gr","va","it","mt","me","mk","pt","sm","rs","si","es","xk","at","be","fr","de","li","lu","mc","nl","ch"]},"geometry":["point","vertex","area"],"matchScore":2,"terms":["innogy"],"tags":{"operator:wikidata":"Q2124721","power":"generator"},"addTags":{"operator":"Innogy","operator:wikidata":"Q2124721","power":"generator"}},"power/generator/rwe-16c9d0":{"name":"RWE","locationSet":{"include":["by","bg","cz","hu","pl","md","ro","ru","sk","ua","ax","gg","je","cq","dk","ee","fo","fi","is","ie","im","lv","lt","no","sj","se","gb","al","ad","ba","hr","gi","gr","va","it","mt","me","mk","pt","sm","rs","si","es","xk","at","be","fr","de","li","lu","mc","nl","ch"]},"geometry":["point","vertex","area"],"matchScore":2,"terms":["rwe"],"tags":{"operator:wikidata":"Q138133","power":"generator"},"addTags":{"operator":"RWE","operator:wikidata":"Q138133","power":"generator"}},"power/generator/statkraft-16c9d0":{"name":"Statkraft","locationSet":{"include":["by","bg","cz","hu","pl","md","ro","ru","sk","ua","ax","gg","je","cq","dk","ee","fo","fi","is","ie","im","lv","lt","no","sj","se","gb","al","ad","ba","hr","gi","gr","va","it","mt","me","mk","pt","sm","rs","si","es","xk","at","be","fr","de","li","lu","mc","nl","ch"]},"geometry":["point","vertex","area"],"matchScore":2,"terms":["statkraft"],"tags":{"operator:wikidata":"Q1681145","power":"generator"},"addTags":{"operator":"Statkraft","operator:wikidata":"Q1681145","power":"generator"}},"power/generator/uniper-16c9d0":{"name":"Uniper","locationSet":{"include":["by","bg","cz","hu","pl","md","ro","ru","sk","ua","ax","gg","je","cq","dk","ee","fo","fi","is","ie","im","lv","lt","no","sj","se","gb","al","ad","ba","hr","gi","gr","va","it","mt","me","mk","pt","sm","rs","si","es","xk","at","be","fr","de","li","lu","mc","nl","ch"]},"geometry":["point","vertex","area"],"matchScore":2,"terms":["uniper"],"tags":{"operator:wikidata":"Q19839259","power":"generator"},"addTags":{"operator":"Uniper","operator:wikidata":"Q19839259","power":"generator"}},"power/line/ipto-8d1dd6":{"name":"IPTO","locationSet":{"include":["gr"]},"geometry":["line"],"matchScore":2,"terms":["ipto"],"tags":{"operator:wikidata":"Q18161611","power":"line"},"addTags":{"operator":"IPTO","operator:wikidata":"Q18161611","power":"line"}},"power/line/788cf3-8d1dd6":{"name":"ΔΕΗ","locationSet":{"include":["gr"]},"geometry":["line"],"matchScore":2,"terms":["δεη"],"tags":{"operator:wikidata":"Q326345","power":"line"},"addTags":{"operator":"ΔΕΗ","operator:wikidata":"Q326345","power":"line"}},"power/minor_line/ipto-693934":{"name":"IPTO","locationSet":{"include":["gr"]},"geometry":["line"],"matchScore":2,"terms":["ipto"],"tags":{"operator:wikidata":"Q18161611","power":"minor_line"},"addTags":{"operator":"IPTO","operator:wikidata":"Q18161611","power":"minor_line"}},"power/minor_line/788cf3-693934":{"name":"ΔΕΗ","locationSet":{"include":["gr"]},"geometry":["line"],"matchScore":2,"terms":["δεη"],"tags":{"operator:wikidata":"Q326345","power":"minor_line"},"addTags":{"operator":"ΔΕΗ","operator:wikidata":"Q326345","power":"minor_line"}},"power/plant/voltalia-12b85e":{"name":"Voltalia","locationSet":{"include":["fr","gr"]},"geometry":["area"],"matchScore":2,"terms":["voltalia"],"tags":{"operator:wikidata":"Q57593821","power":"plant"},"addTags":{"operator":"Voltalia","operator:wikidata":"Q57593821","power":"plant"}},"power/plant/788cf3-245a70":{"name":"ΔΕΗ","locationSet":{"include":["gr"]},"geometry":["area"],"matchScore":2,"terms":["δεη"],"tags":{"operator:wikidata":"Q326345","power":"plant"},"addTags":{"operator":"ΔΕΗ","operator:wikidata":"Q326345","power":"plant"}},"power/pole/ipto-dfaa84":{"name":"IPTO","locationSet":{"include":["gr"]},"geometry":["point","vertex"],"matchScore":2,"terms":["ipto"],"tags":{"operator:wikidata":"Q18161611","power":"pole"},"addTags":{"operator":"IPTO","operator:wikidata":"Q18161611","power":"pole"}},"power/pole/788cf3-dfaa84":{"name":"ΔΕΗ","locationSet":{"include":["gr"]},"geometry":["point","vertex"],"matchScore":2,"terms":["δεη"],"tags":{"operator:wikidata":"Q326345","power":"pole"},"addTags":{"operator":"ΔΕΗ","operator:wikidata":"Q326345","power":"pole"}},"power/substation/ipto-cf2a0d":{"name":"IPTO","locationSet":{"include":["gr"]},"geometry":["area","point"],"matchScore":2,"terms":["ipto"],"tags":{"operator:wikidata":"Q18161611","power":"substation"},"addTags":{"operator":"IPTO","operator:wikidata":"Q18161611","power":"substation"}},"power/tower/ipto-05655c":{"name":"IPTO","locationSet":{"include":["gr"]},"geometry":["point","vertex"],"matchScore":2,"terms":["ipto"],"tags":{"operator:wikidata":"Q18161611","power":"tower"},"addTags":{"operator":"IPTO","operator:wikidata":"Q18161611","power":"tower"}},"power/tower/788cf3-05655c":{"name":"ΔΕΗ","locationSet":{"include":["gr"]},"geometry":["point","vertex"],"matchScore":2,"terms":["δεη"],"tags":{"operator:wikidata":"Q326345","power":"tower"},"addTags":{"operator":"ΔΕΗ","operator:wikidata":"Q326345","power":"tower"}},"power/transformer/ipto-922fc1":{"name":"IPTO","locationSet":{"include":["gr"]},"geometry":["point","vertex"],"matchScore":2,"terms":["ipto"],"tags":{"operator:wikidata":"Q18161611","power":"transformer"},"addTags":{"operator":"IPTO","operator:wikidata":"Q18161611","power":"transformer"}},"telecom/exchange/interoute-58ec5d":{"name":"Interoute","locationSet":{"include":["by","bg","cz","hu","pl","md","ro","ru","sk","ua","ax","gg","je","cq","dk","ee","fo","fi","is","ie","im","lv","lt","no","sj","se","gb","al","ad","ba","hr","gi","gr","va","it","mt","me","mk","pt","sm","rs","si","es","xk","at","be","fr","de","li","lu","mc","nl","ch"]},"geometry":["point","area"],"matchScore":2,"terms":["interoute"],"fields":["name","operator","{telecom/exchange}"],"tags":{"operator:wikidata":"Q1668090","telecom":"exchange"},"addTags":{"operator":"Interoute","operator:wikidata":"Q1668090","telecom":"exchange"}},"public_transport/platform/bus_point/ktel-eec9ee":{"name":"KTEL","locationSet":{"include":["gr"]},"geometry":["point","vertex"],"matchScore":2,"terms":["ktel"],"reference":{"key":"public_transport","value":"platform"},"tags":{"bus":"yes","network:wikidata":"Q1391110","public_transport":"platform"},"addTags":{"bus":"yes","highway":"bus_stop","network":"KTEL","network:wikidata":"Q1391110","public_transport":"platform"}},"type/route/bus/ktel-7e8526":{"name":"KTEL","locationSet":{"include":["gr"]},"geometry":["relation"],"matchScore":2,"terms":["ktel"],"reference":{"key":"route","value":"bus"},"tags":{"network:wikidata":"Q1391110","route":"bus","type":"route"},"addTags":{"network":"KTEL","network:wikidata":"Q1391110","route":"bus","type":"route"}},"type/route/train/eurocity-6b9d23":{"name":"EuroCity","locationSet":{"include":["by","bg","cz","hu","pl","md","ro","ru","sk","ua","ax","gg","je","cq","dk","ee","fo","fi","is","ie","im","lv","lt","no","sj","se","gb","al","ad","ba","hr","gi","gr","va","it","mt","me","mk","pt","sm","rs","si","es","xk","at","be","fr","de","li","lu","mc","nl","ch"]},"geometry":["relation"],"matchScore":2,"terms":["eurocity"],"reference":{"key":"route","value":"train"},"tags":{"network:wikidata":"Q753050","route":"train","type":"route"},"addTags":{"network":"EuroCity","network:wikidata":"Q753050","route":"train","type":"route"}},"type/route/train/euronight-6b9d23":{"name":"EuroNight","locationSet":{"include":["by","bg","cz","hu","pl","md","ro","ru","sk","ua","ax","gg","je","cq","dk","ee","fo","fi","is","ie","im","lv","lt","no","sj","se","gb","al","ad","ba","hr","gi","gr","va","it","mt","me","mk","pt","sm","rs","si","es","xk","at","be","fr","de","li","lu","mc","nl","ch"]},"geometry":["relation"],"matchScore":2,"terms":["euronight"],"reference":{"key":"route","value":"train"},"tags":{"network:wikidata":"Q257307","route":"train","type":"route"},"addTags":{"network":"EuroNight","network:wikidata":"Q257307","route":"train","type":"route"}},"type/route/train/proastiakos-055993":{"name":"Προαστιακός Αθήνας","locationSet":{"include":["gr"]},"geometry":["relation"],"matchScore":2,"terms":["proastiakos","προαστιακός αθήνας"],"reference":{"key":"route","value":"train"},"tags":{"network:wikidata":"Q18176333","route":"train","type":"route"},"addTags":{"network":"Προαστιακός Αθήνας","network:en":"Proastiakos","network:wikidata":"Q18176333","route":"train","type":"route"}}}