{"amenity/atm/bankofafrica-0517a4":{"name":"Bank of Africa","locationSet":{"include":["bf","bi","bj","cd","ci","dj","et","fr","gh","ke","mg","ml","ne","rw","sn","tg","tz","ug"]},"geometry":["point","vertex"],"matchScore":2,"terms":["bank of africa","boa"],"tags":{"amenity":"atm","brand:wikidata":"Q2882627"},"addTags":{"amenity":"atm","brand":"Bank of Africa","brand:wikidata":"Q2882627","name":"Bank of Africa","operator":"Bank of Africa","operator:wikidata":"Q2882627","short_name":"BOA"}},"amenity/atm/crdbbank-14cdb2":{"name":"CRDB Bank","locationSet":{"include":["tz"]},"geometry":["point","vertex"],"matchScore":2,"terms":["crdb bank"],"tags":{"amenity":"atm","brand:wikidata":"Q5013848"},"addTags":{"amenity":"atm","brand":"CRDB Bank","brand:wikidata":"Q5013848","name":"CRDB Bank","operator":"CRDB Bank","operator:wikidata":"Q5013848"}},"amenity/atm/equitybank-14cdb2":{"name":"Equity Bank (Tanzania)","locationSet":{"include":["tz"]},"geometry":["point","vertex"],"matchScore":2,"terms":["equity bank"],"tags":{"amenity":"atm","brand:wikidata":"Q5384667"},"addTags":{"amenity":"atm","brand":"Equity Bank","brand:wikidata":"Q5384667","name":"Equity Bank","operator":"Equity Bank","operator:wikidata":"Q5384667"}},"amenity/atm/gtbank-55d972":{"name":"GT Bank","locationSet":{"include":["ci","gb","gh","gm","ke","lr","ng","rw","tz","ug"]},"geometry":["point","vertex"],"matchScore":2,"terms":["gt bank","guaranty trust bank"],"tags":{"amenity":"atm","brand:wikidata":"Q579747"},"addTags":{"amenity":"atm","brand":"GT Bank","brand:wikidata":"Q579747","name":"GT Bank","official_name":"Guaranty Trust Bank","operator":"GT Bank","operator:wikidata":"Q579747"}},"amenity/atm/uba-69edd8":{"name":"UBA","locationSet":{"include":["bf","bj","cd","cg","ci","cm","fr","ga","gb","gh","gn","ke","lr","ml","mz","ng","sl","sn","td","tz","ug","us","zm"]},"geometry":["point","vertex"],"matchScore":2,"terms":["uba","united bank for africa"],"tags":{"amenity":"atm","brand:wikidata":"Q513457"},"addTags":{"amenity":"atm","brand":"UBA","brand:wikidata":"Q513457","name":"UBA","official_name":"United Bank for Africa","operator":"UBA","operator:wikidata":"Q513457"}},"amenity/bank/bankofafrica-0bcfcb":{"name":"Bank of Africa","locationSet":{"include":["bf","bi","bj","cd","ci","dj","et","fr","gh","ke","mg","ml","ne","rw","sn","tg","tz","ug"]},"geometry":["point","area"],"matchScore":2,"terms":["bank of africa","boa"],"tags":{"amenity":"bank","brand:wikidata":"Q2882627"},"addTags":{"amenity":"bank","brand":"Bank of Africa","brand:wikidata":"Q2882627","name":"Bank of Africa","short_name":"BOA"}},"amenity/bank/crdbbank-e14cdd":{"name":"CRDB Bank","locationSet":{"include":["tz"]},"geometry":["point","area"],"matchScore":2,"terms":["crdb bank"],"tags":{"amenity":"bank","brand:wikidata":"Q5013848"},"addTags":{"amenity":"bank","brand":"CRDB Bank","brand:wikidata":"Q5013848","name":"CRDB Bank"}},"amenity/bank/equitybank-e14cdd":{"name":"Equity Bank (Tanzania)","locationSet":{"include":["tz"]},"geometry":["point","area"],"matchScore":2,"terms":["equity bank"],"tags":{"amenity":"bank","brand:wikidata":"Q5384667"},"addTags":{"amenity":"bank","brand":"Equity Bank","brand:wikidata":"Q5384667","name":"Equity Bank"}},"amenity/bank/gtbank-b3c39a":{"name":"GT Bank","locationSet":{"include":["ci","gb","gh","gm","ke","lr","ng","rw","tz","ug"]},"geometry":["point","area"],"matchScore":2,"terms":["gt bank","guaranty trust bank"],"tags":{"amenity":"bank","brand:wikidata":"Q579747"},"addTags":{"amenity":"bank","brand":"GT Bank","brand:wikidata":"Q579747","name":"GT Bank","official_name":"Guaranty Trust Bank"}},"amenity/bank/uba-95540f":{"name":"UBA","locationSet":{"include":["bf","bj","cd","cg","ci","cm","fr","ga","gb","gh","gn","ke","lr","ml","mz","ng","sl","sn","td","tz","ug","us","zm"]},"geometry":["point","area"],"matchScore":2,"terms":["uba","united bank for africa"],"tags":{"amenity":"bank","brand:wikidata":"Q513457"},"addTags":{"amenity":"bank","brand":"UBA","brand:wikidata":"Q513457","name":"UBA","official_name":"United Bank for Africa"}},"amenity/fuel/kobil-568233":{"name":"Kobil","locationSet":{"include":["bi","et","ke","rw","tz","ug","zm"]},"geometry":["point","area"],"matchScore":2,"terms":["kobil"],"fields":["name","brand","{amenity/fuel}"],"tags":{"amenity":"fuel","brand:wikidata":"Q22906119"},"addTags":{"amenity":"fuel","brand":"Kobil","brand:wikidata":"Q22906119","name":"Kobil"}},"tourism/hotel/element-6dd642":{"name":"Element by Westin","locationSet":{"include":["ae","au","ca","cn","id","my","nl","tz","us"]},"geometry":["point","area"],"matchScore":2,"terms":["element"],"fields":["name","brand","{tourism/hotel}"],"tags":{"brand:wikidata":"Q91948072","tourism":"hotel"},"addTags":{"brand":"Element","brand:wikidata":"Q91948072","name":"Element","tourism":"hotel"}},"power/line/tanesco-62f471":{"name":"Tanesco","locationSet":{"include":["tz"]},"geometry":["line"],"matchScore":2,"terms":["tanesco"],"tags":{"operator:wikidata":"Q4050564","power":"line"},"addTags":{"operator":"Tanesco","operator:wikidata":"Q4050564","power":"line"}},"power/minor_line/tanesco-0a0f64":{"name":"Tanesco","locationSet":{"include":["tz"]},"geometry":["line"],"matchScore":2,"terms":["tanesco"],"tags":{"operator:wikidata":"Q4050564","power":"minor_line"},"addTags":{"operator":"Tanesco","operator:wikidata":"Q4050564","power":"minor_line"}},"power/plant/tanesco-ffca24":{"name":"TANESCO","locationSet":{"include":["tz"]},"geometry":["area"],"matchScore":2,"terms":["tanesco"],"tags":{"operator:wikidata":"Q4050564","power":"plant"},"addTags":{"operator":"TANESCO","operator:wikidata":"Q4050564","power":"plant"}},"power/pole/tanesco-9e4689":{"name":"Tanesco","locationSet":{"include":["tz"]},"geometry":["point","vertex"],"matchScore":2,"terms":["tanesco"],"tags":{"operator:wikidata":"Q4050564","power":"pole"},"addTags":{"operator":"Tanesco","operator:wikidata":"Q4050564","power":"pole"}},"power/substation/tanesco-48f37a":{"name":"TANESCO","locationSet":{"include":["tz"]},"geometry":["area","point"],"matchScore":2,"terms":["tanesco"],"tags":{"operator:wikidata":"Q4050564","power":"substation"},"addTags":{"operator":"TANESCO","operator:wikidata":"Q4050564","power":"substation"}},"power/tower/tanesco-2bd981":{"name":"Tanesco","locationSet":{"include":["tz"]},"geometry":["point","vertex"],"matchScore":2,"terms":["tanesco"],"tags":{"operator:wikidata":"Q4050564","power":"tower"},"addTags":{"operator":"Tanesco","operator:wikidata":"Q4050564","power":"tower"}},"power/transformer/tanesco-deb255":{"name":"TANESCO","locationSet":{"include":["tz"]},"geometry":["point","vertex"],"matchScore":2,"terms":["tanesco"],"tags":{"operator:wikidata":"Q4050564","power":"transformer"},"addTags":{"operator":"TANESCO","operator:wikidata":"Q4050564","power":"transformer"}}}