{"amenity/atm/attijariwafabank-e568eb":{"name":"Attijariwafa Bank (التجاري وفا بنك)","locationSet":{"include":["ae","be","bf","bj","ca","cd","cg","ch","ci","cm","eg","es","fr","ga","gb","it","ma","mr","nl","sa","sn","tg","tn"]},"geometry":["point","vertex"],"matchScore":2,"terms":["attijariwafa bank","attijariwafa bank التجاري وفا بنك","التجاري وفا بنك"],"tags":{"amenity":"atm","brand:wikidata":"Q758052"},"addTags":{"amenity":"atm","brand":"Attijariwafa Bank","brand:ar":"التجاري وفا بنك","brand:en":"Attijariwafa Bank","brand:wikidata":"Q758052","name:ar":"التجاري وفا بنك","name:en":"Attijariwafa Bank","operator":"Attijariwafa Bank","operator:wikidata":"Q758052"}},"amenity/atm/uba-69edd8":{"name":"UBA","locationSet":{"include":["bf","bj","cd","cg","ci","cm","fr","ga","gb","gh","gn","ke","lr","ml","mz","ng","sl","sn","td","tz","ug","us","zm"]},"geometry":["point","vertex"],"matchScore":2,"terms":["uba","united bank for africa"],"tags":{"amenity":"atm","brand:wikidata":"Q513457"},"addTags":{"amenity":"atm","brand":"UBA","brand:wikidata":"Q513457","name":"UBA","official_name":"United Bank for Africa","operator":"UBA","operator:wikidata":"Q513457"}},"amenity/bank/attijariwafabank-c1cae6":{"name":"Attijariwafa Bank (التجاري وفا بنك)","locationSet":{"include":["ae","be","bf","bj","ca","cd","cg","ch","ci","cm","eg","es","fr","ga","gb","it","ma","mr","nl","sa","sn","tg","tn"]},"geometry":["point","area"],"matchScore":2,"terms":["attijariwafa bank","attijariwafa bank التجاري وفا بنك","التجاري وفا بنك"],"tags":{"amenity":"bank","brand:wikidata":"Q758052"},"addTags":{"amenity":"bank","brand":"Attijariwafa Bank","brand:ar":"التجاري وفا بنك","brand:en":"Attijariwafa Bank","brand:wikidata":"Q758052","name:ar":"التجاري وفا بنك","name:en":"Attijariwafa Bank"}},"amenity/bank/uba-95540f":{"name":"UBA","locationSet":{"include":["bf","bj","cd","cg","ci","cm","fr","ga","gb","gh","gn","ke","lr","ml","mz","ng","sl","sn","td","tz","ug","us","zm"]},"geometry":["point","area"],"matchScore":2,"terms":["uba","united bank for africa"],"tags":{"amenity":"bank","brand:wikidata":"Q513457"},"addTags":{"amenity":"bank","brand":"UBA","brand:wikidata":"Q513457","name":"UBA","official_name":"United Bank for Africa"}},"shop/bakery/paul-652955":{"name":"Paul","locationSet":{"include":["ae","az","be","bh","by","ci","cy","cz","eg","es","fr","ga","gb","ge","gr","id","in","jo","jp","kw","kz","lb","lu","ma","mu","my","om","pa","ph","pl","pt","qa","ro","ru","sa","sg","th","tn","tw","ua","us","uz","vn","za"]},"geometry":["point","area"],"matchScore":2,"terms":["paul"],"tags":{"brand:wikidata":"Q3370417","shop":"bakery"},"addTags":{"brand":"Paul","brand:wikidata":"Q3370417","name":"Paul","shop":"bakery"}}}