{"amenity/atm/halykbank-89b827":{"name":"Halyk Bank","locationSet":{"include":["ge","kg","kz","ru","tj","uz"]},"geometry":["point","vertex"],"matchScore":2,"terms":["«қазақстан халық банкі» ақ","halyk bank","ао «народный банк казахстана»","казкоммерцбанк","народный банк","халык банк","халық банкі"],"fields":["name","brand","{amenity/atm}"],"tags":{"amenity":"atm","brand:wikidata":"Q1046186"},"addTags":{"amenity":"atm","brand":"Halyk Bank","brand:wikidata":"Q1046186","name:kk":"Халық Банкі","name:ru":"Халык банк","official_name:kk":"«Қазақстан Халық Банкі» АҚ","official_name:ru":"АО «Народный Банк Казахстана»","old_name":"Народный банк","operator":"Halyk Bank","operator:wikidata":"Q1046186"}},"amenity/bank/halykbank-93fd52":{"name":"Halyk Bank","locationSet":{"include":["ge","kg","kz","ru","tj","uz"]},"geometry":["point","area"],"matchScore":2,"terms":["«қазақстан халық банкі» ақ","halyk bank","ао «народный банк казахстана»","казкоммерцбанк","народный банк","халык банк","халық банкі"],"tags":{"amenity":"bank","brand:wikidata":"Q1046186"},"addTags":{"amenity":"bank","brand":"Halyk Bank","brand:wikidata":"Q1046186","name":"Halyk Bank","name:kk":"Халық Банкі","name:ru":"Халык банк","official_name:kk":"«Қазақстан Халық Банкі» АҚ","official_name:ru":"АО «Народный Банк Казахстана»","old_name":"Народный банк"}},"amenity/fuel/as24-3463db":{"name":"AS 24","locationSet":{"include":["at","be","bg","cz","de","dk","es","fr","gb","ge","gr","hr","hu","ie","it","lt","lu","mk","nl","pl","pt","ro","rs","se","si","sk","ua"]},"geometry":["point","area"],"matchScore":2,"terms":["as 24"],"fields":["name","brand","{amenity/fuel}"],"tags":{"amenity":"fuel","brand:wikidata":"Q2819394"},"addTags":{"amenity":"fuel","brand":"AS 24","brand:wikidata":"Q2819394","hgv":"only","name":"AS 24"}},"amenity/fuel/rompetrol-cd5088":{"name":"Rompetrol","locationSet":{"include":["ge","md","ro"]},"geometry":["point","area"],"matchScore":2,"terms":["rompetrol"],"fields":["name","brand","{amenity/fuel}"],"tags":{"amenity":"fuel","brand:wikidata":"Q1788862"},"addTags":{"amenity":"fuel","brand":"Rompetrol","brand:wikidata":"Q1788862","name":"Rompetrol"}},"amenity/pharmacy/aversi-6b8b1e":{"name":"ავერსი","locationSet":{"include":["ge"]},"geometry":["point","area"],"matchScore":2,"terms":["aversi","аверси","ავერსი"],"reference":{"key":"amenity","value":"pharmacy"},"tags":{"amenity":"pharmacy","brand:wikidata":"Q55653978"},"addTags":{"amenity":"pharmacy","brand":"ავერსი","brand:en":"Aversi","brand:ka":"ავერსი","brand:wikidata":"Q55653978","healthcare":"pharmacy","name":"ავერსი","name:en":"Aversi","name:ka":"ავერსი","name:ru":"Аверси"}},"amenity/pharmacy/psp-6b8b1e":{"name":"პსპ","locationSet":{"include":["ge"]},"geometry":["point","area"],"matchScore":2,"terms":["psp","psp pharmacy","პსპ","პსპ აფთიაქი"],"reference":{"key":"amenity","value":"pharmacy"},"tags":{"amenity":"pharmacy","brand:wikidata":"Q115970964"},"addTags":{"amenity":"pharmacy","brand":"პსპ","brand:en":"PSP","brand:ka":"პსპ","brand:wikidata":"Q115970964","healthcare":"pharmacy","name":"პსპ","name:en":"PSP","name:ka":"პსპ"}},"office/telecommunication/beeline-c5e7fc":{"name":"Билайн","locationSet":{"include":["ge","kg","kz","ru"]},"geometry":["point","area"],"matchScore":2,"terms":["beeline","билайн"],"tags":{"brand:wikidata":"Q402880","office":"telecommunication"},"addTags":{"brand":"Билайн","brand:en":"Beeline","brand:ru":"Билайн","brand:wikidata":"Q402880","name":"Билайн","name:en":"Beeline","name:ru":"Билайн","office":"telecommunication"}},"shop/bakery/paul-652955":{"name":"Paul","locationSet":{"include":["ae","az","be","bh","by","ci","cy","cz","eg","es","fr","ga","gb","ge","gr","id","in","jo","jp","kw","kz","lb","lu","ma","mu","my","om","pa","ph","pl","pt","qa","ro","ru","sa","sg","th","tn","tw","ua","us","uz","vn","za"]},"geometry":["point","area"],"matchScore":2,"terms":["paul"],"tags":{"brand:wikidata":"Q3370417","shop":"bakery"},"addTags":{"brand":"Paul","brand:wikidata":"Q3370417","name":"Paul","shop":"bakery"}},"shop/tea/palaisdesthes-9d2342":{"name":"Palais des Thés","locationSet":{"include":["be","fr","ge","il","lu","no","ru"]},"geometry":["point","area"],"matchScore":2,"terms":["palais des thés"],"tags":{"brand:wikidata":"Q3225161","shop":"tea"},"addTags":{"brand":"Palais des Thés","brand:wikidata":"Q3225161","name":"Palais des Thés","shop":"tea"}},"amenity/post_box/georgianpost-a9190e":{"name":"Georgian Post","locationSet":{"include":["ge"]},"geometry":["point","vertex"],"matchScore":2,"terms":["georgian post"],"tags":{"amenity":"post_box","operator:wikidata":"Q12869041"},"addTags":{"amenity":"post_box","operator":"Georgian Post","operator:wikidata":"Q12869041"}},"amenity/post_office/georgianpost-791091":{"name":"Georgian Post","locationSet":{"include":["ge"]},"geometry":["point","area"],"matchScore":2,"terms":["georgian post"],"fields":["name","operator","{amenity/post_office}"],"tags":{"amenity":"post_office","operator:wikidata":"Q12869041"},"addTags":{"amenity":"post_office","operator":"Georgian Post","operator:wikidata":"Q12869041"}},"power/plant/energopro-8a4876":{"name":"Energo-Pro","locationSet":{"include":["bg","cz","ge","si","tr"]},"geometry":["area"],"matchScore":2,"terms":["energo-pro"],"tags":{"operator:wikidata":"Q11878927","power":"plant"},"addTags":{"operator":"Energo-Pro","operator:wikidata":"Q11878927","power":"plant"}},"type/route/subway/tbilisimetro-eb3f06":{"name":"Tbilisi Metro","locationSet":{"include":["ge"]},"geometry":["relation"],"matchScore":2,"terms":["tbilisi metro","tbilisi transport company","ttc.com.ge"],"reference":{"key":"route","value":"subway"},"tags":{"network:wikidata":"Q37006","route":"subway","type":"route"},"addTags":{"network":"Tbilisi Metro","network:wikidata":"Q37006","route":"subway","type":"route"}}}