{"amenity/fuel/azpetrol-0dbc25":{"name":"Azpetrol","locationSet":{"include":["az"]},"geometry":["point","area"],"matchScore":2,"terms":["azpetrol"],"fields":["name","brand","{amenity/fuel}"],"tags":{"amenity":"fuel","brand:wikidata":"Q4034661"},"addTags":{"amenity":"fuel","brand":"Azpetrol","brand:wikidata":"Q4034661","name":"Azpetrol"}},"office/telecommunication/azercell-898395":{"name":"Azercell","locationSet":{"include":["az"]},"geometry":["point","area"],"matchScore":2,"terms":["azercell"],"tags":{"brand:wikidata":"Q2639931","office":"telecommunication"},"addTags":{"brand":"Azercell","brand:wikidata":"Q2639931","name":"Azercell","office":"telecommunication"}},"shop/bakery/paul-652955":{"name":"Paul","locationSet":{"include":["ae","az","be","bh","by","ci","cy","cz","eg","es","fr","ga","gb","ge","gr","id","in","jo","jp","kw","kz","lb","lu","ma","mu","my","om","pa","ph","pl","pt","qa","ro","ru","sa","sg","th","tn","tw","ua","us","uz","vn","za"]},"geometry":["point","area"],"matchScore":2,"terms":["paul"],"tags":{"brand:wikidata":"Q3370417","shop":"bakery"},"addTags":{"brand":"Paul","brand:wikidata":"Q3370417","name":"Paul","shop":"bakery"}},"shop/shoes/drkong-2bd793":{"name":"Dr. Kong","locationSet":{"include":["az","bn","bu","cn","es","id","mn","my","ph","sg","th","uz"]},"geometry":["point","area"],"matchScore":2,"terms":["dr. kong","江博士"],"tags":{"brand:wikidata":"Q116547631","shop":"shoes"},"addTags":{"brand":"Dr. Kong","brand:wikidata":"Q116547631","name":"Dr. Kong","name:en":"Dr. Kong","shop":"shoes"}},"amenity/post_box/azerpost-f6482c":{"name":"Azerpost","locationSet":{"include":["az"]},"geometry":["point","vertex"],"matchScore":2,"terms":["azerpost"],"tags":{"amenity":"post_box","operator:wikidata":"Q2660860"},"addTags":{"amenity":"post_box","operator":"Azerpost","operator:wikidata":"Q2660860"}},"amenity/post_office/azerpost-ab1104":{"name":"Azerpost","locationSet":{"include":["az"]},"geometry":["point","area"],"matchScore":2,"terms":["azerpost"],"fields":["name","operator","{amenity/post_office}"],"tags":{"amenity":"post_office","operator:wikidata":"Q2660860"},"addTags":{"amenity":"post_office","operator":"Azerpost","operator:wikidata":"Q2660860"}},"power/plant/azerenerji-a01010":{"name":"Azerenerji","locationSet":{"include":["az"]},"geometry":["area"],"matchScore":2,"terms":["azerenerji"],"tags":{"operator:wikidata":"Q4832456","power":"plant"},"addTags":{"operator":"Azerenerji","operator:wikidata":"Q4832456","power":"plant"}},"type/route/subway/bakumetro-88ca36":{"name":"Baku Metro","locationSet":{"include":["az"]},"geometry":["relation"],"matchScore":2,"terms":["baku metro"],"reference":{"key":"route","value":"subway"},"tags":{"network:wikidata":"Q213271","route":"subway","type":"route"},"addTags":{"network":"Baku Metro","network:wikidata":"Q213271","route":"subway","type":"route"}}}