{"amenity/atm/citynationalbank-97e06e":{"name":"City National Bank (California)","locationSet":{"include":["us-ca","us-dc","us-de","us-fl","us-ga","us-ma","us-mn","us-nv","us-ny","us-tn","us-va"]},"geometry":["point","vertex"],"matchScore":2,"terms":["city national bank"],"tags":{"amenity":"atm","brand:wikidata":"Q5123314"},"addTags":{"amenity":"atm","brand":"City National Bank","brand:wikidata":"Q5123314","name":"City National Bank","operator":"City National Bank","operator:wikidata":"Q5123314"}},"amenity/atm/citynationalbank-1c09a7":{"name":"City National Bank (Florida)","locationSet":{"include":["us-fl"]},"geometry":["point","vertex"],"matchScore":2,"terms":["city national bank","city national bank of florida"],"tags":{"amenity":"atm","brand:wikidata":"Q16958644"},"addTags":{"amenity":"atm","brand":"City National Bank","brand:wikidata":"Q16958644","name":"City National Bank","official_name":"City National Bank of Florida","operator":"City National Bank","operator:wikidata":"Q16958644"}},"amenity/atm/communityfirstcreditunion-1c09a7":{"name":"Community First Credit Union","locationSet":{"include":["us-fl"]},"geometry":["point","vertex"],"matchScore":2,"terms":["community first credit union"],"tags":{"amenity":"atm","brand:wikidata":"Q110718704"},"addTags":{"amenity":"atm","brand":"Community First Credit Union","brand:wikidata":"Q110718704","name":"Community First Credit Union","operator":"Community First Credit Union","operator:wikidata":"Q110718704"}},"amenity/atm/republicbank-10254d":{"name":"Republic Bank (Kentucky)","locationSet":{"include":["us-fl","us-in","us-ky","us-oh","us-tn"]},"geometry":["point","vertex"],"matchScore":2,"terms":["republic bank","republic bank & trust company"],"tags":{"amenity":"atm","brand:wikidata":"Q7314387"},"addTags":{"amenity":"atm","brand":"Republic Bank","brand:wikidata":"Q7314387","name":"Republic Bank","official_name":"Republic Bank & Trust Company","operator":"Republic Bank","operator:wikidata":"Q7314387"}},"amenity/atm/selfhelpcreditunion-f893c2":{"name":"Self-Help Credit Union","locationSet":{"include":["us-fl","us-nc","us-sc","us-va"]},"geometry":["point","vertex"],"matchScore":2,"terms":["self-help credit union"],"tags":{"amenity":"atm","brand:wikidata":"Q111381769"},"addTags":{"amenity":"atm","brand":"Self-Help Credit Union","brand:wikidata":"Q111381769","name":"Self-Help Credit Union","operator":"Self-Help Credit Union","operator:wikidata":"Q111381769"}},"amenity/bank/citynationalbank-0b143b":{"name":"City National Bank (California)","locationSet":{"include":["us-ca","us-dc","us-de","us-fl","us-ga","us-ma","us-mn","us-nv","us-ny","us-tn","us-va"]},"geometry":["point","area"],"matchScore":2,"terms":["city national bank"],"tags":{"amenity":"bank","brand:wikidata":"Q5123314"},"addTags":{"amenity":"bank","brand":"City National Bank","brand:wikidata":"Q5123314","name":"City National Bank"}},"amenity/bank/citynationalbank-9ffb0f":{"name":"City National Bank (Florida)","locationSet":{"include":["us-fl"]},"geometry":["point","area"],"matchScore":2,"terms":["city national bank","city national bank of florida"],"tags":{"amenity":"bank","brand:wikidata":"Q16958644"},"addTags":{"amenity":"bank","brand":"City National Bank","brand:wikidata":"Q16958644","name":"City National Bank","official_name":"City National Bank of Florida"}},"amenity/bank/communityfirstcreditunion-9ffb0f":{"name":"Community First Credit Union","locationSet":{"include":["us-fl"]},"geometry":["point","area"],"matchScore":2,"terms":["community first credit union"],"tags":{"amenity":"bank","brand:wikidata":"Q110718704"},"addTags":{"amenity":"bank","brand":"Community First Credit Union","brand:wikidata":"Q110718704","name":"Community First Credit Union"}},"amenity/bank/republicbank-6552d3":{"name":"Republic Bank (Kentucky)","locationSet":{"include":["us-fl","us-in","us-ky","us-oh","us-tn"]},"geometry":["point","area"],"matchScore":2,"terms":["republic bank","republic bank & trust company"],"tags":{"amenity":"bank","brand:wikidata":"Q7314387"},"addTags":{"amenity":"bank","brand":"Republic Bank","brand:wikidata":"Q7314387","name":"Republic Bank","official_name":"Republic Bank & Trust Company"}},"amenity/bank/selfhelpcreditunion-2b62fb":{"name":"Self-Help Credit Union","locationSet":{"include":["us-fl","us-nc","us-sc","us-va"]},"geometry":["point","area"],"matchScore":2,"terms":["self-help credit union"],"tags":{"amenity":"bank","brand:wikidata":"Q111381769"},"addTags":{"amenity":"bank","brand":"Self-Help Credit Union","brand:wikidata":"Q111381769","name":"Self-Help Credit Union"}},"amenity/fast_food/alohapokeco-6b3f2b":{"name":"Aloha Pokē Co","locationSet":{"include":["us-dc","us-fl","us-ga","us-il","us-mn","us-tx","us-wi"]},"geometry":["point","area"],"matchScore":2,"terms":["aloha pokē co"],"tags":{"amenity":"fast_food","brand:wikidata":"Q111231031"},"addTags":{"amenity":"fast_food","brand":"Aloha Pokē Co","brand:wikidata":"Q111231031","cuisine":"poke","name":"Aloha Pokē Co","takeaway":"yes"}},"amenity/fuel/cefco-7de6f8":{"name":"CEFCO","locationSet":{"include":["us-al","us-fl","us-la","us-ms","us-tx"]},"geometry":["point","area"],"matchScore":2,"terms":["cefco"],"fields":["name","brand","{amenity/fuel}"],"tags":{"amenity":"fuel","brand:wikidata":"Q110209230"},"addTags":{"amenity":"fuel","brand":"CEFCO","brand:wikidata":"Q110209230","name":"CEFCO"}},"amenity/fuel/wawa-f5bad4":{"name":"Wawa","locationSet":{"include":["us-dc","us-de","us-fl","us-md","us-nj","us-pa","us-va"]},"geometry":["point","area"],"matchScore":2,"terms":["wawa"],"fields":["name","brand","{amenity/fuel}"],"tags":{"amenity":"fuel","brand:wikidata":"Q5936320"},"addTags":{"amenity":"fuel","brand":"Wawa","brand:wikidata":"Q5936320","name":"Wawa"}},"amenity/ice_cream/jenissplendidicecreams-53b2e0":{"name":"Jeni's Splendid Ice Cream","locationSet":{"include":["us-al","us-ca","us-dc","us-fl","us-ga","us-il","us-mo","us-nc","us-oh","us-pa","us-sc","us-tn","us-tx"]},"geometry":["point","area"],"matchScore":2,"terms":["jeni's","jeni's splendid ice creams"],"tags":{"amenity":"ice_cream","brand:wikidata":"Q16851196"},"addTags":{"amenity":"ice_cream","brand":"Jeni's Splendid Ice Creams","brand:wikidata":"Q16851196","name":"Jeni's Splendid Ice Creams","short_name":"Jeni's"}},"amenity/restaurant/american/lazydog-f4f1ab":{"name":"Lazy Dog","locationSet":{"include":["us-ca","us-co","us-fl","us-ga","us-il","us-nv","us-tx","us-va"]},"geometry":["point","area"],"matchScore":2,"terms":["lazy dog"],"reference":{"key":"cuisine","value":"american"},"tags":{"amenity":"restaurant","brand:wikidata":"Q111304278","cuisine":"american"},"addTags":{"amenity":"restaurant","brand":"Lazy Dog","brand:wikidata":"Q111304278","cuisine":"american","name":"Lazy Dog"}},"shop/cannabis/rise-ce371d":{"name":"RISE","locationSet":{"include":["us-fl","us-il","us-ma","us-md","us-nj","us-nv","us-oh","us-pa","us-va"]},"geometry":["point","area"],"matchScore":2,"terms":["rise"],"tags":{"brand:wikidata":"Q108911841","shop":"cannabis"},"addTags":{"brand":"RISE","brand:wikidata":"Q108911841","name":"RISE","shop":"cannabis"}},"shop/convenience/cefco-abc9e1":{"name":"CEFCO","locationSet":{"include":["us-al","us-fl","us-la","us-ms","us-tx"]},"geometry":["point","area"],"matchScore":2,"terms":["cefco"],"tags":{"brand:wikidata":"Q110209230","shop":"convenience"},"addTags":{"amenity":"fuel","brand":"CEFCO","brand:wikidata":"Q110209230","name":"CEFCO","shop":"convenience"}},"shop/convenience/wawa-dad45f":{"name":"Wawa","locationSet":{"include":["us-dc","us-de","us-fl","us-md","us-nj","us-pa","us-va"]},"geometry":["point","area"],"matchScore":2,"terms":["wawa"],"tags":{"brand:wikidata":"Q5936320","shop":"convenience"},"addTags":{"brand":"Wawa","brand:wikidata":"Q5936320","name":"Wawa","shop":"convenience"}},"shop/department_store/bealls-834cda":{"name":"Bealls (Florida-based)","locationSet":{"include":["us-az","us-fl","us-ga"]},"geometry":["point","area"],"matchScore":2,"terms":["bealls"],"tags":{"brand:wikidata":"Q4876153","shop":"department_store"},"addTags":{"brand":"Bealls","brand:wikidata":"Q4876153","name":"Bealls","shop":"department_store"}},"shop/hairdresser/imagestudios-0d42d5":{"name":"Image Studios","locationSet":{"include":["us-ca","us-co","us-fl","us-ga","us-ky","us-mo","us-nc","us-nj","us-nv","us-ny","us-oh","us-or","us-sc","us-tn","us-tx","us-ut"]},"geometry":["point","area"],"matchScore":2,"terms":["image studios"],"tags":{"brand:wikidata":"Q110998819","shop":"hairdresser"},"addTags":{"brand":"Image Studios","brand:wikidata":"Q110998819","name":"Image Studios","shop":"hairdresser"}},"shop/storage_rental/thelockup-b15f96":{"name":"The Lock Up","locationSet":{"include":["us-ct","us-fl","us-hi","us-il","us-ma","us-mn","us-nj","us-ny"]},"geometry":["point","area"],"matchScore":2,"terms":["the lock up"],"tags":{"brand:wikidata":"Q17089825","shop":"storage_rental"},"addTags":{"brand":"The Lock Up","brand:wikidata":"Q17089825","name":"The Lock Up","shop":"storage_rental"}},"tourism/hotel/yotel-ebcca5":{"name":"YOTEL","locationSet":{"include":["ae","ch","fx","gb","nl","pt","sg","tr","us-ca","us-dc","us-fl","us-ma","us-ny"]},"geometry":["point","area"],"matchScore":2,"terms":["yotel"],"fields":["name","brand","{tourism/hotel}"],"tags":{"brand:wikidata":"Q8046002","tourism":"hotel"},"addTags":{"brand":"YOTEL","brand:wikidata":"Q8046002","name":"YOTEL","tourism":"hotel"}},"amenity/library/alachuacountylibrarydistrict-7fd740":{"name":"Alachua County Library District","locationSet":{"include":["us-fl"]},"geometry":["point","area"],"matchScore":2,"terms":["alachua county library district"],"tags":{"amenity":"library","operator:wikidata":"Q4705448"},"addTags":{"amenity":"library","operator":"Alachua County Library District","operator:type":"public","operator:wikidata":"Q4705448"}},"amenity/library/ocpubliclibraries-7fd740":{"name":"OC Public Libraries","locationSet":{"include":["us-fl"]},"geometry":["point","area"],"matchScore":2,"terms":["oc public libraries","ocpl"],"tags":{"amenity":"library","operator:wikidata":"Q66369360"},"addTags":{"amenity":"library","operator":"OC Public Libraries","operator:short":"OCPL","operator:type":"public","operator:wikidata":"Q66369360"}},"amenity/library/orangecountylibrarysystem-7fd740":{"name":"Orange County Library System","locationSet":{"include":["us-fl"]},"geometry":["point","area"],"matchScore":2,"terms":["ocls","orange county library system"],"tags":{"amenity":"library","operator:wikidata":"Q7099576"},"addTags":{"amenity":"library","operator":"Orange County Library System","operator:short":"OCLS","operator:type":"public","operator:wikidata":"Q7099576"}},"amenity/prison/floridadepartmentofcorrections-59f3bf":{"name":"Florida Department of Corrections","locationSet":{"include":["us-fl"]},"geometry":["area","point"],"matchScore":2,"terms":["florida department of corrections"],"fields":["name","operator","{amenity/prison}"],"tags":{"amenity":"prison","operator:wikidata":"Q5461316"},"addTags":{"amenity":"prison","operator":"Florida Department of Corrections","operator:wikidata":"Q5461316"}},"amenity/school/alachuacountypublicschools-e8bc2a":{"name":"Alachua County Public Schools","locationSet":{"include":["us-fl"]},"geometry":["area","point"],"matchScore":2,"terms":["acps","alachua county public schools"],"tags":{"amenity":"school","operator:wikidata":"Q7432152"},"addTags":{"amenity":"school","operator":"Alachua County Public Schools","operator:short":"ACPS","operator:type":"public","operator:wikidata":"Q7432152"}},"amenity/school/duvalcountypublicschools-e8bc2a":{"name":"Duval County Public Schools","locationSet":{"include":["us-fl"]},"geometry":["area","point"],"matchScore":2,"terms":["dcps","duval county public schools"],"tags":{"amenity":"school","operator:wikidata":"Q5317603"},"addTags":{"amenity":"school","operator":"Duval County Public Schools","operator:short":"DCPS","operator:type":"public","operator:wikidata":"Q5317603"}},"amenity/school/hillsboroughcountypublicschools-e8bc2a":{"name":"Hillsborough County Public Schools","locationSet":{"include":["us-fl"]},"geometry":["area","point"],"matchScore":2,"terms":["hcps","hillsborough county public schools"],"tags":{"amenity":"school","operator:wikidata":"Q8778311"},"addTags":{"amenity":"school","operator":"Hillsborough County Public Schools","operator:short":"HCPS","operator:type":"public","operator:wikidata":"Q8778311"}},"amenity/school/manateecountyschooldistrict-e8bc2a":{"name":"Manatee County School District","locationSet":{"include":["us-fl"]},"geometry":["area","point"],"matchScore":2,"terms":["manatee county school district","mcsd"],"tags":{"amenity":"school","operator:wikidata":"Q6747061"},"addTags":{"amenity":"school","operator":"Manatee County School District","operator:short":"MCSD","operator:type":"public","operator:wikidata":"Q6747061"}},"amenity/school/miamidadecountypublicschools-e8bc2a":{"name":"Miami-Dade County Public Schools","locationSet":{"include":["us-fl"]},"geometry":["area","point"],"matchScore":2,"terms":["mdcps","miami-dade county public schools"],"tags":{"amenity":"school","operator:wikidata":"Q5640011"},"addTags":{"amenity":"school","operator":"Miami-Dade County Public Schools","operator:short":"MDCPS","operator:type":"public","operator:wikidata":"Q5640011"}},"amenity/school/orangecountypublicschools-e8bc2a":{"name":"Orange County Public Schools","locationSet":{"include":["us-fl"]},"geometry":["area","point"],"matchScore":2,"terms":["ocps","orange county public schools"],"tags":{"amenity":"school","operator:wikidata":"Q8778313"},"addTags":{"amenity":"school","operator":"Orange County Public Schools","operator:short":"OCPS","operator:type":"public","operator:wikidata":"Q8778313"}},"amenity/school/unioncountyschooldistrict-e8bc2a":{"name":"Union County School District (Florida)","locationSet":{"include":["us-fl"]},"geometry":["area","point"],"matchScore":2,"terms":["union county school district"],"tags":{"amenity":"school","operator:wikidata":"Q16909768"},"addTags":{"amenity":"school","operator":"Union County School District","operator:type":"public","operator:wikidata":"Q16909768"}},"leisure/nature_reserve/cityofbelleair-611b25":{"name":"City of Belleair","locationSet":{"include":["us-fl"]},"geometry":["area","point"],"matchScore":2,"terms":["city of belleair"],"tags":{"leisure":"nature_reserve","operator:wikidata":"Q2092758"},"addTags":{"leisure":"nature_reserve","operator":"City of Belleair","operator:type":"public","operator:wikidata":"Q2092758"}},"leisure/nature_reserve/cityofboyntonbeach-611b25":{"name":"City of Boynton Beach","locationSet":{"include":["us-fl"]},"geometry":["area","point"],"matchScore":2,"terms":["city of boynton beach"],"tags":{"leisure":"nature_reserve","operator:wikidata":"Q896048"},"addTags":{"leisure":"nature_reserve","operator":"City of Boynton Beach","operator:type":"public","operator:wikidata":"Q896048"}},"leisure/nature_reserve/cityofclearwater-611b25":{"name":"City of Clearwater","locationSet":{"include":["us-fl"]},"geometry":["area","point"],"matchScore":2,"terms":["city of clearwater"],"tags":{"leisure":"nature_reserve","operator:wikidata":"Q244146"},"addTags":{"leisure":"nature_reserve","operator":"City of Clearwater","operator:type":"public","operator:wikidata":"Q244146"}},"leisure/nature_reserve/cityofmiami-611b25":{"name":"City of Miami","locationSet":{"include":["us-fl"]},"geometry":["area","point"],"matchScore":2,"terms":["city of miami"],"tags":{"leisure":"nature_reserve","operator:wikidata":"Q8652"},"addTags":{"leisure":"nature_reserve","operator":"City of Miami","operator:type":"public","operator:wikidata":"Q8652"}},"leisure/nature_reserve/cityoforlando-611b25":{"name":"City of Orlando","locationSet":{"include":["us-fl"]},"geometry":["area","point"],"matchScore":2,"terms":["city of orlando","orlando"],"tags":{"leisure":"nature_reserve","operator:wikidata":"Q49233"},"addTags":{"leisure":"nature_reserve","operator":"City of Orlando","operator:type":"public","operator:wikidata":"Q49233"}},"leisure/nature_reserve/cityofstuart-611b25":{"name":"City of Stuart","locationSet":{"include":["us-fl"]},"geometry":["area","point"],"matchScore":2,"terms":["city of stuart"],"tags":{"leisure":"nature_reserve","operator:wikidata":"Q988744"},"addTags":{"leisure":"nature_reserve","operator":"City of Stuart","operator:type":"public","operator:wikidata":"Q988744"}},"leisure/nature_reserve/cityoftallahassee-611b25":{"name":"City of Tallahassee","locationSet":{"include":["us-fl"]},"geometry":["area","point"],"matchScore":2,"terms":["city of tallahassee"],"tags":{"leisure":"nature_reserve","operator:wikidata":"Q37043"},"addTags":{"leisure":"nature_reserve","operator":"City of Tallahassee","operator:type":"public","operator:wikidata":"Q37043"}},"leisure/nature_reserve/winterpark-611b25":{"name":"City of Winter Park","locationSet":{"include":["us-fl"]},"geometry":["area","point"],"matchScore":2,"terms":["winter park"],"tags":{"leisure":"nature_reserve","operator:wikidata":"Q986641"},"addTags":{"leisure":"nature_reserve","operator":"Winter Park","operator:type":"public","operator:wikidata":"Q986641"}},"leisure/nature_reserve/floridastateparks-611b25":{"name":"Florida State Parks","locationSet":{"include":["us-fl"]},"geometry":["area","point"],"matchScore":2,"terms":["florida state parks","fsp"],"tags":{"leisure":"nature_reserve","operator:wikidata":"Q5461615"},"addTags":{"leisure":"nature_reserve","operator":"Florida State Parks","operator:short":"FSP","operator:type":"public","operator:wikidata":"Q5461615"}},"leisure/nature_reserve/hillsboroughcounty-611b25":{"name":"Hillsborough County (Florida)","locationSet":{"include":["us-fl"]},"geometry":["area","point"],"matchScore":2,"terms":["hillsborough county","hillsborough county parks, receration and conservation department"],"tags":{"leisure":"nature_reserve","operator:wikidata":"Q488874"},"addTags":{"leisure":"nature_reserve","operator":"Hillsborough County","operator:type":"public","operator:wikidata":"Q488874"}},"leisure/nature_reserve/martincounty-611b25":{"name":"Martin County (Florida)","locationSet":{"include":["us-fl"]},"geometry":["area","point"],"matchScore":2,"terms":["martin county"],"tags":{"leisure":"nature_reserve","operator:wikidata":"Q648752"},"addTags":{"leisure":"nature_reserve","operator":"Martin County","operator:type":"public","operator:wikidata":"Q648752"}},"leisure/nature_reserve/orangecountyparksandrecreation-611b25":{"name":"Orange County Parks & Recreation","locationSet":{"include":["us-fl"]},"geometry":["area","point"],"matchScore":2,"terms":["orange county parks & recreation"],"tags":{"leisure":"nature_reserve","operator:wikidata":"Q21020929"},"addTags":{"leisure":"nature_reserve","operator":"Orange County Parks & Recreation","operator:type":"public","operator:wikidata":"Q21020929"}},"leisure/park/cityofbelleair-38b713":{"name":"City of Belleair","locationSet":{"include":["us-fl"]},"geometry":["area","point"],"matchScore":2,"terms":["city of belleair"],"tags":{"leisure":"park","operator:wikidata":"Q2092758"},"addTags":{"leisure":"park","operator":"City of Belleair","operator:type":"public","operator:wikidata":"Q2092758"}},"leisure/park/cityofboyntonbeach-38b713":{"name":"City of Boynton Beach","locationSet":{"include":["us-fl"]},"geometry":["area","point"],"matchScore":2,"terms":["city of boynton beach"],"tags":{"leisure":"park","operator:wikidata":"Q896048"},"addTags":{"leisure":"park","operator":"City of Boynton Beach","operator:type":"public","operator:wikidata":"Q896048"}},"leisure/park/cityofclearwater-38b713":{"name":"City of Clearwater","locationSet":{"include":["us-fl"]},"geometry":["area","point"],"matchScore":2,"terms":["city of clearwater"],"tags":{"leisure":"park","operator:wikidata":"Q244146"},"addTags":{"leisure":"park","operator":"City of Clearwater","operator:type":"public","operator:wikidata":"Q244146"}},"leisure/park/cityofmiami-38b713":{"name":"City of Miami","locationSet":{"include":["us-fl"]},"geometry":["area","point"],"matchScore":2,"terms":["city of miami"],"tags":{"leisure":"park","operator:wikidata":"Q8652"},"addTags":{"leisure":"park","operator":"City of Miami","operator:type":"public","operator:wikidata":"Q8652"}},"leisure/park/cityoforlando-38b713":{"name":"City of Orlando","locationSet":{"include":["us-fl"]},"geometry":["area","point"],"matchScore":2,"terms":["city of orlando","orlando"],"tags":{"leisure":"park","operator:wikidata":"Q49233"},"addTags":{"leisure":"park","operator":"City of Orlando","operator:type":"public","operator:wikidata":"Q49233"}},"leisure/park/cityofstuart-38b713":{"name":"City of Stuart","locationSet":{"include":["us-fl"]},"geometry":["area","point"],"matchScore":2,"terms":["city of stuart"],"tags":{"leisure":"park","operator:wikidata":"Q988744"},"addTags":{"leisure":"park","operator":"City of Stuart","operator:type":"public","operator:wikidata":"Q988744"}},"leisure/park/cityoftallahassee-38b713":{"name":"City of Tallahassee","locationSet":{"include":["us-fl"]},"geometry":["area","point"],"matchScore":2,"terms":["city of tallahassee"],"tags":{"leisure":"park","operator:wikidata":"Q37043"},"addTags":{"leisure":"park","operator":"City of Tallahassee","operator:type":"public","operator:wikidata":"Q37043"}},"leisure/park/winterpark-38b713":{"name":"City of Winter Park","locationSet":{"include":["us-fl"]},"geometry":["area","point"],"matchScore":2,"terms":["winter park"],"tags":{"leisure":"park","operator:wikidata":"Q986641"},"addTags":{"leisure":"park","operator":"Winter Park","operator:type":"public","operator:wikidata":"Q986641"}},"leisure/park/floridastateparks-38b713":{"name":"Florida State Parks","locationSet":{"include":["us-fl"]},"geometry":["area","point"],"matchScore":2,"terms":["florida state parks","fsp"],"tags":{"leisure":"park","operator:wikidata":"Q5461615"},"addTags":{"leisure":"park","operator":"Florida State Parks","operator:short":"FSP","operator:type":"public","operator:wikidata":"Q5461615"}},"leisure/park/hillsboroughcounty-38b713":{"name":"Hillsborough County (Florida)","locationSet":{"include":["us-fl"]},"geometry":["area","point"],"matchScore":2,"terms":["hillsborough county","hillsborough county parks, receration and conservation department"],"tags":{"leisure":"park","operator:wikidata":"Q488874"},"addTags":{"leisure":"park","operator":"Hillsborough County","operator:type":"public","operator:wikidata":"Q488874"}},"leisure/park/martincounty-38b713":{"name":"Martin County (Florida)","locationSet":{"include":["us-fl"]},"geometry":["area","point"],"matchScore":2,"terms":["martin county"],"tags":{"leisure":"park","operator:wikidata":"Q648752"},"addTags":{"leisure":"park","operator":"Martin County","operator:type":"public","operator:wikidata":"Q648752"}},"leisure/park/orangecountyparksandrecreation-38b713":{"name":"Orange County Parks & Recreation","locationSet":{"include":["us-fl"]},"geometry":["area","point"],"matchScore":2,"terms":["orange county parks & recreation"],"tags":{"leisure":"park","operator:wikidata":"Q21020929"},"addTags":{"leisure":"park","operator":"Orange County Parks & Recreation","operator:type":"public","operator:wikidata":"Q21020929"}},"office/government/floridadepartmentofhighwaysafetyandmotorvehicles-75d2a7":{"name":"FLHSMV","locationSet":{"include":["us-fl"]},"geometry":["point","area"],"matchScore":2,"terms":["driver licenses","flhsmv","florida department of highway safety and motor vehicles"],"tags":{"office":"government","operator:wikidata":"Q5461320"},"addTags":{"government":"transportation","office":"government","operator":"Florida Department of Highway Safety and Motor Vehicles","operator:short":"FLHSMV","operator:wikidata":"Q5461320"}},"power/generator/floridapowerandlight-2af0cf":{"name":"Florida Power & Light","locationSet":{"include":["us-fl"]},"geometry":["point","vertex","area"],"matchScore":2,"terms":["flordia power and light","florida power & light","fpl"],"tags":{"operator:wikidata":"Q1430055","power":"generator"},"addTags":{"operator":"Florida Power & Light","operator:wikidata":"Q1430055","power":"generator"}},"power/line/floridapowerandlight-05df97":{"name":"Florida Power & Light","locationSet":{"include":["us-fl"]},"geometry":["line"],"matchScore":2,"terms":["flordia power and light","florida power & light","fpl"],"tags":{"operator:wikidata":"Q1430055","power":"line"},"addTags":{"operator":"Florida Power & Light","operator:wikidata":"Q1430055","power":"line"}},"power/minor_line/floridapowerandlight-1d9dd1":{"name":"Florida Power & Light","locationSet":{"include":["us-fl"]},"geometry":["line"],"matchScore":2,"terms":["flordia power and light","florida power & light","fpl"],"tags":{"operator:wikidata":"Q1430055","power":"minor_line"},"addTags":{"operator":"Florida Power & Light","operator:wikidata":"Q1430055","power":"minor_line"}},"power/pole/floridapowerandlight-7b79c3":{"name":"Florida Power & Light","locationSet":{"include":["us-fl"]},"geometry":["point","vertex"],"matchScore":2,"terms":["flordia power and light","florida power & light","fpl"],"tags":{"operator:wikidata":"Q1430055","power":"pole"},"addTags":{"operator":"Florida Power & Light","operator:wikidata":"Q1430055","power":"pole"}},"power/substation/floridapowerandlight-8432e2":{"name":"Florida Power & Light","locationSet":{"include":["us-fl"]},"geometry":["area","point"],"matchScore":2,"terms":["flordia power and light","florida power & light","fpl"],"tags":{"operator:wikidata":"Q1430055","power":"substation"},"addTags":{"operator":"Florida Power & Light","operator:wikidata":"Q1430055","power":"substation"}},"power/tower/floridapowerandlight-a2a8ba":{"name":"Florida Power & Light","locationSet":{"include":["us-fl"]},"geometry":["point","vertex"],"matchScore":2,"terms":["flordia power and light","florida power & light","fpl"],"tags":{"operator:wikidata":"Q1430055","power":"tower"},"addTags":{"operator":"Florida Power & Light","operator:wikidata":"Q1430055","power":"tower"}},"power/transformer/floridapowerandlight-c33728":{"name":"Florida Power & Light","locationSet":{"include":["us-fl"]},"geometry":["point","vertex"],"matchScore":2,"terms":["flordia power and light","florida power & light","fpl"],"tags":{"operator:wikidata":"Q1430055","power":"transformer"},"addTags":{"operator":"Florida Power & Light","operator:wikidata":"Q1430055","power":"transformer"}},"public_transport/platform/bus_point/palmtran-654e4b":{"name":"Palm Tran","locationSet":{"include":["us-fl"]},"geometry":["point","vertex"],"matchScore":2,"terms":["palm tran"],"reference":{"key":"public_transport","value":"platform"},"tags":{"bus":"yes","network:wikidata":"Q7128083","public_transport":"platform"},"addTags":{"bus":"yes","highway":"bus_stop","network":"Palm Tran","network:wikidata":"Q7128083","public_transport":"platform"}},"public_transport/platform/bus_point/scat-654e4b":{"name":"SCAT (Saratosa County)","locationSet":{"include":["us-fl"]},"geometry":["point","vertex"],"matchScore":2,"terms":["sarasota county area transit","scat"],"reference":{"key":"public_transport","value":"platform"},"tags":{"bus":"yes","network:wikidata":"Q7423226","public_transport":"platform"},"addTags":{"bus":"yes","highway":"bus_stop","network":"SCAT","network:wikidata":"Q7423226","operator":"Sarasota County Area Transit","public_transport":"platform"}},"public_transport/platform/bus_point/starmetro-654e4b":{"name":"StarMetro","locationSet":{"include":["us-fl"]},"geometry":["point","vertex"],"matchScore":2,"terms":["starmetro"],"reference":{"key":"public_transport","value":"platform"},"tags":{"bus":"yes","network:wikidata":"Q7600550","public_transport":"platform"},"addTags":{"bus":"yes","highway":"bus_stop","network":"StarMetro","network:wikidata":"Q7600550","public_transport":"platform"}},"public_transport/platform/bus_point/votran-654e4b":{"name":"Votran","locationSet":{"include":["us-fl"]},"geometry":["point","vertex"],"matchScore":2,"terms":["volusia county public transit system","votran"],"reference":{"key":"public_transport","value":"platform"},"tags":{"bus":"yes","network:wikidata":"Q7941092","public_transport":"platform"},"addTags":{"bus":"yes","highway":"bus_stop","network":"Votran","network:wikidata":"Q7941092","operator":"Volusia County Public Transit System","public_transport":"platform"}},"type/route/bus/palmtran-e591f2":{"name":"Palm Tran","locationSet":{"include":["us-fl"]},"geometry":["relation"],"matchScore":2,"terms":["palm tran"],"reference":{"key":"route","value":"bus"},"tags":{"network:wikidata":"Q7128083","route":"bus","type":"route"},"addTags":{"network":"Palm Tran","network:wikidata":"Q7128083","route":"bus","type":"route"}},"type/route/bus/scat-e591f2":{"name":"SCAT (Saratosa County)","locationSet":{"include":["us-fl"]},"geometry":["relation"],"matchScore":2,"terms":["sarasota county area transit","scat"],"reference":{"key":"route","value":"bus"},"tags":{"network:wikidata":"Q7423226","route":"bus","type":"route"},"addTags":{"network":"SCAT","network:wikidata":"Q7423226","operator":"Sarasota County Area Transit","route":"bus","type":"route"}},"type/route/bus/starmetro-e591f2":{"name":"StarMetro","locationSet":{"include":["us-fl"]},"geometry":["relation"],"matchScore":2,"terms":["starmetro"],"reference":{"key":"route","value":"bus"},"tags":{"network:wikidata":"Q7600550","route":"bus","type":"route"},"addTags":{"network":"StarMetro","network:wikidata":"Q7600550","route":"bus","type":"route"}},"type/route/bus/votran-e591f2":{"name":"Votran","locationSet":{"include":["us-fl"]},"geometry":["relation"],"matchScore":2,"terms":["volusia county public transit system","votran"],"reference":{"key":"route","value":"bus"},"tags":{"network:wikidata":"Q7941092","route":"bus","type":"route"},"addTags":{"network":"Votran","network:wikidata":"Q7941092","operator":"Volusia County Public Transit System","route":"bus","type":"route"}}}