{"amenity/atm/gtbank-55d972":{"name":"GT Bank","locationSet":{"include":["ci","gb","gh","gm","ke","lr","ng","rw","tz","ug"]},"geometry":["point","vertex"],"matchScore":2,"terms":["gt bank","guaranty trust bank"],"fields":["name","brand","{amenity/atm}"],"tags":{"amenity":"atm","brand:wikidata":"Q579747"},"addTags":{"amenity":"atm","brand":"GT Bank","brand:wikidata":"Q579747","official_name":"Guaranty Trust Bank","operator":"GT Bank","operator:wikidata":"Q579747"}},"amenity/atm/uba-69edd8":{"name":"UBA","locationSet":{"include":["bf","bj","cd","cg","ci","cm","fr","ga","gb","gh","gn","ke","lr","ml","mz","ng","sl","sn","td","tz","ug","us","zm"]},"geometry":["point","vertex"],"matchScore":2,"terms":["uba","united bank for africa"],"fields":["name","brand","{amenity/atm}"],"tags":{"amenity":"atm","brand:wikidata":"Q513457"},"addTags":{"amenity":"atm","brand":"UBA","brand:wikidata":"Q513457","official_name":"United Bank for Africa","operator":"UBA","operator:wikidata":"Q513457"}},"amenity/bank/gtbank-b3c39a":{"name":"GT Bank","locationSet":{"include":["ci","gb","gh","gm","ke","lr","ng","rw","tz","ug"]},"geometry":["point","area"],"matchScore":2,"terms":["gt bank","guaranty trust bank"],"tags":{"amenity":"bank","brand:wikidata":"Q579747"},"addTags":{"amenity":"bank","brand":"GT Bank","brand:wikidata":"Q579747","name":"GT Bank","official_name":"Guaranty Trust Bank"}},"amenity/bank/uba-95540f":{"name":"UBA","locationSet":{"include":["bf","bj","cd","cg","ci","cm","fr","ga","gb","gh","gn","ke","lr","ml","mz","ng","sl","sn","td","tz","ug","us","zm"]},"geometry":["point","area"],"matchScore":2,"terms":["uba","united bank for africa"],"tags":{"amenity":"bank","brand:wikidata":"Q513457"},"addTags":{"amenity":"bank","brand":"UBA","brand:wikidata":"Q513457","name":"UBA","official_name":"United Bank for Africa"}},"amenity/fuel/engen-b7f522":{"name":"Engen","locationSet":{"include":["dz","eg","ly","ma","sd","tn","eh","io","bi","km","dj","er","et","tf","ke","mg","mw","mu","yt","mz","re","rw","sc","so","ss","ug","tz","zm","zw","ao","cm","cf","td","cg","cd","gq","ga","st","bw","sz","ls","na","za","bj","bf","cv","ci","gm","gh","gn","gw","lr","ml","mr","ne","ng","sn","sl","tg","sh"]},"geometry":["point","area"],"matchScore":2,"terms":["engen","engen petroleum"],"fields":["name","brand","{amenity/fuel}"],"tags":{"amenity":"fuel","brand:wikidata":"Q3054251"},"addTags":{"amenity":"fuel","brand":"Engen","brand:wikidata":"Q3054251","name":"Engen"}},"shop/mobile_phone/mtn-fe03c5":{"name":"MTN","locationSet":{"include":["af","bj","bw","cg","ci","cm","gn","gw","ir","lr","ni","rw","sd","ss","sy","ug","ye","za","zm"]},"geometry":["point","area"],"matchScore":2,"terms":["agence mtn","mtn"],"tags":{"brand:wikidata":"Q1813361","shop":"mobile_phone"},"addTags":{"brand":"MTN","brand:wikidata":"Q1813361","name":"MTN","shop":"mobile_phone"}},"amenity/hospital/ministryofhealthandsocialwelfare-4dfcc6":{"name":"Ministry of Health and Social Welfare (Liberia)","locationSet":{"include":["lr"]},"geometry":["area","point"],"matchScore":2,"terms":["ministry of health","ministry of health and social welfare"],"fields":["name","operator","{amenity/hospital}"],"reference":{"key":"amenity","value":"hospital"},"tags":{"amenity":"hospital","operator:wikidata":"Q18085770"},"addTags":{"amenity":"hospital","healthcare":"hospital","operator":"Ministry of Health and Social Welfare","operator:wikidata":"Q18085770"}},"man_made/mast/communication/mtn-a5a5e8":{"name":"MTN","locationSet":{"include":["af","bj","bw","cg","ci","cm","gn","gw","ir","lr","ni","rw","sd","ss","sy","ug","ye","za","zm"]},"geometry":["point","vertex"],"matchScore":2,"terms":["agence mtn","mtn"],"reference":{"key":"tower:type","value":"communication"},"tags":{"man_made":"mast","operator:wikidata":"Q1813361","tower:type":"communication"},"addTags":{"man_made":"mast","operator":"MTN","operator:wikidata":"Q1813361","tower:type":"communication"}},"man_made/tower/communication/mtn-a1bc20":{"name":"MTN","locationSet":{"include":["af","bj","bw","cg","ci","cm","gn","gw","ir","lr","ni","rw","sd","ss","sy","ug","ye","za","zm"]},"geometry":["point","vertex","area"],"matchScore":2,"terms":["agence mtn","mtn"],"reference":{"key":"tower:type","value":"communication"},"tags":{"man_made":"tower","operator:wikidata":"Q1813361","tower:type":"communication"},"addTags":{"man_made":"tower","operator":"MTN","operator:wikidata":"Q1813361","tower:type":"communication"}}}