{"amenity/atm/buseybank-25700e":{"name":"Busey Bank","locationSet":{"include":["us-il","us-in","us-mo"]},"geometry":["point","vertex"],"matchScore":2,"terms":["busey bank"],"tags":{"amenity":"atm","brand:wikidata":"Q5001347"},"addTags":{"amenity":"atm","brand":"Busey Bank","brand:wikidata":"Q5001347","brand:wikipedia":"en:Busey Bank","name":"Busey Bank","operator":"Busey Bank","operator:wikidata":"Q5001347","operator:wikipedia":"en:Busey Bank"}},"amenity/bank/buseybank-8fb7e1":{"name":"Busey Bank","locationSet":{"include":["us-il","us-in","us-mo"]},"geometry":["point","area"],"matchScore":2,"terms":["busey bank"],"tags":{"amenity":"bank","brand:wikidata":"Q5001347"},"addTags":{"amenity":"bank","brand":"Busey Bank","brand:wikidata":"Q5001347","brand:wikipedia":"en:Busey Bank","name":"Busey Bank"}},"amenity/clinic/gohealthurgentcare-c4274f":{"name":"Mercy-GoHealth Urgent Care","locationSet":{"include":["us-ar","us-mo","us-ok"]},"geometry":["point","area"],"matchScore":2,"terms":["gohealth urgent care","mercy"],"reference":{"key":"amenity","value":"clinic"},"tags":{"amenity":"clinic","brand:wikidata":"Q110282081"},"addTags":{"amenity":"clinic","brand":"GoHealth Urgent Care","brand:wikidata":"Q110282081","healthcare":"clinic","operator":"Mercy","operator:wikidata":"Q19896177","operator:wikipedia":"en:Mercy (healthcare organization)"}},"amenity/fast_food/chicken/haroldschickenshack-f76ba8":{"name":"Harold's Chicken Shack","locationSet":{"include":["us-az","us-ca","us-ga","us-il","us-in","us-mo","us-nv"]},"geometry":["point","area"],"matchScore":2,"terms":["harold's","harold's chicken","harold's chicken shack","the fried chicken king"],"reference":{"key":"cuisine","value":"chicken"},"tags":{"amenity":"fast_food","brand:wikidata":"Q5659832","cuisine":"chicken"},"addTags":{"amenity":"fast_food","brand":"Harold's Chicken Shack","brand:wikidata":"Q5659832","brand:wikipedia":"en:Harold's Chicken Shack","cuisine":"chicken","name":"Harold's Chicken Shack","takeaway":"yes"}},"amenity/ice_cream/jenissplendidicecreams-53b2e0":{"name":"Jeni's Splendid Ice Cream","locationSet":{"include":["us-al","us-ca","us-dc","us-fl","us-ga","us-il","us-mo","us-nc","us-oh","us-pa","us-sc","us-tn","us-tx"]},"geometry":["point","area"],"matchScore":2,"terms":["jeni's","jeni's splendid ice creams"],"tags":{"amenity":"ice_cream","brand:wikidata":"Q16851196"},"addTags":{"amenity":"ice_cream","brand":"Jeni's Splendid Ice Creams","brand:wikidata":"Q16851196","brand:wikipedia":"en:Jeni's Splendid Ice Creams","name":"Jeni's Splendid Ice Creams","short_name":"Jeni's"}},"amenity/restaurant/snooze-62450c":{"name":"Snooze","locationSet":{"include":["us-az","us-ca","us-co","us-ga","us-ks","us-mo","us-nc","us-tn","us-tx"]},"geometry":["point","area"],"matchScore":2,"terms":["snooze"],"tags":{"amenity":"restaurant","brand:wikidata":"Q111304345"},"addTags":{"amenity":"restaurant","brand":"Snooze","brand:wikidata":"Q111304345","cuisine":"breakfast","name":"Snooze"}},"leisure/fitness_centre/theedgefitnessclub-773501":{"name":"The Edge Fitness Club","locationSet":{"include":["us-ct","us-de","us-il","us-mi","us-mo","us-nj","us-pa","us-ri"]},"geometry":["point","area"],"matchScore":2,"terms":["the edge fitness club"],"tags":{"brand:wikidata":"Q109339519","leisure":"fitness_centre"},"addTags":{"brand":"The Edge Fitness Club","brand:wikidata":"Q109339519","leisure":"fitness_centre","name":"The Edge Fitness Club"}},"shop/hairdresser/imagestudios-0d42d5":{"name":"Image Studios","locationSet":{"include":["us-ca","us-co","us-fl","us-ga","us-ky","us-mo","us-nc","us-nj","us-nv","us-ny","us-oh","us-or","us-sc","us-tn","us-tx","us-ut"]},"geometry":["point","area"],"matchScore":2,"terms":["image studios"],"tags":{"brand:wikidata":"Q110998819","shop":"hairdresser"},"addTags":{"brand":"Image Studios","brand:wikidata":"Q110998819","name":"Image Studios","shop":"hairdresser"}},"shop/supermarket/pricechopper-8741a7":{"name":"Price Chopper (Kansas City)","locationSet":{"include":["us-ks","us-mo"]},"geometry":["point","area"],"matchScore":2,"terms":["price chopper"],"tags":{"brand:wikidata":"Q7242572","shop":"supermarket"},"addTags":{"brand":"Price Chopper","brand:wikidata":"Q7242572","brand:wikipedia":"en:Price Chopper (supermarket)","name":"Price Chopper","shop":"supermarket"}},"shop/trade/altorfercat-786476":{"name":"Altorfer CAT","locationSet":{"include":["us-ia","us-il","us-in","us-mo"]},"geometry":["point","area"],"matchScore":2,"terms":["altorfer cat"],"tags":{"brand:wikidata":"Q109616115","shop":"trade"},"addTags":{"brand":"Altorfer CAT","brand:wikidata":"Q109616115","name":"Altorfer CAT","shop":"trade","trade":"construction_equipment"}},"shop/trade/fabickcat-755a12":{"name":"Fabick CAT","locationSet":{"include":["us-il","us-mi","us-mo","us-wi"]},"geometry":["point","area"],"matchScore":2,"terms":["fabick cat"],"tags":{"brand:wikidata":"Q109619462","shop":"trade"},"addTags":{"brand":"Fabick CAT","brand:wikidata":"Q109619462","name":"Fabick CAT","shop":"trade","trade":"construction_equipment"}},"shop/trade/zieglercat-b606bc":{"name":"Ziegler CAT","locationSet":{"include":["us-ia","us-mn","us-mo","us-wi"]},"geometry":["point","area"],"matchScore":2,"terms":["ziegler cat"],"tags":{"brand:wikidata":"Q109619444","shop":"trade"},"addTags":{"brand":"Ziegler CAT","brand:wikidata":"Q109619444","name":"Ziegler CAT","shop":"trade","trade":"construction_equipment"}},"amenity/school/columbiapublicschools-9c7c62":{"name":"Columbia Public Schools","locationSet":{"include":["us-mo"]},"geometry":["area","point"],"matchScore":2,"terms":["columbia public schools","cps"],"tags":{"amenity":"school","operator:wikidata":"Q5149802"},"addTags":{"amenity":"school","operator":"Columbia Public Schools","operator:short":"CPS","operator:type":"public","operator:wikidata":"Q5149802","operator:wikipedia":"en:Columbia Public Schools"}},"amenity/school/independenceschooldistrict-9c7c62":{"name":"Independence School District","locationSet":{"include":["us-mo"]},"geometry":["area","point"],"matchScore":2,"terms":["independence school district","isd"],"tags":{"amenity":"school","operator:wikidata":"Q6016172"},"addTags":{"amenity":"school","operator":"Independence School District","operator:short":"ISD","operator:type":"public","operator:wikidata":"Q6016172","operator:wikipedia":"en:Independence Public School District"}},"amenity/school/parkwayschools-9c7c62":{"name":"Parkway Schools","locationSet":{"include":["us-mo"]},"geometry":["area","point"],"matchScore":2,"terms":["parkway school district","parkway schools"],"tags":{"amenity":"school","operator:wikidata":"Q7142256"},"addTags":{"amenity":"school","operator":"Parkway Schools","operator:type":"public","operator:wikidata":"Q7142256","operator:wikipedia":"en:Paso Robles Joint Unified School District"}},"amenity/school/saintlouispublicschools-9c7c62":{"name":"Saint Louis Public Schools","locationSet":{"include":["us-mo"]},"geometry":["area","point"],"matchScore":2,"terms":["saint louis public schools","slps"],"tags":{"amenity":"school","operator:wikidata":"Q4117147"},"addTags":{"amenity":"school","operator":"Saint Louis Public Schools","operator:short":"SLPS","operator:type":"public","operator:wikidata":"Q4117147","operator:wikipedia":"en:St. Louis Public Schools"}},"amenity/school/springfieldpublicschools-9c7c62":{"name":"Springfield Public Schools (Missouri)","locationSet":{"include":["us-mo"]},"geometry":["area","point"],"matchScore":2,"terms":["springfield public schools","sps"],"tags":{"amenity":"school","operator:wikidata":"Q48969688"},"addTags":{"amenity":"school","operator":"Springfield Public Schools","operator:short":"SPS","operator:type":"public","operator:wikidata":"Q48969688","operator:wikipedia":"en:Springfield Public Schools (Missouri)"}},"leisure/nature_reserve/cityofbrentwood-44b06a":{"name":"City of Brentwood (Missouri)","locationSet":{"include":["us-mo"]},"geometry":["area","point"],"matchScore":2,"terms":["city of brentwood"],"tags":{"leisure":"nature_reserve","operator:wikidata":"Q965612"},"addTags":{"leisure":"nature_reserve","operator":"City of Brentwood","operator:type":"public","operator:wikidata":"Q965612","operator:wikipedia":"en:Brentwood, Missouri"}},"leisure/nature_reserve/cityofgladstone-44b06a":{"name":"City of Gladstone (Missouri)","locationSet":{"include":["us-mo"]},"geometry":["area","point"],"matchScore":2,"terms":["city of gladstone"],"tags":{"leisure":"nature_reserve","operator:wikidata":"Q968179"},"addTags":{"leisure":"nature_reserve","operator":"City of Gladstone","operator:type":"public","operator:wikidata":"Q968179","operator:wikipedia":"en:Gladstone, Missouri"}},"leisure/nature_reserve/cityofrollamissouri-44b06a":{"name":"City of Rolla, Missouri","locationSet":{"include":["us-mo"]},"geometry":["area","point"],"matchScore":2,"terms":["city of rolla, missouri"],"tags":{"leisure":"nature_reserve","operator:wikidata":"Q955386"},"addTags":{"leisure":"nature_reserve","operator":"City of Rolla, Missouri","operator:type":"public","operator:wikidata":"Q955386","operator:wikipedia":"en:Rolla, Missouri"}},"leisure/nature_reserve/missouristateparks-44b06a":{"name":"Missouri State Parks","locationSet":{"include":["us-mo"]},"geometry":["area","point"],"matchScore":2,"terms":["missouri state parks"],"tags":{"leisure":"nature_reserve","operator:wikidata":"Q109319569"},"addTags":{"leisure":"nature_reserve","operator":"Missouri State Parks","operator:type":"public","operator:wikidata":"Q109319569"}},"leisure/park/cityofbrentwood-5e2224":{"name":"City of Brentwood (Missouri)","locationSet":{"include":["us-mo"]},"geometry":["area","point"],"matchScore":2,"terms":["city of brentwood"],"tags":{"leisure":"park","operator:wikidata":"Q965612"},"addTags":{"leisure":"park","operator":"City of Brentwood","operator:type":"public","operator:wikidata":"Q965612","operator:wikipedia":"en:Brentwood, Missouri"}},"leisure/park/cityofgladstone-5e2224":{"name":"City of Gladstone (Missouri)","locationSet":{"include":["us-mo"]},"geometry":["area","point"],"matchScore":2,"terms":["city of gladstone"],"tags":{"leisure":"park","operator:wikidata":"Q968179"},"addTags":{"leisure":"park","operator":"City of Gladstone","operator:type":"public","operator:wikidata":"Q968179","operator:wikipedia":"en:Gladstone, Missouri"}},"leisure/park/cityofrollamissouri-5e2224":{"name":"City of Rolla, Missouri","locationSet":{"include":["us-mo"]},"geometry":["area","point"],"matchScore":2,"terms":["city of rolla, missouri"],"tags":{"leisure":"park","operator:wikidata":"Q955386"},"addTags":{"leisure":"park","operator":"City of Rolla, Missouri","operator:type":"public","operator:wikidata":"Q955386","operator:wikipedia":"en:Rolla, Missouri"}},"leisure/park/missouristateparks-5e2224":{"name":"Missouri State Parks","locationSet":{"include":["us-mo"]},"geometry":["area","point"],"matchScore":2,"terms":["missouri state parks"],"tags":{"leisure":"park","operator:wikidata":"Q109319569"},"addTags":{"leisure":"park","operator":"Missouri State Parks","operator:type":"public","operator:wikidata":"Q109319569"}},"type/route/power/evergy-ba6e22":{"name":"Evergy","locationSet":{"include":["us-ks","us-mo"]},"geometry":["relation"],"matchScore":2,"terms":["evergy","kansas city power and light company","kcp&l","westar energy"],"reference":{"key":"route","value":"power"},"tags":{"operator:wikidata":"Q7987107","route":"power","type":"route"},"addTags":{"operator":"Evergy","operator:wikidata":"Q7987107","operator:wikipedia":"en:Evergy","route":"power","type":"route"}},"public_transport/platform/bus_point/ridekc-92dff7":{"name":"RideKC","locationSet":{"include":["us-ks","us-mo"]},"geometry":["point","vertex"],"matchScore":2,"terms":["kansas city area transportation authority","ridekc"],"reference":{"key":"public_transport","value":"platform"},"tags":{"bus":"yes","network:wikidata":"Q25004934","public_transport":"platform"},"addTags":{"bus":"yes","highway":"bus_stop","network":"RideKC","network:wikidata":"Q25004934","network:wikipedia":"en:RideKC","operator":"Kansas City Area Transportation Authority","public_transport":"platform"}},"public_transport/platform/bus_point/scat-44c348":{"name":"SCAT (St. Charles)","locationSet":{"include":["us-mo"]},"geometry":["point","vertex"],"matchScore":2,"terms":["scat","st. charles area transit"],"reference":{"key":"public_transport","value":"platform"},"tags":{"bus":"yes","network:wikidata":"Q7587491","public_transport":"platform"},"addTags":{"bus":"yes","highway":"bus_stop","network":"SCAT","network:wikidata":"Q7587491","network:wikipedia":"en:St. Charles Area Transit","operator":"St. Charles Area Transit","public_transport":"platform"}},"type/route/bus/ridekc-d86bef":{"name":"RideKC","locationSet":{"include":["us-ks","us-mo"]},"geometry":["relation"],"matchScore":2,"terms":["kansas city area transportation authority","ridekc"],"reference":{"key":"route","value":"bus"},"tags":{"network:wikidata":"Q25004934","route":"bus","type":"route"},"addTags":{"network":"RideKC","network:wikidata":"Q25004934","network:wikipedia":"en:RideKC","operator":"Kansas City Area Transportation Authority","route":"bus","type":"route"}},"type/route/bus/scat-cc3b0d":{"name":"SCAT (St. Charles)","locationSet":{"include":["us-mo"]},"geometry":["relation"],"matchScore":2,"terms":["scat","st. charles area transit"],"reference":{"key":"route","value":"bus"},"tags":{"network:wikidata":"Q7587491","route":"bus","type":"route"},"addTags":{"network":"SCAT","network:wikidata":"Q7587491","network:wikipedia":"en:St. Charles Area Transit","operator":"St. Charles Area Transit","route":"bus","type":"route"}}}