{"amenity/atm/citynationalbank-97e06e":{"name":"City National Bank (California)","locationSet":{"include":["us-ca","us-dc","us-de","us-fl","us-ga","us-ma","us-mn","us-nv","us-ny","us-tn","us-va"]},"geometry":["point","vertex"],"matchScore":2,"terms":["city national bank"],"tags":{"amenity":"atm","brand:wikidata":"Q5123314"},"addTags":{"amenity":"atm","brand":"City National Bank","brand:wikidata":"Q5123314","name":"City National Bank","operator":"City National Bank","operator:wikidata":"Q5123314"}},"amenity/atm/pinnaclebank-849a40":{"name":"Pinnacle Bank (US Southeast)","locationSet":{"include":["us-al","us-ga","us-nc","us-sc","us-tn","us-wv"]},"geometry":["point","vertex"],"matchScore":2,"terms":["pinnacle bank","pinnacle financial partners"],"tags":{"amenity":"atm","brand:wikidata":"Q7196294"},"addTags":{"amenity":"atm","brand":"Pinnacle Bank","brand:wikidata":"Q7196294","name":"Pinnacle Bank","official_name":"Pinnacle Financial Partners","operator":"Pinnacle Bank","operator:wikidata":"Q7196294"}},"amenity/atm/republicbank-10254d":{"name":"Republic Bank (Kentucky)","locationSet":{"include":["us-fl","us-in","us-ky","us-oh","us-tn"]},"geometry":["point","vertex"],"matchScore":2,"terms":["republic bank","republic bank & trust company"],"tags":{"amenity":"atm","brand:wikidata":"Q7314387"},"addTags":{"amenity":"atm","brand":"Republic Bank","brand:wikidata":"Q7314387","name":"Republic Bank","official_name":"Republic Bank & Trust Company","operator":"Republic Bank","operator:wikidata":"Q7314387"}},"amenity/bank/citynationalbank-0b143b":{"name":"City National Bank (California)","locationSet":{"include":["us-ca","us-dc","us-de","us-fl","us-ga","us-ma","us-mn","us-nv","us-ny","us-tn","us-va"]},"geometry":["point","area"],"matchScore":2,"terms":["city national bank"],"tags":{"amenity":"bank","brand:wikidata":"Q5123314"},"addTags":{"amenity":"bank","brand":"City National Bank","brand:wikidata":"Q5123314","name":"City National Bank"}},"amenity/bank/pinnaclebank-1187bc":{"name":"Pinnacle Bank (US Southeast)","locationSet":{"include":["us-al","us-ga","us-nc","us-sc","us-tn","us-wv"]},"geometry":["point","area"],"matchScore":2,"terms":["pinnacle bank","pinnacle financial partners"],"tags":{"amenity":"bank","brand:wikidata":"Q7196294"},"addTags":{"amenity":"bank","brand":"Pinnacle Bank","brand:wikidata":"Q7196294","name":"Pinnacle Bank","official_name":"Pinnacle Financial Partners"}},"amenity/bank/republicbank-6552d3":{"name":"Republic Bank (Kentucky)","locationSet":{"include":["us-fl","us-in","us-ky","us-oh","us-tn"]},"geometry":["point","area"],"matchScore":2,"terms":["republic bank","republic bank & trust company"],"tags":{"amenity":"bank","brand:wikidata":"Q7314387"},"addTags":{"amenity":"bank","brand":"Republic Bank","brand:wikidata":"Q7314387","name":"Republic Bank","official_name":"Republic Bank & Trust Company"}},"amenity/fuel/inglesgasexpress-b3451c":{"name":"Ingles Gas Express","locationSet":{"include":["us-ga","us-nc","us-sc","us-tn"]},"geometry":["point","area"],"matchScore":2,"terms":["ingles gas express"],"fields":["name","brand","{amenity/fuel}"],"tags":{"amenity":"fuel","brand:wikidata":"Q6032595"},"addTags":{"amenity":"fuel","brand":"Ingles Gas Express","brand:wikidata":"Q6032595","name":"Ingles Gas Express"}},"amenity/ice_cream/jenissplendidicecreams-53b2e0":{"name":"Jeni's Splendid Ice Cream","locationSet":{"include":["us-al","us-ca","us-dc","us-fl","us-ga","us-il","us-mo","us-nc","us-oh","us-pa","us-sc","us-tn","us-tx"]},"geometry":["point","area"],"matchScore":2,"terms":["jeni's","jeni's splendid ice creams"],"tags":{"amenity":"ice_cream","brand:wikidata":"Q16851196"},"addTags":{"amenity":"ice_cream","brand":"Jeni's Splendid Ice Creams","brand:wikidata":"Q16851196","name":"Jeni's Splendid Ice Creams","short_name":"Jeni's"}},"amenity/restaurant/snooze-62450c":{"name":"Snooze","locationSet":{"include":["us-az","us-ca","us-co","us-ga","us-ks","us-mo","us-nc","us-tn","us-tx"]},"geometry":["point","area"],"matchScore":2,"terms":["snooze"],"tags":{"amenity":"restaurant","brand:wikidata":"Q111304345"},"addTags":{"amenity":"restaurant","brand":"Snooze","brand:wikidata":"Q111304345","cuisine":"breakfast","name":"Snooze"}},"shop/hairdresser/imagestudios-0d42d5":{"name":"Image Studios","locationSet":{"include":["us-ca","us-co","us-fl","us-ga","us-ky","us-mo","us-nc","us-nj","us-nv","us-ny","us-oh","us-or","us-sc","us-tn","us-tx","us-ut"]},"geometry":["point","area"],"matchScore":2,"terms":["image studios"],"tags":{"brand:wikidata":"Q110998819","shop":"hairdresser"},"addTags":{"brand":"Image Studios","brand:wikidata":"Q110998819","name":"Image Studios","shop":"hairdresser"}},"amenity/prison/tennesseedepartmentofcorrection-438112":{"name":"Tennessee Department of Correction","locationSet":{"include":["us-tn"]},"geometry":["area","point"],"matchScore":2,"terms":["tennessee department of correction"],"fields":["name","operator","{amenity/prison}"],"tags":{"amenity":"prison","operator:wikidata":"Q7700061"},"addTags":{"amenity":"prison","operator":"Tennessee Department of Correction","operator:wikidata":"Q7700061"}},"amenity/school/clarksvillemontgomerycountyschoolsystem-3799fa":{"name":"Clarksville-Montgomery County School System","locationSet":{"include":["us-tn"]},"geometry":["area","point"],"matchScore":2,"terms":["clarksville-montgomery county school system"],"tags":{"amenity":"school","operator:wikidata":"Q5127683"},"addTags":{"amenity":"school","operator":"Clarksville-Montgomery County School System","operator:type":"public","operator:wikidata":"Q5127683"}},"amenity/school/jeffersoncountypublicschools-3799fa":{"name":"Jefferson County Public Schools (Tennessee)","locationSet":{"include":["us-tn"]},"geometry":["area","point"],"matchScore":2,"terms":["jcps","jefferson county public schools"],"tags":{"amenity":"school","operator:wikidata":"Q6175440"},"addTags":{"amenity":"school","operator":"Jefferson County Public Schools","operator:short":"JCPS","operator:type":"public","operator:wikidata":"Q6175440"}},"amenity/school/unioncountypublicschools-3799fa":{"name":"Union County Public Schools (Tennessee)","locationSet":{"include":["us-tn"]},"geometry":["area","point"],"matchScore":2,"terms":["ucps","union county public schools"],"tags":{"amenity":"school","operator:wikidata":"Q111337679"},"addTags":{"amenity":"school","operator":"Union County Public Schools","operator:short":"UCPS","operator:type":"public","operator:wikidata":"Q111337679"}},"leisure/nature_reserve/tennesseestateparks-6118d7":{"name":"Tennessee State Parks","locationSet":{"include":["us-tn"]},"geometry":["area","point"],"matchScore":2,"terms":["tennessee state parks"],"tags":{"leisure":"nature_reserve","operator:wikidata":"Q109328450"},"addTags":{"leisure":"nature_reserve","operator":"Tennessee State Parks","operator:type":"public","operator:wikidata":"Q109328450"}},"leisure/park/tennesseestateparks-742928":{"name":"Tennessee State Parks","locationSet":{"include":["us-tn"]},"geometry":["area","point"],"matchScore":2,"terms":["tennessee state parks"],"tags":{"leisure":"park","operator:wikidata":"Q109328450"},"addTags":{"leisure":"park","operator":"Tennessee State Parks","operator:type":"public","operator:wikidata":"Q109328450"}},"public_transport/platform/bus_point/wego-4d934e":{"name":"WeGo","locationSet":{"include":["us-tn"]},"geometry":["point","vertex"],"matchScore":2,"terms":["wego"],"reference":{"key":"public_transport","value":"platform"},"tags":{"bus":"yes","network:wikidata":"Q6966980","public_transport":"platform"},"addTags":{"bus":"yes","highway":"bus_stop","network":"WeGo","network:wikidata":"Q6966980","public_transport":"platform"}},"type/route/bus/wego-ae7ebe":{"name":"WeGo","locationSet":{"include":["us-tn"]},"geometry":["relation"],"matchScore":2,"terms":["wego"],"reference":{"key":"route","value":"bus"},"tags":{"network:wikidata":"Q6966980","route":"bus","type":"route"},"addTags":{"network":"WeGo","network:wikidata":"Q6966980","route":"bus","type":"route"}}}