{"amenity/atm/bancaromaneasca-1de605":{"name":"Banca Românească","locationSet":{"include":["ro"]},"geometry":["point","vertex"],"matchScore":2,"terms":["banca românească"],"tags":{"amenity":"atm","brand:wikidata":"Q4854052"},"addTags":{"amenity":"atm","brand":"Banca Românească","brand:wikidata":"Q4854052","name":"Banca Românească","operator":"Banca Românească","operator:wikidata":"Q4854052"}},"amenity/atm/bancatransilvania-1de605":{"name":"Banca Transilvania","locationSet":{"include":["ro"]},"geometry":["point","vertex"],"matchScore":2,"terms":["banca transilvania"],"tags":{"amenity":"atm","brand:wikidata":"Q806161"},"addTags":{"amenity":"atm","brand":"Banca Transilvania","brand:wikidata":"Q806161","name":"Banca Transilvania","operator":"Banca Transilvania","operator:wikidata":"Q806161"}},"amenity/atm/bancpost-1de605":{"name":"Bancpost","locationSet":{"include":["ro"]},"geometry":["point","vertex"],"matchScore":2,"terms":["bancpost"],"searchable":false,"tags":{"amenity":"atm","brand:wikidata":"Q4854143"},"addTags":{"amenity":"atm","brand":"Bancpost","brand:wikidata":"Q4854143","name":"Bancpost","operator":"Bancpost","operator:wikidata":"Q4854143"}},"amenity/atm/bcr-1de605":{"name":"BCR (Banca Comercială Română)","locationSet":{"include":["ro"]},"geometry":["point","vertex"],"matchScore":2,"terms":["banca comercială română","bcr"],"tags":{"amenity":"atm","brand:wikidata":"Q806149"},"addTags":{"amenity":"atm","brand":"BCR","brand:wikidata":"Q806149","name":"BCR","official_name":"Banca Comercială Română","operator":"BCR","operator:wikidata":"Q806149"}},"amenity/atm/brd-1de605":{"name":"BRD","locationSet":{"include":["ro"]},"geometry":["point","vertex"],"matchScore":2,"terms":["brd"],"tags":{"amenity":"atm","brand:wikidata":"Q796927"},"addTags":{"amenity":"atm","brand":"BRD","brand:wikidata":"Q796927","name":"BRD","operator":"BRD","operator:wikidata":"Q796927"}},"amenity/atm/cecbank-1de605":{"name":"CEC Bank","locationSet":{"include":["ro"]},"geometry":["point","vertex"],"matchScore":2,"terms":["cec bank"],"tags":{"amenity":"atm","brand:wikidata":"Q1023306"},"addTags":{"amenity":"atm","brand":"CEC Bank","brand:wikidata":"Q1023306","name":"CEC Bank","operator":"CEC Bank","operator:wikidata":"Q1023306"}},"amenity/atm/raiffeisenbank-1de605":{"name":"Raiffeisen Bank (România)","locationSet":{"include":["ro"]},"geometry":["point","vertex"],"matchScore":2,"terms":["raiffeisen","raiffeisen bank"],"tags":{"amenity":"atm","brand:wikidata":"Q7283806"},"addTags":{"amenity":"atm","brand":"Raiffeisen Bank","brand:wikidata":"Q7283806","name":"Raiffeisen Bank","operator":"Raiffeisen Bank","operator:wikidata":"Q7283806"}},"amenity/bank/bancaromaneasca-9a9a30":{"name":"Banca Românească","locationSet":{"include":["ro"]},"geometry":["point","area"],"matchScore":2,"terms":["banca românească"],"tags":{"amenity":"bank","brand:wikidata":"Q4854052"},"addTags":{"amenity":"bank","brand":"Banca Românească","brand:wikidata":"Q4854052","name":"Banca Românească"}},"amenity/bank/bancatransilvania-9a9a30":{"name":"Banca Transilvania","locationSet":{"include":["ro"]},"geometry":["point","area"],"matchScore":2,"terms":["banca transilvania"],"tags":{"amenity":"bank","brand:wikidata":"Q806161"},"addTags":{"amenity":"bank","brand":"Banca Transilvania","brand:wikidata":"Q806161","name":"Banca Transilvania"}},"amenity/bank/bancpost-9a9a30":{"name":"Bancpost","locationSet":{"include":["ro"]},"geometry":["point","area"],"matchScore":2,"terms":["bancpost"],"searchable":false,"tags":{"amenity":"bank","brand:wikidata":"Q4854143"},"addTags":{"amenity":"bank","brand":"Bancpost","brand:wikidata":"Q4854143","name":"Bancpost"}},"amenity/bank/bcr-9a9a30":{"name":"BCR (Banca Comercială Română)","locationSet":{"include":["ro"]},"geometry":["point","area"],"matchScore":2,"terms":["banca comercială română","bcr"],"tags":{"amenity":"bank","brand:wikidata":"Q806149"},"addTags":{"amenity":"bank","brand":"BCR","brand:wikidata":"Q806149","name":"BCR","official_name":"Banca Comercială Română"}},"amenity/bank/brd-9a9a30":{"name":"BRD","locationSet":{"include":["ro"]},"geometry":["point","area"],"matchScore":2,"terms":["brd"],"tags":{"amenity":"bank","brand:wikidata":"Q796927"},"addTags":{"amenity":"bank","brand":"BRD","brand:wikidata":"Q796927","name":"BRD"}},"amenity/bank/cecbank-9a9a30":{"name":"CEC Bank","locationSet":{"include":["ro"]},"geometry":["point","area"],"matchScore":2,"terms":["cec bank"],"tags":{"amenity":"bank","brand:wikidata":"Q1023306"},"addTags":{"amenity":"bank","brand":"CEC Bank","brand:wikidata":"Q1023306","name":"CEC Bank"}},"amenity/bank/raiffeisenbank-9a9a30":{"name":"Raiffeisen Bank (România)","locationSet":{"include":["ro"]},"geometry":["point","area"],"matchScore":2,"terms":["raiffeisen","raiffeisen bank"],"tags":{"amenity":"bank","brand:wikidata":"Q7283806"},"addTags":{"amenity":"bank","brand":"Raiffeisen Bank","brand:wikidata":"Q7283806","name":"Raiffeisen Bank"}},"amenity/cafe/coffee_shop/aromaespressobar-1ae0cd":{"name":"Aroma Espresso Bar","locationSet":{"include":["ca","kz","ro","ua","us"]},"geometry":["point","area"],"matchScore":2,"terms":["aroma espresso bar"],"reference":{"key":"cuisine","value":"coffee_shop"},"tags":{"amenity":"cafe","brand:wikidata":"Q2909872","cuisine":"coffee_shop"},"addTags":{"amenity":"cafe","brand":"Aroma Espresso Bar","brand:wikidata":"Q2909872","cuisine":"coffee_shop","name":"Aroma Espresso Bar","takeaway":"yes"}},"amenity/cafe/coffee_shop/cafefrei-b37b54":{"name":"Cafe Frei","locationSet":{"include":["ae","ch","fr","hr","hu","ro","sa","sk"]},"geometry":["point","area"],"matchScore":2,"terms":["cafe frei"],"reference":{"key":"cuisine","value":"coffee_shop"},"tags":{"amenity":"cafe","brand:wikidata":"Q105210995","cuisine":"coffee_shop"},"addTags":{"amenity":"cafe","brand":"Cafe Frei","brand:wikidata":"Q105210995","cuisine":"coffee_shop","name":"Cafe Frei","takeaway":"yes"}},"amenity/cafe/coffee_shop/kahvedunyasi-9278bc":{"name":"Kahve Dünyası","locationSet":{"include":["ae","kw","ro","sa","tr","uk"]},"geometry":["point","area"],"matchScore":2,"terms":["kahve dünyası"],"reference":{"key":"cuisine","value":"coffee_shop"},"tags":{"amenity":"cafe","brand:wikidata":"Q28008050","cuisine":"coffee_shop"},"addTags":{"amenity":"cafe","brand":"Kahve Dünyası","brand:wikidata":"Q28008050","cuisine":"coffee_shop","name":"Kahve Dünyası","takeaway":"yes"}},"amenity/charging_station/ionity-b625d6":{"name":"Ionity","locationSet":{"include":["by","bg","cz","hu","pl","md","ro","ru","sk","ua","ax","gg","je","cq","dk","ee","fo","fi","is","ie","im","lv","lt","no","sj","se","gb","al","ad","ba","hr","gi","gr","va","it","mt","me","mk","pt","sm","rs","si","es","xk","at","be","fr","de","li","lu","mc","nl","ch"]},"geometry":["point","area"],"matchScore":2,"terms":["ionity","ionity gmbh"],"fields":["name","brand","{amenity/charging_station}"],"tags":{"amenity":"charging_station","brand:wikidata":"Q42717773"},"addTags":{"amenity":"charging_station","brand":"Ionity","brand:wikidata":"Q42717773"}},"amenity/cinema/cinemacity-2b5fb2":{"name":"Cinema City","locationSet":{"include":["bg","cz","hu","pl","ro","sk"]},"geometry":["point","area"],"matchScore":2,"terms":["cinema city"],"fields":["name","brand","{amenity/cinema}"],"tags":{"amenity":"cinema","brand:wikidata":"Q543651"},"addTags":{"amenity":"cinema","brand":"Cinema City","brand:wikidata":"Q543651","name":"Cinema City"}},"amenity/cinema/cinemax-396cc7":{"name":"Cinemax","locationSet":{"include":["ro","sk"]},"geometry":["point","area"],"matchScore":2,"terms":["cinemax"],"fields":["name","brand","{amenity/cinema}"],"tags":{"amenity":"cinema","brand:wikidata":"Q93129643"},"addTags":{"amenity":"cinema","brand":"Cinemax","brand:wikidata":"Q93129643","name":"Cinemax"}},"amenity/cinema/cineplexx-8f1bb5":{"name":"Cineplexx","locationSet":{"include":["al","at","ba","gr","hr","it","me","mk","ro","rs","si","xk"]},"geometry":["point","area"],"matchScore":2,"terms":["cineplexx"],"fields":["name","brand","{amenity/cinema}"],"tags":{"amenity":"cinema","brand:wikidata":"Q873340"},"addTags":{"amenity":"cinema","brand":"Cineplexx","brand:wikidata":"Q873340","name":"Cineplexx"}},"amenity/fuel/as24-3463db":{"name":"AS 24","locationSet":{"include":["at","be","bg","cz","de","dk","es","fr","gb","ge","gr","hr","hu","ie","it","lt","lu","mk","nl","pl","pt","ro","rs","se","si","sk","ua"]},"geometry":["point","area"],"matchScore":2,"terms":["as 24"],"fields":["name","brand","{amenity/fuel}"],"tags":{"amenity":"fuel","brand:wikidata":"Q2819394"},"addTags":{"amenity":"fuel","brand":"AS 24","brand:wikidata":"Q2819394","hgv":"only","name":"AS 24"}},"amenity/fuel/auchan-fcb99f":{"name":"Auchan","locationSet":{"include":["al","ad","ba","hr","gi","gr","va","it","mt","me","mk","pt","sm","rs","si","es","xk","by","bg","cz","hu","pl","md","ro","ru","sk","ua","at","be","fr","de","li","lu","mc","nl","ch"]},"geometry":["point","area"],"matchScore":2,"terms":["auchan"],"fields":["name","brand","{amenity/fuel}"],"tags":{"amenity":"fuel","brand:wikidata":"Q758603"},"addTags":{"amenity":"fuel","brand":"Auchan","brand:wikidata":"Q758603","name":"Auchan"}},"amenity/parcel_locker/zbox-5a86e9":{"name":"Packeta","locationSet":{"include":["by","bg","cz","hu","pl","md","ro","ru","sk","ua","ax","gg","je","cq","dk","ee","fo","fi","is","ie","im","lv","lt","no","sj","se","gb","al","ad","ba","hr","gi","gr","va","it","mt","me","mk","pt","sm","rs","si","es","xk","at","be","fr","de","li","lu","mc","nl","ch"]},"geometry":["point","vertex"],"matchScore":2,"terms":["packeta"],"fields":["name","brand","{amenity/parcel_locker}"],"reference":{"key":"amenity","value":"parcel_locker"},"tags":{"amenity":"parcel_locker","brand:wikidata":"Q67809905"},"addTags":{"amenity":"parcel_locker","brand":"Packeta","brand:wikidata":"Q67809905","name":"Z-Box"}},"amenity/pharmacy/catena-8861f5":{"name":"Catena","locationSet":{"include":["ro"]},"geometry":["point","area"],"matchScore":2,"terms":["catena"],"reference":{"key":"amenity","value":"pharmacy"},"tags":{"amenity":"pharmacy","brand:wikidata":"Q24035728"},"addTags":{"amenity":"pharmacy","brand":"Catena","brand:wikidata":"Q24035728","healthcare":"pharmacy","name":"Catena"}},"amenity/pharmacy/drmax-d40f7b":{"name":"Dr. Max","locationSet":{"include":["cz","it","pl","ro","rs","sk"]},"geometry":["point","area"],"matchScore":2,"terms":["dr. max"],"reference":{"key":"amenity","value":"pharmacy"},"tags":{"amenity":"pharmacy","brand:wikidata":"Q56317371"},"addTags":{"amenity":"pharmacy","brand":"Dr. Max","brand:wikidata":"Q56317371","healthcare":"pharmacy","name":"Dr. Max"}},"amenity/pharmacy/farmaciadona-8861f5":{"name":"Farmacia Dona","locationSet":{"include":["ro"]},"geometry":["point","area"],"matchScore":2,"terms":["farmacia dona"],"reference":{"key":"amenity","value":"pharmacy"},"tags":{"amenity":"pharmacy","brand:wikidata":"Q12726919"},"addTags":{"amenity":"pharmacy","brand":"Farmacia Dona","brand:wikidata":"Q12726919","healthcare":"pharmacy","name":"Farmacia Dona"}},"amenity/pharmacy/helpnet-8861f5":{"name":"Help Net","locationSet":{"include":["ro"]},"geometry":["point","area"],"matchScore":2,"terms":["help net"],"reference":{"key":"amenity","value":"pharmacy"},"tags":{"amenity":"pharmacy","brand:wikidata":"Q12729923"},"addTags":{"amenity":"pharmacy","brand":"Help Net","brand:wikidata":"Q12729923","healthcare":"pharmacy","name":"Help Net"}},"amenity/pharmacy/sensiblu-8861f5":{"name":"Sensiblu","locationSet":{"include":["ro"]},"geometry":["point","area"],"matchScore":2,"terms":["sensiblu"],"reference":{"key":"amenity","value":"pharmacy"},"tags":{"amenity":"pharmacy","brand:wikidata":"Q12740640"},"addTags":{"amenity":"pharmacy","brand":"Sensiblu","brand:wikidata":"Q12740640","healthcare":"pharmacy","name":"Sensiblu"}},"amenity/school/maplebear-89c128":{"name":"Maple Bear","locationSet":{"include":["ae","al","ar","au","bd","bg","br","ca","cn","gt","hk","hr","in","ke","kr","lk","ma","mx","my","np","om","pe","ph","py","ro","rs","sg","th","tk","ua","us","vn"]},"geometry":["area","point"],"matchScore":2,"terms":["maple bear"],"fields":["name","brand","{amenity/school}"],"tags":{"amenity":"school","brand:wikidata":"Q10324823"},"addTags":{"amenity":"school","brand":"Maple Bear","brand:wikidata":"Q10324823","name":"Maple Bear","operator:type":"private"}},"amenity/vending_machine/continental-123edb":{"name":"Continental","locationSet":{"include":["by","bg","cz","hu","pl","md","ro","ru","sk","ua","ax","gg","je","cq","dk","ee","fo","fi","is","ie","im","lv","lt","no","sj","se","gb","al","ad","ba","hr","gi","gr","va","it","mt","me","mk","pt","sm","rs","si","es","xk","at","be","fr","de","li","lu","mc","nl","ch"]},"geometry":["point","vertex"],"matchScore":2,"terms":["continental"],"tags":{"amenity":"vending_machine","brand:wikidata":"Q64739247"},"addTags":{"amenity":"vending_machine","brand":"Continental","brand:wikidata":"Q64739247","name":"Continental","vending":"bicycle_tube"}},"amenity/vending_machine/schwalbe-123edb":{"name":"Schwalbe","locationSet":{"include":["by","bg","cz","hu","pl","md","ro","ru","sk","ua","ax","gg","je","cq","dk","ee","fo","fi","is","ie","im","lv","lt","no","sj","se","gb","al","ad","ba","hr","gi","gr","va","it","mt","me","mk","pt","sm","rs","si","es","xk","at","be","fr","de","li","lu","mc","nl","ch"]},"geometry":["point","vertex"],"matchScore":2,"terms":["schwalbe"],"tags":{"amenity":"vending_machine","brand:wikidata":"Q1312213"},"addTags":{"amenity":"vending_machine","brand":"Schwalbe","brand:wikidata":"Q1312213","name":"Schwalbe","vending":"bicycle_tube"}},"leisure/fitness_centre/worldclass-fa50b9":{"name":"World Class (România)","locationSet":{"include":["ro"]},"geometry":["point","area"],"matchScore":2,"terms":["world class"],"tags":{"brand:wikidata":"Q102350621","leisure":"fitness_centre"},"addTags":{"brand":"World Class","brand:wikidata":"Q102350621","leisure":"fitness_centre","name":"World Class"}},"office/estate_agent/vonpollrealestate-c99072":{"name":"von Poll Real Estate","locationSet":{"include":["by","bg","cz","hu","pl","md","ro","ru","sk","ua","ax","gg","je","cq","dk","ee","fo","fi","is","ie","im","lv","lt","no","sj","se","gb","al","ad","ba","hr","gi","gr","va","it","mt","me","mk","pt","sm","rs","si","es","xk","at","be","fr","de","li","lu","mc","nl","ch"],"exclude":["at","de"]},"geometry":["point","area"],"matchScore":2,"terms":["von poll immobilien","von poll real estate","vonpoll","vonpoll commercial"],"tags":{"brand:wikidata":"Q96026696","office":"estate_agent"},"addTags":{"brand":"von Poll Real Estate","brand:wikidata":"Q96026696","name":"von Poll Real Estate","office":"estate_agent"}},"shop/bakery/fornetti-0c6f37":{"name":"Fornetti","locationSet":{"include":["bg","cz","hr","hu","md","pl","ro","sk","ua"]},"geometry":["point","area"],"matchScore":2,"terms":["fornetti"],"tags":{"brand:wikidata":"Q1003020","shop":"bakery"},"addTags":{"brand":"Fornetti","brand:wikidata":"Q1003020","name":"Fornetti","shop":"bakery"}},"shop/bakery/paul-652955":{"name":"Paul","locationSet":{"include":["ae","az","be","bh","by","ci","cy","cz","eg","es","fr","ga","gb","ge","gr","id","in","jo","jp","kw","kz","lb","lu","ma","mu","my","om","pa","ph","pl","pt","qa","ro","ru","sa","sg","th","tn","tw","ua","us","uz","vn","za"]},"geometry":["point","area"],"matchScore":2,"terms":["paul"],"tags":{"brand:wikidata":"Q3370417","shop":"bakery"},"addTags":{"brand":"Paul","brand:wikidata":"Q3370417","name":"Paul","shop":"bakery"}},"shop/bookmaker/fortuna-70887d":{"name":"Fortuna","locationSet":{"include":["cz","hr","pl","ro","sk"]},"geometry":["point","area"],"matchScore":2,"terms":["fortuna"],"tags":{"brand:wikidata":"Q25857973","shop":"bookmaker"},"addTags":{"brand":"Fortuna","brand:wikidata":"Q25857973","name":"Fortuna","shop":"bookmaker"}},"shop/car/smart-f30ed8":{"name":"Smart","locationSet":{"include":["by","bg","cz","hu","pl","md","ro","ru","sk","ua","ax","gg","je","cq","dk","ee","fo","fi","is","ie","im","lv","lt","no","sj","se","gb","al","ad","ba","hr","gi","gr","va","it","mt","me","mk","pt","sm","rs","si","es","xk","at","be","fr","de","li","lu","mc","nl","ch"]},"geometry":["point","area"],"matchScore":2,"terms":["smart"],"fields":["name","brand","{shop/car}"],"tags":{"brand:wikidata":"Q156490","shop":"car"},"addTags":{"brand":"Smart","brand:wikidata":"Q156490","name":"Smart","shop":"car"}},"shop/car_repair/norauto-388a61":{"name":"Norauto","locationSet":{"include":["ar","es","fr","hu","it","pl","pt","ro"]},"geometry":["point","area"],"matchScore":2,"terms":["norauto"],"fields":["name","brand","{shop/car_repair}"],"tags":{"brand:wikidata":"Q3317698","shop":"car_repair"},"addTags":{"brand":"Norauto","brand:wikidata":"Q3317698","name":"Norauto","shop":"car_repair"}},"shop/car_repair/premio-354273":{"name":"Premio","locationSet":{"include":["be","bg","ch","cz","de","hu","nl","pl","ro","ru","sk"]},"geometry":["point","area"],"matchScore":2,"terms":["premio"],"fields":["name","brand","{shop/car_repair}"],"tags":{"brand:wikidata":"Q100895958","shop":"car_repair"},"addTags":{"brand":"Premio","brand:wikidata":"Q100895958","name":"Premio","shop":"car_repair"}},"shop/chemist/dm-64e7ae":{"name":"dm","locationSet":{"include":["at","ba","bg","cz","de","hr","hu","it","mk","ro","rs","si","sk"]},"geometry":["point","area"],"matchScore":2,"terms":["dm","dm drogerie markt"],"tags":{"brand:wikidata":"Q266572","shop":"chemist"},"addTags":{"brand":"dm","brand:wikidata":"Q266572","name":"dm","shop":"chemist"}},"shop/clothes/coccodrillo-571709":{"name":"Coccodrillo","locationSet":{"include":["at","bg","by","cz","de","ee","fi","hu","lt","lv","me","pl","ro","rs","ru","sk","ua"]},"geometry":["point","area"],"matchScore":2,"terms":["coccodrillo"],"tags":{"brand:wikidata":"Q9195224","shop":"clothes"},"addTags":{"brand":"Coccodrillo","brand:wikidata":"Q9195224","clothes":"children","name":"Coccodrillo","shop":"clothes"}},"shop/clothes/cropp-613e37":{"name":"Cropp","locationSet":{"include":["ba","bg","cz","ee","fi","hr","hu","kz","lt","lv","ro","rs","ru","si","sk","ua"]},"geometry":["point","area"],"matchScore":2,"terms":["cropp"],"tags":{"brand:wikidata":"Q9196793","shop":"clothes"},"addTags":{"brand":"Cropp","brand:wikidata":"Q9196793","name":"Cropp","shop":"clothes"}},"shop/clothes/gate-d52ff8":{"name":"Gate","locationSet":{"include":["cz","hu","pl","ro","sk"]},"geometry":["point","area"],"matchScore":2,"terms":["gate"],"tags":{"brand:wikidata":"Q93517084","shop":"clothes"},"addTags":{"brand":"Gate","brand:wikidata":"Q93517084","name":"Gate","shop":"clothes"}},"shop/clothes/house-f09482":{"name":"House","locationSet":{"include":["ba","bg","cz","ee","fi","hr","hu","kz","lt","lv","pl","ro","rs","ru","si","sk","ua"]},"geometry":["point","area"],"matchScore":2,"terms":["house"],"tags":{"brand:wikidata":"Q9294202","shop":"clothes"},"addTags":{"brand":"House","brand:wikidata":"Q9294202","name":"House","shop":"clothes"}},"shop/clothes/kik-97626d":{"name":"KiK","locationSet":{"include":["at","cz","de","hr","hu","it","nl","pl","ro","si","sk"]},"geometry":["point","area"],"matchScore":2,"terms":["kik"],"tags":{"brand:wikidata":"Q883965","shop":"clothes"},"addTags":{"brand":"KiK","brand:wikidata":"Q883965","name":"KiK","shop":"clothes"}},"shop/clothes/maje-99ba8f":{"name":"Maje","locationSet":{"include":["by","bg","cz","hu","pl","md","ro","ru","sk","ua","ax","gg","je","cq","dk","ee","fo","fi","is","ie","im","lv","lt","no","sj","se","gb","al","ad","ba","hr","gi","gr","va","it","mt","me","mk","pt","sm","rs","si","es","xk","at","be","fr","de","li","lu","mc","nl","ch","cn","hk","sg","tw","uk","us"]},"geometry":["point","area"],"matchScore":2,"terms":["maje"],"tags":{"brand:wikidata":"Q3280458","shop":"clothes"},"addTags":{"brand":"Maje","brand:wikidata":"Q3280458","clothes":"women","name":"Maje","shop":"clothes"}},"shop/clothes/pepco-98e975":{"name":"Pepco","locationSet":{"include":["bg","cz","ee","hr","hu","it","lt","lv","pl","ro","rs","si","sk"]},"geometry":["point","area"],"matchScore":2,"terms":["pepco"],"tags":{"brand:wikidata":"Q11815580","shop":"clothes"},"addTags":{"brand":"Pepco","brand:wikidata":"Q11815580","name":"Pepco","shop":"clothes"}},"shop/convenience/cba-a1e3fb":{"name":"CBA","locationSet":{"include":["bg","hu","ro","sk"]},"geometry":["point","area"],"matchScore":2,"terms":["cba"],"tags":{"brand:wikidata":"Q779845","shop":"convenience"},"addTags":{"brand":"CBA","brand:wikidata":"Q779845","name":"CBA","shop":"convenience"}},"shop/convenience/viva-856fe1":{"name":"Viva","locationSet":{"include":["by","bg","cz","hu","pl","md","ro","ru","sk","ua","ax","gg","je","cq","dk","ee","fo","fi","is","ie","im","lv","lt","no","sj","se","gb","al","ad","ba","hr","gi","gr","va","it","mt","me","mk","pt","sm","rs","si","es","xk","at","be","fr","de","li","lu","mc","nl","ch"]},"geometry":["point","area"],"matchScore":2,"terms":["viva"],"tags":{"brand:wikidata":"Q168238","shop":"convenience"},"addTags":{"brand":"Viva","brand:wikidata":"Q168238","name":"Viva","shop":"convenience"}},"shop/doityourself/bricodepot-46eef0":{"name":"Brico Dépôt","locationSet":{"include":["es","fr","pt","ro"]},"geometry":["point","area"],"matchScore":2,"terms":["brico dépôt"],"tags":{"brand:wikidata":"Q2889702","shop":"doityourself"},"addTags":{"brand":"Brico Dépôt","brand:wikidata":"Q2889702","name":"Brico Dépôt","shop":"doityourself"}},"shop/doityourself/hornbach-92b1c1":{"name":"HORNBACH","locationSet":{"include":["at","ch","cz","de","lu","nl","ro","se","sk"]},"geometry":["point","area"],"matchScore":2,"terms":["hornbach"],"tags":{"brand:wikidata":"Q685926","shop":"doityourself"},"addTags":{"brand":"HORNBACH","brand:wikidata":"Q685926","name":"HORNBACH","shop":"doityourself"}},"shop/doityourself/praktiker-573a37":{"name":"Praktiker","locationSet":{"include":["bg","gr","hu","ro","tr"]},"geometry":["point","area"],"matchScore":2,"terms":["praktiker"],"searchable":false,"tags":{"brand:wikidata":"Q680214","shop":"doityourself"},"addTags":{"brand":"Praktiker","brand:wikidata":"Q680214","name":"Praktiker","shop":"doityourself"}},"shop/electronics/altex-9c4b16":{"name":"Altex","locationSet":{"include":["ro"]},"geometry":["point","area"],"matchScore":2,"terms":["altex"],"tags":{"brand:wikidata":"Q2840436","shop":"electronics"},"addTags":{"brand":"Altex","brand:wikidata":"Q2840436","name":"Altex","shop":"electronics"}},"shop/electronics/flanco-9c4b16":{"name":"Flanco","locationSet":{"include":["ro"]},"geometry":["point","area"],"matchScore":2,"terms":["flanco"],"tags":{"brand:wikidata":"Q5457354","shop":"electronics"},"addTags":{"brand":"Flanco","brand:wikidata":"Q5457354","name":"Flanco","shop":"electronics"}},"shop/furniture/momax-a18722":{"name":"Mömax","locationSet":{"include":["by","bg","cz","hu","pl","md","ro","ru","sk","ua","ax","gg","je","cq","dk","ee","fo","fi","is","ie","im","lv","lt","no","sj","se","gb","al","ad","ba","hr","gi","gr","va","it","mt","me","mk","pt","sm","rs","si","es","xk","at","be","fr","de","li","lu","mc","nl","ch"]},"geometry":["point","area"],"matchScore":2,"terms":["mömax"],"tags":{"brand:wikidata":"Q56388481","shop":"furniture"},"addTags":{"brand":"Mömax","brand:wikidata":"Q56388481","name":"Mömax","shop":"furniture"}},"shop/furniture/xxxlutz-5acc6e":{"name":"XXXLutz","locationSet":{"include":["by","bg","cz","hu","pl","md","ro","ru","sk","ua","ax","gg","je","cq","dk","ee","fo","fi","is","ie","im","lv","lt","no","sj","se","gb","al","ad","ba","hr","gi","gr","va","it","mt","me","mk","pt","sm","rs","si","es","xk","at","be","fr","de","li","lu","mc","nl","ch"],"exclude":["bg"]},"geometry":["point","area"],"matchScore":2,"terms":["xxxlutz"],"tags":{"brand:wikidata":"Q70339467","shop":"furniture"},"addTags":{"brand":"XXXLutz","brand:wikidata":"Q70339467","name":"XXXLutz","shop":"furniture"}},"shop/houseware/englishhome-d9337a":{"name":"English Home","locationSet":{"include":["bg","ro","tr"]},"geometry":["point","area"],"matchScore":2,"terms":["english home"],"tags":{"brand:wikidata":"Q106803513","shop":"houseware"},"addTags":{"brand":"English Home","brand:wikidata":"Q106803513","name":"English Home","shop":"houseware"}},"shop/kitchen/ixina-d089d8":{"name":"Ixina","locationSet":{"include":["ae","au","be","bf","bh","bj","ca","ci","cm","cn","cz","dz","ee","eg","fr","gh","hr","ke","kw","lu","ly","ma","mu","nl","pl","qa","ro","ru","sa","se","sn","tg","th","tn","vn"]},"geometry":["point","area"],"matchScore":2,"terms":["ixina"],"tags":{"brand:wikidata":"Q3156424","shop":"kitchen"},"addTags":{"brand":"Ixina","brand:wikidata":"Q3156424","name":"Ixina","shop":"kitchen"}},"shop/mobile_phone/telekom-82963b":{"name":"Telekom","locationSet":{"include":["de","hu","ro","si","sk"]},"geometry":["point","area"],"matchScore":2,"terms":["telekom","telekom shop"],"tags":{"brand:wikidata":"Q9396","shop":"mobile_phone"},"addTags":{"brand":"Telekom","brand:wikidata":"Q9396","name":"Telekom","shop":"mobile_phone"}},"shop/perfumery/equivalenza-59ad61":{"name":"Equivalenza","locationSet":{"include":["ad","ao","at","be","ca","cv","de","do","es","fr","gr","gt","ie","it","mx","mz","nl","pe","pt","ro","tn","uk"]},"geometry":["point","area"],"matchScore":2,"terms":["equivalenza"],"tags":{"brand:wikidata":"Q104649798","shop":"perfumery"},"addTags":{"brand":"Equivalenza","brand:wikidata":"Q104649798","name":"Equivalenza","shop":"perfumery"}},"shop/shoes/humanic-07d535":{"name":"Humanic","locationSet":{"include":["at","cz","de","hu","ro","sk"]},"geometry":["point","area"],"matchScore":2,"terms":["humanic"],"tags":{"brand:wikidata":"Q1636668","shop":"shoes"},"addTags":{"brand":"Humanic","brand:wikidata":"Q1636668","name":"Humanic","shop":"shoes"}},"shop/shoes/office-b22ec7":{"name":"Office","locationSet":{"include":["de","gb","ie","ro"]},"geometry":["point","area"],"matchScore":2,"terms":["office"],"tags":{"brand:wikidata":"Q7079121","shop":"shoes"},"addTags":{"brand":"Office","brand:wikidata":"Q7079121","name":"Office","shop":"shoes"}},"shop/shoes/officeshoes-30afef":{"name":"Office Shoes","locationSet":{"include":["al","ba","cz","hr","hu","me","pl","ro","rs","si","sk"]},"geometry":["point","area"],"matchScore":2,"terms":["office shoes"],"tags":{"brand:wikidata":"Q93946123","shop":"shoes"},"addTags":{"brand":"Office Shoes","brand:wikidata":"Q93946123","name":"Office Shoes","shop":"shoes"}},"shop/shoes/sizeer-a67893":{"name":"Sizeer","locationSet":{"include":["at","cz","de","hu","lt","pl","ro","sk"]},"geometry":["point","area"],"matchScore":2,"terms":["sizeer"],"tags":{"brand:wikidata":"Q93982889","shop":"shoes"},"addTags":{"brand":"Sizeer","brand:wikidata":"Q93982889","name":"Sizeer","shop":"shoes"}},"shop/sports/4f-5624eb":{"name":"4F","locationSet":{"include":["cz","de","lt","lv","ro","ru","sk"]},"geometry":["point","area"],"matchScore":2,"terms":["4f"],"tags":{"brand:wikidata":"Q16525801","shop":"sports"},"addTags":{"brand":"4F","brand:wikidata":"Q16525801","name":"4F","shop":"sports"}},"shop/sports/hervis-38a747":{"name":"Hervis","locationSet":{"include":["at","cz","de","hr","hu","ro","si"]},"geometry":["point","area"],"matchScore":2,"terms":["hervis","hervis sport","hervis sports"],"tags":{"brand:wikidata":"Q1614816","shop":"sports"},"addTags":{"brand":"Hervis","brand:wikidata":"Q1614816","name":"Hervis","shop":"sports"}},"shop/supermarket/auchan-925d9b":{"name":"Auchan","locationSet":{"include":["al","ad","ba","hr","gi","gr","va","it","mt","me","mk","pt","sm","rs","si","es","xk","by","bg","cz","hu","pl","md","ro","ru","sk","ua","at","be","fr","de","li","lu","mc","nl","ch","cn"],"exclude":["ru"]},"geometry":["point","area"],"matchScore":2,"terms":["auchan"],"tags":{"brand:wikidata":"Q758603","shop":"supermarket"},"addTags":{"brand":"Auchan","brand:wikidata":"Q758603","name":"Auchan","shop":"supermarket"}},"shop/supermarket/billa-260f39":{"name":"Billa","locationSet":{"include":["by","bg","cz","hu","pl","md","ro","ru","sk","ua","at"]},"geometry":["point","area"],"matchScore":2,"terms":["billa"],"tags":{"brand:wikidata":"Q537781","shop":"supermarket"},"addTags":{"brand":"Billa","brand:wikidata":"Q537781","name":"Billa","shop":"supermarket"}},"shop/supermarket/cba-ce4f93":{"name":"CBA","locationSet":{"include":["bg","hu","ro","sk"]},"geometry":["point","area"],"matchScore":2,"terms":["cba"],"tags":{"brand:wikidata":"Q779845","shop":"supermarket"},"addTags":{"brand":"CBA","brand:wikidata":"Q779845","name":"CBA","shop":"supermarket"}},"shop/supermarket/cora-ea1ce5":{"name":"Cora","locationSet":{"include":["be","fr","lu","ro"]},"geometry":["point","area"],"matchScore":2,"terms":["cora"],"tags":{"brand:wikidata":"Q686643","shop":"supermarket"},"addTags":{"brand":"Cora","brand:wikidata":"Q686643","name":"Cora","shop":"supermarket"}},"shop/supermarket/eurospar-4b5e11":{"name":"Eurospar","locationSet":{"include":["by","bg","cz","hu","pl","md","ro","ru","sk","ua","ax","gg","je","cq","dk","ee","fo","fi","is","ie","im","lv","lt","no","sj","se","gb","al","ad","ba","hr","gi","gr","va","it","mt","me","mk","pt","sm","rs","si","es","xk","at","be","fr","de","li","lu","mc","nl","ch"]},"geometry":["point","area"],"matchScore":2,"terms":["eurospar"],"tags":{"brand:wikidata":"Q12309283","shop":"supermarket"},"addTags":{"brand":"Eurospar","brand:wikidata":"Q12309283","name":"Eurospar","shop":"supermarket"}},"shop/supermarket/kaufland-c3ebf9":{"name":"Kaufland","locationSet":{"include":["bg","cz","de","hr","pl","ro","sk"]},"geometry":["point","area"],"matchScore":2,"terms":["kaufland"],"tags":{"brand:wikidata":"Q685967","shop":"supermarket"},"addTags":{"brand":"Kaufland","brand:wikidata":"Q685967","name":"Kaufland","shop":"supermarket"}},"shop/supermarket/megaimage-62a473":{"name":"Mega Image","locationSet":{"include":["ro"]},"geometry":["point","area"],"matchScore":2,"terms":["mega image"],"tags":{"brand:wikidata":"Q6808085","shop":"supermarket"},"addTags":{"brand":"Mega Image","brand:wikidata":"Q6808085","name":"Mega Image","shop":"supermarket"}},"shop/supermarket/penny-55dfd6":{"name":"PENNY","locationSet":{"include":["at","cz","de","hu","it","ro"]},"geometry":["point","area"],"matchScore":2,"terms":["penny","penny market","penny markt"],"tags":{"brand:wikidata":"Q284688","shop":"supermarket"},"addTags":{"brand":"PENNY","brand:wikidata":"Q284688","name":"PENNY","shop":"supermarket"}},"shop/supermarket/profi-8721fd":{"name":"Profi","locationSet":{"include":["be","hu","ro"]},"geometry":["point","area"],"matchScore":2,"terms":["profi"],"tags":{"brand:wikidata":"Q956664","shop":"supermarket"},"addTags":{"brand":"Profi","brand:wikidata":"Q956664","name":"Profi","shop":"supermarket"}},"shop/supermarket/supeco-62a473":{"name":"Supeco (România)","locationSet":{"include":["ro"]},"geometry":["point","area"],"matchScore":2,"terms":["supeco"],"tags":{"brand:wikidata":"Q110066889","shop":"supermarket"},"addTags":{"brand":"Supeco","brand:wikidata":"Q110066889","name":"Supeco","shop":"supermarket"}},"shop/toys/jumbo-f2bb45":{"name":"Jumbo","locationSet":{"include":["al","ba","cy","gr","md","me","mk","ro","rs","xk"]},"geometry":["point","area"],"matchScore":2,"terms":["jumbo"],"tags":{"brand:wikidata":"Q3562323","shop":"toys"},"addTags":{"brand":"Jumbo","brand:wikidata":"Q3562323","name":"Jumbo","shop":"toys"}},"shop/toys/smyk-3d0b80":{"name":"Smyk","locationSet":{"include":["pl","ro","ua"]},"geometry":["point","area"],"matchScore":2,"terms":["smyk"],"tags":{"brand:wikidata":"Q2295606","shop":"toys"},"addTags":{"brand":"Smyk","brand:wikidata":"Q2295606","name":"Smyk","shop":"toys"}},"shop/wholesale/selgroscashandcarry-8ea7cd":{"name":"SELGROS cash & carry","locationSet":{"include":["de","pl","ro","ru"]},"geometry":["point","area"],"matchScore":2,"terms":["selgros","selgros cash & carry"],"tags":{"brand:wikidata":"Q473918","shop":"wholesale"},"addTags":{"brand":"SELGROS cash & carry","brand:wikidata":"Q473918","name":"SELGROS cash & carry","shop":"wholesale","short_name":"SELGROS"}},"tourism/hotel/bandbhotel-fc8c2c":{"name":"B&B Hotel","locationSet":{"include":["by","bg","cz","hu","pl","md","ro","ru","sk","ua","ax","gg","je","cq","dk","ee","fo","fi","is","ie","im","lv","lt","no","sj","se","gb","al","ad","ba","hr","gi","gr","va","it","mt","me","mk","pt","sm","rs","si","es","xk","at","be","fr","de","li","lu","mc","nl","ch","br"]},"geometry":["point","area"],"matchScore":2,"terms":["b&b hotels"],"fields":["name","brand","{tourism/hotel}"],"tags":{"brand:wikidata":"Q794939","tourism":"hotel"},"addTags":{"brand":"B&B Hotels","brand:wikidata":"Q794939","name":"B&B Hotel","tourism":"hotel"}},"tourism/hotel/motelone-046fe6":{"name":"Motel One","locationSet":{"include":["by","bg","cz","hu","pl","md","ro","ru","sk","ua","ax","gg","je","cq","dk","ee","fo","fi","is","ie","im","lv","lt","no","sj","se","gb","al","ad","ba","hr","gi","gr","va","it","mt","me","mk","pt","sm","rs","si","es","xk","at","be","fr","de","li","lu","mc","nl","ch"]},"geometry":["point","area"],"matchScore":2,"terms":["motel one"],"fields":["name","brand","{tourism/hotel}"],"tags":{"brand:wikidata":"Q391080","tourism":"hotel"},"addTags":{"brand":"Motel One","brand:wikidata":"Q391080","name":"Motel One","tourism":"hotel"}},"amenity/charging_station/eon-7f623e":{"name":"E.ON","locationSet":{"include":["by","bg","cz","hu","pl","md","ro","ru","sk","ua","ax","gg","je","cq","dk","ee","fo","fi","is","ie","im","lv","lt","no","sj","se","gb","al","ad","ba","hr","gi","gr","va","it","mt","me","mk","pt","sm","rs","si","es","xk","at","be","fr","de","li","lu","mc","nl","ch"]},"geometry":["point","area"],"matchScore":2,"terms":["e-on drive","e.on"],"fields":["name","operator","{amenity/charging_station}"],"tags":{"amenity":"charging_station","operator:wikidata":"Q270223"},"addTags":{"amenity":"charging_station","operator":"E.ON","operator:wikidata":"Q270223"}},"amenity/charging_station/evbox-7f623e":{"name":"EVBOX","locationSet":{"include":["by","bg","cz","hu","pl","md","ro","ru","sk","ua","ax","gg","je","cq","dk","ee","fo","fi","is","ie","im","lv","lt","no","sj","se","gb","al","ad","ba","hr","gi","gr","va","it","mt","me","mk","pt","sm","rs","si","es","xk","at","be","fr","de","li","lu","mc","nl","ch"]},"geometry":["point","area"],"matchScore":2,"terms":["evbox"],"fields":["name","operator","{amenity/charging_station}"],"tags":{"amenity":"charging_station","operator:wikidata":"Q28406392"},"addTags":{"amenity":"charging_station","operator":"EVBOX","operator:wikidata":"Q28406392"}},"amenity/charging_station/qpark-7f623e":{"name":"Q-Park","locationSet":{"include":["by","bg","cz","hu","pl","md","ro","ru","sk","ua","ax","gg","je","cq","dk","ee","fo","fi","is","ie","im","lv","lt","no","sj","se","gb","al","ad","ba","hr","gi","gr","va","it","mt","me","mk","pt","sm","rs","si","es","xk","at","be","fr","de","li","lu","mc","nl","ch"]},"geometry":["point","area"],"matchScore":2,"terms":["q-park"],"fields":["name","operator","{amenity/charging_station}"],"tags":{"amenity":"charging_station","operator:wikidata":"Q1127798"},"addTags":{"amenity":"charging_station","operator":"Q-Park","operator:wikidata":"Q1127798"}},"amenity/charging_station/stpt-806f62":{"name":"STPT","locationSet":{"include":["ro"]},"geometry":["point","area"],"matchScore":2,"terms":["stpt"],"fields":["name","operator","{amenity/charging_station}"],"tags":{"amenity":"charging_station","operator:wikidata":"Q929687"},"addTags":{"amenity":"charging_station","operator":"STPT","operator:wikidata":"Q929687"}},"amenity/police/directiageneraladepolitieamunicipiuluibucuresti-f06bca":{"name":"Direcția Generală de Poliție a Municipiului București","locationSet":{"include":["ro"]},"geometry":["point","area"],"matchScore":2,"terms":["direcția generală de poliție a municipiului bucurești"],"tags":{"amenity":"police","operator:wikidata":"Q18539731"},"addTags":{"amenity":"police","operator":"Direcția Generală de Poliție a Municipiului București","operator:wikidata":"Q18539731"}},"amenity/post_box/cargus-746983":{"name":"Cargus","locationSet":{"include":["ro"]},"geometry":["point","vertex"],"matchScore":2,"terms":["cargus"],"tags":{"amenity":"post_box","operator:wikidata":"Q12723442"},"addTags":{"amenity":"post_box","operator":"Cargus","operator:wikidata":"Q12723442"}},"amenity/post_box/fancourier-746983":{"name":"Fancourier","locationSet":{"include":["ro"]},"geometry":["point","vertex"],"matchScore":2,"terms":["fancourier"],"tags":{"amenity":"post_box","operator:wikidata":"Q12727984"},"addTags":{"amenity":"post_box","operator":"Fancourier","operator:wikidata":"Q12727984"}},"amenity/post_box/postaromana-746983":{"name":"Poșta Română","locationSet":{"include":["ro"]},"geometry":["point","vertex"],"matchScore":2,"terms":["poșta română"],"tags":{"amenity":"post_box","operator:wikidata":"Q283175"},"addTags":{"amenity":"post_box","operator":"Poșta Română","operator:wikidata":"Q283175"}},"amenity/post_office/cargus-08dfb1":{"name":"Cargus","locationSet":{"include":["ro"]},"geometry":["point","area"],"matchScore":2,"terms":["cargus"],"fields":["name","operator","{amenity/post_office}"],"tags":{"amenity":"post_office","operator:wikidata":"Q12723442"},"addTags":{"amenity":"post_office","operator":"Cargus","operator:wikidata":"Q12723442"}},"amenity/post_office/fancourier-08dfb1":{"name":"Fancourier","locationSet":{"include":["ro"]},"geometry":["point","area"],"matchScore":2,"terms":["fancourier"],"fields":["name","operator","{amenity/post_office}"],"tags":{"amenity":"post_office","operator:wikidata":"Q12727984"},"addTags":{"amenity":"post_office","operator":"Fancourier","operator:wikidata":"Q12727984"}},"amenity/post_office/postaromana-08dfb1":{"name":"Poșta Română","locationSet":{"include":["ro"]},"geometry":["point","area"],"matchScore":2,"terms":["poșta română"],"fields":["name","operator","{amenity/post_office}"],"tags":{"amenity":"post_office","operator:wikidata":"Q283175"},"addTags":{"amenity":"post_office","operator":"Poșta Română","operator:wikidata":"Q283175"}},"power/generator/innogy-16c9d0":{"name":"Innogy","locationSet":{"include":["by","bg","cz","hu","pl","md","ro","ru","sk","ua","ax","gg","je","cq","dk","ee","fo","fi","is","ie","im","lv","lt","no","sj","se","gb","al","ad","ba","hr","gi","gr","va","it","mt","me","mk","pt","sm","rs","si","es","xk","at","be","fr","de","li","lu","mc","nl","ch"]},"geometry":["point","vertex","area"],"matchScore":2,"terms":["innogy"],"tags":{"operator:wikidata":"Q2124721","power":"generator"},"addTags":{"operator":"Innogy","operator:wikidata":"Q2124721","power":"generator"}},"power/generator/rwe-16c9d0":{"name":"RWE","locationSet":{"include":["by","bg","cz","hu","pl","md","ro","ru","sk","ua","ax","gg","je","cq","dk","ee","fo","fi","is","ie","im","lv","lt","no","sj","se","gb","al","ad","ba","hr","gi","gr","va","it","mt","me","mk","pt","sm","rs","si","es","xk","at","be","fr","de","li","lu","mc","nl","ch"]},"geometry":["point","vertex","area"],"matchScore":2,"terms":["rwe"],"tags":{"operator:wikidata":"Q138133","power":"generator"},"addTags":{"operator":"RWE","operator:wikidata":"Q138133","power":"generator"}},"power/generator/statkraft-16c9d0":{"name":"Statkraft","locationSet":{"include":["by","bg","cz","hu","pl","md","ro","ru","sk","ua","ax","gg","je","cq","dk","ee","fo","fi","is","ie","im","lv","lt","no","sj","se","gb","al","ad","ba","hr","gi","gr","va","it","mt","me","mk","pt","sm","rs","si","es","xk","at","be","fr","de","li","lu","mc","nl","ch"]},"geometry":["point","vertex","area"],"matchScore":2,"terms":["statkraft"],"tags":{"operator:wikidata":"Q1681145","power":"generator"},"addTags":{"operator":"Statkraft","operator:wikidata":"Q1681145","power":"generator"}},"power/generator/uniper-16c9d0":{"name":"Uniper","locationSet":{"include":["by","bg","cz","hu","pl","md","ro","ru","sk","ua","ax","gg","je","cq","dk","ee","fo","fi","is","ie","im","lv","lt","no","sj","se","gb","al","ad","ba","hr","gi","gr","va","it","mt","me","mk","pt","sm","rs","si","es","xk","at","be","fr","de","li","lu","mc","nl","ch"]},"geometry":["point","vertex","area"],"matchScore":2,"terms":["uniper"],"tags":{"operator:wikidata":"Q19839259","power":"generator"},"addTags":{"operator":"Uniper","operator:wikidata":"Q19839259","power":"generator"}},"telecom/exchange/interoute-58ec5d":{"name":"Interoute","locationSet":{"include":["by","bg","cz","hu","pl","md","ro","ru","sk","ua","ax","gg","je","cq","dk","ee","fo","fi","is","ie","im","lv","lt","no","sj","se","gb","al","ad","ba","hr","gi","gr","va","it","mt","me","mk","pt","sm","rs","si","es","xk","at","be","fr","de","li","lu","mc","nl","ch"]},"geometry":["point","area"],"matchScore":2,"terms":["interoute"],"fields":["name","operator","{telecom/exchange}"],"tags":{"operator:wikidata":"Q1668090","telecom":"exchange"},"addTags":{"operator":"Interoute","operator:wikidata":"Q1668090","telecom":"exchange"}},"public_transport/platform/bus_point/ctpiasi-5b7f3a":{"name":"CTP Iași","locationSet":{"include":["ro"]},"geometry":["point","vertex"],"matchScore":2,"terms":["ctp iași","ratp (regia autonoma de transport public iasi)"],"reference":{"key":"public_transport","value":"platform"},"tags":{"bus":"yes","network:wikidata":"Q7275888","public_transport":"platform"},"addTags":{"bus":"yes","highway":"bus_stop","network":"CTP Iași","network:wikidata":"Q7275888","public_transport":"platform"}},"public_transport/platform/bus_point/ratbrasov-5b7f3a":{"name":"RAT Brașov","locationSet":{"include":["ro"]},"geometry":["point","vertex"],"matchScore":2,"terms":["rat brașov"],"reference":{"key":"public_transport","value":"platform"},"tags":{"bus":"yes","network:wikidata":"Q7258031","public_transport":"platform"},"addTags":{"bus":"yes","highway":"bus_stop","network":"RAT Brașov","network:wikidata":"Q7258031","public_transport":"platform"}},"public_transport/platform/bus_point/ratcraiova-5b7f3a":{"name":"RAT Craiova","locationSet":{"include":["ro"]},"geometry":["point","vertex"],"matchScore":2,"terms":["rat craiova"],"reference":{"key":"public_transport","value":"platform"},"tags":{"bus":"yes","network:wikidata":"Q25399056","public_transport":"platform"},"addTags":{"bus":"yes","highway":"bus_stop","network":"RAT Craiova","network:wikidata":"Q25399056","public_transport":"platform"}},"public_transport/platform/bus_point/stpt-5b7f3a":{"name":"S.T.P.T.","locationSet":{"include":["ro"]},"geometry":["point","vertex"],"matchScore":2,"terms":["s.t.p.t."],"reference":{"key":"public_transport","value":"platform"},"tags":{"bus":"yes","network:wikidata":"Q929687","public_transport":"platform"},"addTags":{"bus":"yes","highway":"bus_stop","network":"S.T.P.T.","network:wikidata":"Q929687","public_transport":"platform"}},"public_transport/platform/bus_point/societateadetransportbucuresti-5b7f3a":{"name":"STB (Societatea de Transport București)","locationSet":{"include":["ro"]},"geometry":["point","vertex"],"matchScore":2,"terms":["ratb","ratb (regia autonomă de transport bucurești)","societatea de transport bucurești","stb","stb (societatea de transport bucurești)"],"reference":{"key":"public_transport","value":"platform"},"tags":{"bus":"yes","network:wikidata":"Q2280353","public_transport":"platform"},"addTags":{"bus":"yes","highway":"bus_stop","network":"Societatea de Transport București","network:short":"STB","network:wikidata":"Q2280353","public_transport":"platform"}},"public_transport/platform/bus_point/transurb-5b7f3a":{"name":"Transurb","locationSet":{"include":["ro"]},"geometry":["point","vertex"],"matchScore":2,"terms":["transurb"],"reference":{"key":"public_transport","value":"platform"},"tags":{"bus":"yes","network:wikidata":"Q3997541","public_transport":"platform"},"addTags":{"bus":"yes","highway":"bus_stop","network":"Transurb","network:wikidata":"Q3997541","public_transport":"platform"}},"public_transport/platform/bus_point/tursib-5b7f3a":{"name":"Tursib","locationSet":{"include":["ro"]},"geometry":["point","vertex"],"matchScore":2,"terms":["s.c.tursib s.a","tursib"],"reference":{"key":"public_transport","value":"platform"},"tags":{"bus":"yes","network:wikidata":"Q1477885","public_transport":"platform"},"addTags":{"bus":"yes","highway":"bus_stop","network":"Tursib","network:wikidata":"Q1477885","public_transport":"platform"}},"type/route/bus/ctpiasi-9c403a":{"name":"CTP Iași","locationSet":{"include":["ro"]},"geometry":["relation"],"matchScore":2,"terms":["ctp iași","ratp (regia autonoma de transport public iasi)"],"reference":{"key":"route","value":"bus"},"tags":{"network:wikidata":"Q7275888","route":"bus","type":"route"},"addTags":{"network":"CTP Iași","network:wikidata":"Q7275888","route":"bus","type":"route"}},"type/route/bus/ratbrasov-9c403a":{"name":"RAT Brașov","locationSet":{"include":["ro"]},"geometry":["relation"],"matchScore":2,"terms":["rat brașov"],"reference":{"key":"route","value":"bus"},"tags":{"network:wikidata":"Q7258031","route":"bus","type":"route"},"addTags":{"network":"RAT Brașov","network:wikidata":"Q7258031","route":"bus","type":"route"}},"type/route/bus/ratcraiova-9c403a":{"name":"RAT Craiova","locationSet":{"include":["ro"]},"geometry":["relation"],"matchScore":2,"terms":["rat craiova"],"reference":{"key":"route","value":"bus"},"tags":{"network:wikidata":"Q25399056","route":"bus","type":"route"},"addTags":{"network":"RAT Craiova","network:wikidata":"Q25399056","route":"bus","type":"route"}},"type/route/bus/stpt-9c403a":{"name":"S.T.P.T.","locationSet":{"include":["ro"]},"geometry":["relation"],"matchScore":2,"terms":["s.t.p.t."],"reference":{"key":"route","value":"bus"},"tags":{"network:wikidata":"Q929687","route":"bus","type":"route"},"addTags":{"network":"S.T.P.T.","network:wikidata":"Q929687","route":"bus","type":"route"}},"type/route/bus/societateadetransportbucuresti-9c403a":{"name":"STB (Societatea de Transport București)","locationSet":{"include":["ro"]},"geometry":["relation"],"matchScore":2,"terms":["ratb","ratb (regia autonomă de transport bucurești)","societatea de transport bucurești","stb","stb (societatea de transport bucurești)"],"reference":{"key":"route","value":"bus"},"tags":{"network:wikidata":"Q2280353","route":"bus","type":"route"},"addTags":{"network":"Societatea de Transport București","network:short":"STB","network:wikidata":"Q2280353","route":"bus","type":"route"}},"type/route/bus/transurb-9c403a":{"name":"Transurb","locationSet":{"include":["ro"]},"geometry":["relation"],"matchScore":2,"terms":["transurb"],"reference":{"key":"route","value":"bus"},"tags":{"network:wikidata":"Q3997541","route":"bus","type":"route"},"addTags":{"network":"Transurb","network:wikidata":"Q3997541","route":"bus","type":"route"}},"type/route/bus/tursib-9c403a":{"name":"Tursib","locationSet":{"include":["ro"]},"geometry":["relation"],"matchScore":2,"terms":["s.c.tursib s.a","tursib"],"reference":{"key":"route","value":"bus"},"tags":{"network:wikidata":"Q1477885","route":"bus","type":"route"},"addTags":{"network":"Tursib","network:wikidata":"Q1477885","route":"bus","type":"route"}},"type/route/subway/metrorex-61c88f":{"name":"Metrorex","locationSet":{"include":["ro"]},"geometry":["relation"],"matchScore":2,"terms":["metrorex"],"reference":{"key":"route","value":"subway"},"tags":{"network:wikidata":"Q622884","route":"subway","type":"route"},"addTags":{"network":"Metrorex","network:wikidata":"Q622884","operator:wikidata":"Q1091725","route":"subway","type":"route"}},"type/route/train/eurocity-6b9d23":{"name":"EuroCity","locationSet":{"include":["by","bg","cz","hu","pl","md","ro","ru","sk","ua","ax","gg","je","cq","dk","ee","fo","fi","is","ie","im","lv","lt","no","sj","se","gb","al","ad","ba","hr","gi","gr","va","it","mt","me","mk","pt","sm","rs","si","es","xk","at","be","fr","de","li","lu","mc","nl","ch"]},"geometry":["relation"],"matchScore":2,"terms":["eurocity"],"reference":{"key":"route","value":"train"},"tags":{"network:wikidata":"Q753050","route":"train","type":"route"},"addTags":{"network":"EuroCity","network:wikidata":"Q753050","route":"train","type":"route"}},"type/route/train/euronight-6b9d23":{"name":"EuroNight","locationSet":{"include":["by","bg","cz","hu","pl","md","ro","ru","sk","ua","ax","gg","je","cq","dk","ee","fo","fi","is","ie","im","lv","lt","no","sj","se","gb","al","ad","ba","hr","gi","gr","va","it","mt","me","mk","pt","sm","rs","si","es","xk","at","be","fr","de","li","lu","mc","nl","ch"]},"geometry":["relation"],"matchScore":2,"terms":["euronight"],"reference":{"key":"route","value":"train"},"tags":{"network:wikidata":"Q257307","route":"train","type":"route"},"addTags":{"network":"EuroNight","network:wikidata":"Q257307","route":"train","type":"route"}},"type/route/tram/ctpiasi-200f98":{"name":"CTP Iași","locationSet":{"include":["ro"]},"geometry":["relation"],"matchScore":2,"terms":["ctp iași"],"reference":{"key":"route","value":"tram"},"tags":{"network:wikidata":"Q7275888","route":"tram","type":"route"},"addTags":{"network":"CTP Iași","network:wikidata":"Q7275888","route":"tram","type":"route"}},"type/route/tram/stpt-200f98":{"name":"S.T.P.T.","locationSet":{"include":["ro"]},"geometry":["relation"],"matchScore":2,"terms":["s.t.p.t.","societatea de transport public timișoara","societatea de transport public timișoara s.a."],"reference":{"key":"route","value":"tram"},"tags":{"network:wikidata":"Q929687","route":"tram","type":"route"},"addTags":{"network":"S.T.P.T.","network:wikidata":"Q929687","route":"tram","type":"route"}},"type/route/tram/societateadetransportbucuresti-200f98":{"name":"STB (Societatea de Transport București)","locationSet":{"include":["ro"]},"geometry":["relation"],"matchScore":2,"terms":["ratb","societatea de transport bucurești","stb","stb (societatea de transport bucurești)"],"reference":{"key":"route","value":"tram"},"tags":{"network:wikidata":"Q2280353","route":"tram","type":"route"},"addTags":{"network":"Societatea de Transport București","network:short":"STB","network:wikidata":"Q2280353","route":"tram","type":"route"}},"type/route/trolleybus/ctpcompaniadetransportpublicclujnapocasa-6b6251":{"name":"CTP (Compania de Transport Public Cluj Napoca SA)","locationSet":{"include":["ro"]},"geometry":["relation"],"matchScore":2,"terms":["ctp (compania de transport public cluj napoca sa)"],"reference":{"key":"route","value":"trolleybus"},"tags":{"network:wikidata":"Q266625","route":"trolleybus","type":"route"},"addTags":{"network":"CTP (Compania de Transport Public Cluj Napoca SA)","network:wikidata":"Q266625","route":"trolleybus","type":"route"}},"type/route/trolleybus/ratbrasov-6b6251":{"name":"RAT Brașov","locationSet":{"include":["ro"]},"geometry":["relation"],"matchScore":2,"terms":["rat brașov"],"reference":{"key":"route","value":"trolleybus"},"tags":{"network:wikidata":"Q7258031","route":"trolleybus","type":"route"},"addTags":{"network":"RAT Brașov","network:wikidata":"Q7258031","route":"trolleybus","type":"route"}},"type/route/trolleybus/stpt-6b6251":{"name":"S.T.P.T.","locationSet":{"include":["ro"]},"geometry":["relation"],"matchScore":2,"terms":["s.t.p.t."],"reference":{"key":"route","value":"trolleybus"},"tags":{"network:wikidata":"Q2010200","route":"trolleybus","type":"route"},"addTags":{"network":"S.T.P.T.","network:wikidata":"Q2010200","operator:wikidata":"Q929687","route":"trolleybus","type":"route"}},"type/route/trolleybus/societateadetransportbucuresti-6b6251":{"name":"STB","locationSet":{"include":["ro"]},"geometry":["relation"],"matchScore":2,"terms":["ratb","ratb (regia autonomă de transport bucurești)","societatea de transport bucurești","stb","stb (societatea de transport bucurești)"],"reference":{"key":"route","value":"trolleybus"},"tags":{"network:wikidata":"Q2280353","route":"trolleybus","type":"route"},"addTags":{"network":"Societatea de Transport București","network:short":"STB","network:wikidata":"Q2280353","route":"trolleybus","type":"route"}}}