{"shop/trade/westernstatescat-8cb1bb":{"name":"Western States CAT","locationSet":{"include":["us-id","us-mt","us-or","us-wa","us-wy"]},"geometry":["point","area"],"matchScore":2,"terms":["western states cat"],"tags":{"brand:wikidata":"Q109615463","shop":"trade"},"addTags":{"brand":"Western States CAT","brand:wikidata":"Q109615463","name":"Western States CAT","shop":"trade","trade":"construction_equipment"}},"amenity/police/wyominghighwaypatrol-07de7e":{"name":"Wyoming Highway Patrol","locationSet":{"include":["us-wy"]},"geometry":["point","area"],"matchScore":2,"terms":["whp","wyoming highway patrol"],"tags":{"amenity":"police","operator:wikidata":"Q8040352"},"addTags":{"amenity":"police","operator":"Wyoming Highway Patrol","operator:short":"WHP","operator:wikidata":"Q8040352","operator:wikipedia":"en:Wyoming Highway Patrol"}},"amenity/school/albanycountyschooldistrict1-a56222":{"name":"Albany County School District #1","locationSet":{"include":["us-wy"]},"geometry":["area","point"],"matchScore":2,"terms":["acsd#1","albany county school district #1"],"tags":{"amenity":"school","operator:wikidata":"Q4709305"},"addTags":{"amenity":"school","operator":"Albany County School District #1","operator:short":"ACSD#1","operator:type":"public","operator:wikidata":"Q4709305","operator:wikipedia":"en:Albany County School District Number 1"}},"amenity/school/campbellcountyschooldistrictnumber1-a56222":{"name":"Campbell County School District","locationSet":{"include":["us-wy"]},"geometry":["area","point"],"matchScore":2,"terms":["campbell county school district number 1","ccsd"],"tags":{"amenity":"school","operator:wikidata":"Q5028046"},"addTags":{"amenity":"school","operator":"Campbell County School District Number 1","operator:short":"CCSD","operator:type":"public","operator:wikidata":"Q5028046","operator:wikipedia":"en:Campbell County School District Number 1"}},"amenity/school/laramiecountyschooldistrict1-a56222":{"name":"Laramie County School District 1","locationSet":{"include":["us-wy"]},"geometry":["area","point"],"matchScore":2,"terms":["laramie county school district 1","lcsd1"],"tags":{"amenity":"school","operator:wikidata":"Q6488659"},"addTags":{"amenity":"school","operator":"Laramie County School District 1","operator:short":"LCSD1","operator:type":"public","operator:wikidata":"Q6488659","operator:wikipedia":"en:Laramie County School District Number 1"}},"leisure/nature_reserve/wyomingdivisionofstateparksandhistoricsites-6870e0":{"name":"WYO Parks","locationSet":{"include":["us-wy"]},"geometry":["area","point"],"matchScore":2,"terms":["wyo parks","wyoming division of state parks and historic sites","wyoming state parks"],"tags":{"leisure":"nature_reserve","operator:wikidata":"Q8040334"},"addTags":{"leisure":"nature_reserve","operator":"Wyoming Division of State Parks and Historic Sites","operator:short":"WYO Parks","operator:type":"public","operator:wikidata":"Q8040334","operator:wikipedia":"en:Wyoming Division of State Parks and Historic Sites"}},"leisure/park/wyomingdivisionofstateparksandhistoricsites-cea54e":{"name":"WYO Parks","locationSet":{"include":["us-wy"]},"geometry":["area","point"],"matchScore":2,"terms":["wyo parks","wyoming division of state parks and historic sites","wyoming state parks"],"tags":{"leisure":"park","operator:wikidata":"Q8040334"},"addTags":{"leisure":"park","operator":"Wyoming Division of State Parks and Historic Sites","operator:short":"WYO Parks","operator:type":"public","operator:wikidata":"Q8040334","operator:wikipedia":"en:Wyoming Division of State Parks and Historic Sites"}}}