{"amenity/atm/acba-056506":{"name":"ACBA","locationSet":{"include":["am"]},"geometry":["point","vertex"],"matchScore":2,"terms":["acba"],"fields":["name","brand","{amenity/atm}"],"tags":{"amenity":"atm","brand:wikidata":"Q55602923"},"addTags":{"amenity":"atm","brand":"ACBA","brand:wikidata":"Q55602923","operator":"ACBA","operator:wikidata":"Q55602923"}},"amenity/atm/vtb-056506":{"name":"VTB (Armenia)","locationSet":{"include":["am"]},"geometry":["point","vertex"],"matchScore":2,"terms":["vtb"],"fields":["name","brand","{amenity/atm}"],"tags":{"amenity":"atm","brand:wikidata":"Q1549389"},"addTags":{"amenity":"atm","brand":"VTB","brand:wikidata":"Q1549389","operator":"VTB","operator:wikidata":"Q1549389"}},"amenity/bank/acba-9c44ae":{"name":"ACBA","locationSet":{"include":["am"]},"geometry":["point","area"],"matchScore":2,"terms":["acba"],"tags":{"amenity":"bank","brand:wikidata":"Q55602923"},"addTags":{"amenity":"bank","brand":"ACBA","brand:wikidata":"Q55602923","name":"ACBA"}},"amenity/bank/vtb-9c44ae":{"name":"VTB (Armenia)","locationSet":{"include":["am"]},"geometry":["point","area"],"matchScore":2,"terms":["vtb"],"tags":{"amenity":"bank","brand:wikidata":"Q1549389"},"addTags":{"amenity":"bank","brand":"VTB","brand:wikidata":"Q1549389","name":"VTB"}},"office/telecommunication/beeline-31646e":{"name":"Beeline","locationSet":{"include":["am","au","la","vn"]},"geometry":["point","area"],"matchScore":2,"terms":["beeline"],"tags":{"brand:wikidata":"Q402880","office":"telecommunication"},"addTags":{"brand":"Beeline","brand:wikidata":"Q402880","name":"Beeline","office":"telecommunication"}},"office/telecommunication/teamtelecomarmenia-2921eb":{"name":"Team Telecom Armenia","locationSet":{"include":["am"]},"geometry":["point","area"],"matchScore":2,"terms":["team telecom","team telecom armenia","telecom armenia"],"tags":{"brand:wikidata":"Q97125249","office":"telecommunication"},"addTags":{"brand":"Team Telecom Armenia","brand:wikidata":"Q97125249","name":"Team Telecom Armenia","office":"telecommunication"}},"office/telecommunication/ucom-2921eb":{"name":"Ucom","locationSet":{"include":["am"]},"geometry":["point","area"],"matchScore":2,"terms":["ucom","յուքոմ"],"tags":{"brand:wikidata":"Q13054189","office":"telecommunication"},"addTags":{"brand":"Ucom","brand:wikidata":"Q13054189","name":"Ucom","office":"telecommunication"}},"shop/clothes/bsbfashion-3443a7":{"name":"BSB Fashion","locationSet":{"include":["al","am","bg","cy","eg","gr","ro","xk"]},"geometry":["point","area"],"matchScore":2,"terms":["bsb","bsb fashion"],"tags":{"brand:wikidata":"Q12721399","shop":"clothes"},"addTags":{"brand":"BSB Fashion","brand:wikidata":"Q12721399","clothes":"women","name":"BSB Fashion","shop":"clothes"}},"shop/clothes/garage-072c62":{"name":"Garage","locationSet":{"include":["am","ca","jo","om","qa","sa","us"]},"geometry":["point","area"],"matchScore":2,"terms":["garage"],"tags":{"brand:wikidata":"Q5521860","shop":"clothes"},"addTags":{"brand":"Garage","brand:wikidata":"Q5521860","clothes":"women","name":"Garage","shop":"clothes"}},"shop/clothes/loverepublic-54fe8d":{"name":"LOVE REPUBLIC","locationSet":{"include":["am","by","kz","ru"]},"geometry":["point","area"],"matchScore":2,"terms":["love republic"],"tags":{"brand:wikidata":"Q103848331","shop":"clothes"},"addTags":{"brand":"LOVE REPUBLIC","brand:wikidata":"Q103848331","clothes":"women","name":"LOVE REPUBLIC","shop":"clothes"}},"shop/clothes/zarina-54fe8d":{"name":"Zarina","locationSet":{"include":["am","by","kz","ru"]},"geometry":["point","area"],"matchScore":2,"terms":["zarina"],"tags":{"brand:wikidata":"Q147662","shop":"clothes"},"addTags":{"brand":"Zarina","brand:wikidata":"Q147662","clothes":"women","name":"Zarina","shop":"clothes"}},"shop/electronics/bork-138e7e":{"name":"Bork","locationSet":{"include":["am","by","kz","ru"]},"geometry":["point","area"],"matchScore":2,"terms":["bork"],"tags":{"brand:wikidata":"Q4035327","shop":"electronics"},"addTags":{"brand":"Bork","brand:wikidata":"Q4035327","name":"Bork","shop":"electronics"}},"amenity/post_box/haypost-67ecec":{"name":"HayPost","locationSet":{"include":["am"]},"geometry":["point","vertex"],"matchScore":2,"terms":["haypost","հայփոստ"],"tags":{"amenity":"post_box","operator:wikidata":"Q3128876"},"addTags":{"amenity":"post_box","operator":"HayPost","operator:en":"HayPost","operator:hy":"Հայփոստ","operator:wikidata":"Q3128876"}},"amenity/post_office/haypost-1aee57":{"name":"HayPost","locationSet":{"include":["am"]},"geometry":["point","area"],"matchScore":2,"terms":["haypost","հայփոստ"],"fields":["name","operator","{amenity/post_office}"],"tags":{"amenity":"post_office","operator:wikidata":"Q3128876"},"addTags":{"amenity":"post_office","operator":"HayPost","operator:en":"HayPost","operator:hy":"Հայփոստ","operator:wikidata":"Q3128876"}}}