{"amenity/atm/hawaiianfirstbank-bc3288":{"name":"Hawaiian First Bank","locationSet":{"include":["gu","mp","us-hi"]},"geometry":["point","vertex"],"matchScore":2,"terms":["hawaiian first bank"],"tags":{"amenity":"atm","brand:wikidata":"Q3072937"},"addTags":{"amenity":"atm","brand":"Hawaiian First Bank","brand:wikidata":"Q3072937","name":"Hawaiian First Bank","operator":"Hawaiian First Bank","operator:wikidata":"Q3072937"}},"amenity/bank/hawaiianfirstbank-ae6ba2":{"name":"Hawaiian First Bank","locationSet":{"include":["gu","mp","us-hi"]},"geometry":["point","area"],"matchScore":2,"terms":["hawaiian first bank"],"tags":{"amenity":"bank","brand:wikidata":"Q3072937"},"addTags":{"amenity":"bank","brand":"Hawaiian First Bank","brand:wikidata":"Q3072937","name":"Hawaiian First Bank"}},"amenity/fast_food/donut/winchellsdonuthouse-d02b6a":{"name":"Winchell's Donut House","locationSet":{"include":["gu","mp","sa","us"]},"geometry":["point","area"],"matchScore":2,"terms":["winchell's donut house","winchells donuts","winchells doughnut house","winchells doughnuts"],"reference":{"key":"cuisine","value":"donut"},"tags":{"amenity":"fast_food","brand:wikidata":"Q8023756","cuisine":"donut"},"addTags":{"amenity":"fast_food","brand":"Winchell's Donut House","brand:wikidata":"Q8023756","cuisine":"donut","name":"Winchell's Donut House","takeaway":"yes"}},"amenity/restaurant/seafood/bubbagumpshrimpcompany-90d54f":{"name":"Bubba Gump Shrimp Company","locationSet":{"include":["ca","co","gb","hk","id","jp","mp","mx","ph","us"]},"geometry":["point","area"],"matchScore":2,"terms":["bubba gump shrimp company"],"reference":{"key":"cuisine","value":"seafood"},"tags":{"amenity":"restaurant","brand:wikidata":"Q50024","cuisine":"seafood"},"addTags":{"amenity":"restaurant","brand":"Bubba Gump Shrimp Company","brand:wikidata":"Q50024","cuisine":"seafood","name":"Bubba Gump Shrimp Company"}}}