{"amenity/fast_food/burger/twisters-14d357":{"name":"Twisters","locationSet":{"include":["us-co","us-nm"]},"geometry":["point","area"],"matchScore":2,"terms":["twisters","twisters burgers & burritos"],"reference":{"key":"cuisine","value":"burger"},"tags":{"amenity":"fast_food","brand:wikidata":"Q18062004","cuisine":"burger"},"addTags":{"amenity":"fast_food","brand":"Twisters","brand:wikidata":"Q18062004","cuisine":"burger","name":"Twisters","official_name":"Twisters Burgers & Burritos","takeaway":"yes"}},"shop/convenience/kentkwik-c3f9f6":{"name":"Kent Kwik","locationSet":{"include":["us-nm","us-ok","us-tx"]},"geometry":["point","area"],"matchScore":2,"terms":["kent kwik"],"tags":{"brand:wikidata":"Q110622262","shop":"convenience"},"addTags":{"brand":"Kent Kwik","brand:wikidata":"Q110622262","name":"Kent Kwik","shop":"convenience"}},"shop/trade/wagnercat-ca7f61":{"name":"Wagner CAT","locationSet":{"include":["us-co","us-nm"]},"geometry":["point","area"],"matchScore":2,"terms":["wagner cat"],"tags":{"brand:wikidata":"Q109615846","shop":"trade"},"addTags":{"brand":"Wagner CAT","brand:wikidata":"Q109615846","name":"Wagner CAT","shop":"trade","trade":"construction_equipment"}},"amenity/police/newmexicostatepolice-09cc93":{"name":"New Mexico State Police","locationSet":{"include":["us-nm"]},"geometry":["point","area"],"matchScore":2,"terms":["new mexico state police","nmsp"],"tags":{"amenity":"police","operator:wikidata":"Q7010251"},"addTags":{"amenity":"police","operator":"New Mexico State Police","operator:short":"NMSP","operator:wikidata":"Q7010251"}},"amenity/school/albuquerquepublicschools-2a40d4":{"name":"Albuquerque Public Schools","locationSet":{"include":["us-nm"]},"geometry":["area","point"],"matchScore":2,"terms":["albuquerque public schools","albuquerque public schools (aps)","albuquerque public schools (http://www.aps.edu/)","aps"],"tags":{"amenity":"school","operator:wikidata":"Q4712830"},"addTags":{"amenity":"school","operator":"Albuquerque Public Schools","operator:short":"APS","operator:type":"public","operator:wikidata":"Q4712830"}},"leisure/nature_reserve/cityoffarmington-9edcaa":{"name":"City of Farmington","locationSet":{"include":["us-nm"]},"geometry":["area","point"],"matchScore":2,"terms":["city of farmington"],"tags":{"leisure":"nature_reserve","operator:wikidata":"Q1012695"},"addTags":{"leisure":"nature_reserve","operator":"City of Farmington","operator:type":"public","operator:wikidata":"Q1012695"}},"leisure/nature_reserve/cityofsantafe-9edcaa":{"name":"City of Santa Fe","locationSet":{"include":["us-nm"]},"geometry":["area","point"],"matchScore":2,"terms":["city of santa fe"],"tags":{"leisure":"nature_reserve","operator:wikidata":"Q38555"},"addTags":{"leisure":"nature_reserve","operator":"City of Santa Fe","operator:type":"public","operator:wikidata":"Q38555"}},"leisure/park/cityoffarmington-c18344":{"name":"City of Farmington","locationSet":{"include":["us-nm"]},"geometry":["area","point"],"matchScore":2,"terms":["city of farmington"],"tags":{"leisure":"park","operator:wikidata":"Q1012695"},"addTags":{"leisure":"park","operator":"City of Farmington","operator:type":"public","operator:wikidata":"Q1012695"}},"leisure/park/cityofsantafe-c18344":{"name":"City of Santa Fe","locationSet":{"include":["us-nm"]},"geometry":["area","point"],"matchScore":2,"terms":["city of santa fe"],"tags":{"leisure":"park","operator:wikidata":"Q38555"},"addTags":{"leisure":"park","operator":"City of Santa Fe","operator:type":"public","operator:wikidata":"Q38555"}},"office/government/newmexicomotorvehicledivision-5098d2":{"name":"MVD New Mexico","locationSet":{"include":["us-nm"]},"geometry":["point","area"],"matchScore":2,"terms":["mvd","mvd new mexico","new mexico motor vehicle division"],"tags":{"office":"government","operator:wikidata":"Q16982577"},"addTags":{"government":"transportation","office":"government","operator":"New Mexico Motor Vehicle Division","operator:short":"MVD New Mexico","operator:wikidata":"Q16982577"}},"power/line/epcor-ec456d":{"name":"EPCOR","locationSet":{"include":["ca-ab","ca-bc","ca-on","us-az","us-nm","us-tx"]},"geometry":["line"],"matchScore":2,"terms":["aqualta","eltec","epcor"],"tags":{"operator:wikidata":"Q5323849","power":"line"},"addTags":{"operator":"EPCOR","operator:wikidata":"Q5323849","power":"line"}},"power/minor_line/epcor-dda2f7":{"name":"EPCOR","locationSet":{"include":["ca-ab","ca-bc","ca-on","us-az","us-nm","us-tx"]},"geometry":["line"],"matchScore":2,"terms":["aqualta","eltec","epcor"],"tags":{"operator:wikidata":"Q5323849","power":"minor_line"},"addTags":{"operator":"EPCOR","operator:wikidata":"Q5323849","power":"minor_line"}},"power/pole/epcor-e09e4b":{"name":"EPCOR","locationSet":{"include":["ca-ab","ca-bc","ca-on","us-az","us-nm","us-tx"]},"geometry":["point","vertex"],"matchScore":2,"terms":["aqualta","eltec","epcor"],"tags":{"operator:wikidata":"Q5323849","power":"pole"},"addTags":{"operator":"EPCOR","operator:wikidata":"Q5323849","power":"pole"}},"power/substation/epcor-b7915e":{"name":"EPCOR","locationSet":{"include":["ca-ab","ca-bc","ca-on","us-az","us-nm","us-tx"]},"geometry":["area","point"],"matchScore":2,"terms":["aqualta","eltec","epcor"],"tags":{"operator:wikidata":"Q5323849","power":"substation"},"addTags":{"operator":"EPCOR","operator:wikidata":"Q5323849","power":"substation"}},"power/tower/epcor-f12bdc":{"name":"EPCOR","locationSet":{"include":["ca-ab","ca-bc","ca-on","us-az","us-nm","us-tx"]},"geometry":["point","vertex"],"matchScore":2,"terms":["aqualta","eltec","epcor"],"tags":{"operator:wikidata":"Q5323849","power":"tower"},"addTags":{"operator":"EPCOR","operator:wikidata":"Q5323849","power":"tower"}},"power/transformer/epcor-f6996f":{"name":"EPCOR","locationSet":{"include":["ca-ab","ca-bc","ca-on","us-az","us-nm","us-tx"]},"geometry":["point","vertex"],"matchScore":2,"terms":["aqualta","eltec","epcor"],"tags":{"operator:wikidata":"Q5323849","power":"transformer"},"addTags":{"operator":"EPCOR","operator:wikidata":"Q5323849","power":"transformer"}}}