{"amenity/fire_station/departmentoffireandemergencyservices-72fb76":{"name":"Department of Fire & Emergency Services","locationSet":{"include":["au-wa"]},"geometry":["point","area"],"matchScore":2,"terms":["department of fire & emergency services"],"tags":{"amenity":"fire_station","operator:wikidata":"Q5451517"},"addTags":{"amenity":"fire_station","operator":"Department of Fire & Emergency Services","operator:wikidata":"Q5451517","operator:wikipedia":"en:Department of Fire and Emergency Services"}},"amenity/police/westernaustraliapoliceforce-fec6b2":{"name":"Western Australia Police Force","locationSet":{"include":["au-wa"]},"geometry":["point","area"],"matchScore":2,"terms":["wapf","wapol","western australia police force"],"tags":{"amenity":"police","operator:wikidata":"Q7987488"},"addTags":{"amenity":"police","operator":"Western Australia Police Force","operator:wikidata":"Q7987488","operator:wikipedia":"en:Western Australia Police Force"}},"amenity/school/departmentofeducation-3f16bf":{"name":"Department of Education (Western Australia)","locationSet":{"include":["au-wa"]},"geometry":["area","point"],"matchScore":2,"terms":["department of education"],"tags":{"amenity":"school","operator:wikidata":"Q5260265"},"addTags":{"amenity":"school","operator":"Department of Education","operator:type":"public","operator:wikidata":"Q5260265","operator:wikipedia":"en:Department of Education (Western Australia)"}},"boundary/parksandwildlifeservice-e147be":{"name":"Parks and Wildlife Service (Western Australia)","locationSet":{"include":["au-wa"]},"geometry":["line"],"matchScore":2,"terms":["parks and wildlife service"],"tags":{"boundary":"national_park","operator:wikidata":"Q111082491"},"addTags":{"boundary":"national_park","operator":"Parks and Wildlife Service","operator:wikidata":"Q111082491"}},"leisure/nature_reserve/cityofcanning-c754d2":{"name":"City of Canning","locationSet":{"include":["au-wa"]},"geometry":["area","point"],"matchScore":2,"terms":["city of canning"],"tags":{"leisure":"nature_reserve","operator:wikidata":"Q585453"},"addTags":{"leisure":"nature_reserve","operator":"City of Canning","operator:type":"government","operator:wikidata":"Q585453","operator:wikipedia":"en:City of Canning"}},"leisure/nature_reserve/cityofwanneroo-c754d2":{"name":"City of Wanneroo","locationSet":{"include":["au-wa"]},"geometry":["area","point"],"matchScore":2,"terms":["city of wanneroo"],"tags":{"leisure":"nature_reserve","operator:wikidata":"Q543262"},"addTags":{"leisure":"nature_reserve","operator":"City of Wanneroo","operator:type":"government","operator:wikidata":"Q543262","operator:wikipedia":"en:City of Wanneroo"}},"leisure/park/cityofcanning-7b192d":{"name":"City of Canning","locationSet":{"include":["au-wa"]},"geometry":["area","point"],"matchScore":2,"terms":["city of canning"],"tags":{"leisure":"park","operator:wikidata":"Q585453"},"addTags":{"leisure":"park","operator":"City of Canning","operator:type":"government","operator:wikidata":"Q585453","operator:wikipedia":"en:City of Canning"}},"leisure/park/cityofwanneroo-7b192d":{"name":"City of Wanneroo","locationSet":{"include":["au-wa"]},"geometry":["area","point"],"matchScore":2,"terms":["city of wanneroo"],"tags":{"leisure":"park","operator:wikidata":"Q543262"},"addTags":{"leisure":"park","operator":"City of Wanneroo","operator:type":"government","operator:wikidata":"Q543262","operator:wikipedia":"en:City of Wanneroo"}},"man_made/wastewater_plant/watercorporation-c76c40":{"name":"Water Corporation","locationSet":{"include":["au-wa"]},"geometry":["point","area"],"matchScore":2,"terms":["water corporation"],"tags":{"man_made":"wastewater_plant","operator:wikidata":"Q17058890"},"addTags":{"man_made":"wastewater_plant","operator":"Water Corporation","operator:wikidata":"Q17058890","operator:wikipedia":"en:Water Corporation (Western Australia)"}},"man_made/water_works/watercorporation-bf7ce7":{"name":"Water Corporation","locationSet":{"include":["au-wa"]},"geometry":["point","area"],"matchScore":2,"terms":["water corporation"],"tags":{"man_made":"water_works","operator:wikidata":"Q17058890"},"addTags":{"man_made":"water_works","operator":"Water Corporation","operator:wikidata":"Q17058890","operator:wikipedia":"en:Water Corporation (Western Australia)"}},"power/substation/westernpower-ba34d7":{"name":"Western Power (Western Australia)","locationSet":{"include":["au-wa"]},"geometry":["area","point"],"matchScore":2,"terms":["western power"],"tags":{"operator:wikidata":"Q7988180","power":"substation"},"addTags":{"operator":"Western Power","operator:wikidata":"Q7988180","operator:wikipedia":"en:Western Power (networks corporation)","power":"substation"}},"power/transformer/westernpower-e850b6":{"name":"Western Power (Western Australia)","locationSet":{"include":["au-wa"]},"geometry":["point","vertex"],"matchScore":2,"terms":["western power"],"tags":{"operator:wikidata":"Q7988180","power":"transformer"},"addTags":{"operator":"Western Power","operator:wikidata":"Q7988180","operator:wikipedia":"en:Western Power (networks corporation)","power":"transformer"}}}