{"amenity/atm/columbiabank-f7c6e0":{"name":"Columbia Bank (Pacific Northwest)","locationSet":{"include":["us-id","us-or","us-wa"]},"geometry":["point","vertex"],"matchScore":2,"terms":["columbia bank"],"tags":{"amenity":"atm","brand:wikidata":"Q62084089"},"addTags":{"amenity":"atm","brand":"Columbia Bank","brand:wikidata":"Q62084089","name":"Columbia Bank","operator":"Columbia Bank","operator:wikidata":"Q62084089"}},"amenity/bank/columbiabank-c20fa5":{"name":"Columbia Bank (Pacific Northwest)","locationSet":{"include":["us-id","us-or","us-wa"]},"geometry":["point","area"],"matchScore":2,"terms":["columbia bank"],"tags":{"amenity":"bank","brand:wikidata":"Q62084089"},"addTags":{"amenity":"bank","brand":"Columbia Bank","brand:wikidata":"Q62084089","name":"Columbia Bank"}},"amenity/fast_food/cafeyumm-647c80":{"name":"Café Yumm!","locationSet":{"include":["us-id","us-or","us-wa"]},"geometry":["point","area"],"matchScore":2,"terms":["café yumm!"],"tags":{"amenity":"fast_food","brand:wikidata":"Q48816450"},"addTags":{"amenity":"fast_food","brand":"Café Yumm!","brand:wikidata":"Q48816450","name":"Café Yumm!","takeaway":"yes"}},"shop/paint/millerpaint-c4c85f":{"name":"Miller Paint","locationSet":{"include":["us-id","us-or","us-wa"]},"geometry":["point","area"],"matchScore":2,"terms":["miller paint"],"tags":{"brand:wikidata":"Q110543288","shop":"paint"},"addTags":{"brand":"Miller Paint","brand:wikidata":"Q110543288","name":"Miller Paint","shop":"paint"}},"shop/storage_rental/northwestselfstorage-6af07e":{"name":"Northwest Self Storage","locationSet":{"include":["us-id","us-or","us-wa"]},"geometry":["point","area"],"matchScore":2,"terms":["northwest self storage","nw self storage"],"tags":{"brand:wikidata":"Q108576211","shop":"storage_rental"},"addTags":{"brand":"Northwest Self Storage","brand:wikidata":"Q108576211","name":"Northwest Self Storage","shop":"storage_rental"}},"shop/trade/westernstatescat-8cb1bb":{"name":"Western States CAT","locationSet":{"include":["us-id","us-mt","us-or","us-wa","us-wy"]},"geometry":["point","area"],"matchScore":2,"terms":["western states cat"],"tags":{"brand:wikidata":"Q109615463","shop":"trade"},"addTags":{"brand":"Western States CAT","brand:wikidata":"Q109615463","name":"Western States CAT","shop":"trade","trade":"construction_equipment"}},"amenity/clinic/saltzerhealth-802e45":{"name":"Saltzer Health","locationSet":{"include":["us-id"]},"geometry":["point","area"],"matchScore":2,"terms":["saltzer health"],"fields":["name","operator","{amenity/clinic}"],"reference":{"key":"amenity","value":"clinic"},"tags":{"amenity":"clinic","operator:wikidata":"Q110744466"},"addTags":{"amenity":"clinic","healthcare":"clinic","operator":"Saltzer Health","operator:wikidata":"Q110744466"}},"amenity/fire_station/cityofboise-46f1bf":{"name":"City of Boise","locationSet":{"include":["us-id"]},"geometry":["point","area"],"matchScore":2,"terms":["city of boise"],"tags":{"amenity":"fire_station","operator:wikidata":"Q35775"},"addTags":{"amenity":"fire_station","operator":"City of Boise","operator:wikidata":"Q35775"}},"amenity/police/idahostatepolice-b19a53":{"name":"Idaho State Police","locationSet":{"include":["us-id"]},"geometry":["point","area"],"matchScore":2,"terms":["idaho state police","isp"],"tags":{"amenity":"police","operator:wikidata":"Q5987459"},"addTags":{"amenity":"police","operator":"Idaho State Police","operator:short":"ISP","operator:wikidata":"Q5987459"}},"amenity/prison/idahodepartmentofcorrection-e64a58":{"name":"IDOC","locationSet":{"include":["us-id"]},"geometry":["area","point"],"matchScore":2,"terms":["idaho department of correction","idoc"],"fields":["name","operator","{amenity/prison}"],"tags":{"amenity":"prison","operator:wikidata":"Q5987349"},"addTags":{"amenity":"prison","operator":"Idaho Department of Correction","operator:wikidata":"Q5987349"}},"amenity/school/boiseschooldistrict-d7611a":{"name":"Boise School District","locationSet":{"include":["us-id"]},"geometry":["area","point"],"matchScore":2,"terms":["boise school district"],"tags":{"amenity":"school","operator:wikidata":"Q4938460"},"addTags":{"amenity":"school","operator":"Boise School District","operator:type":"public","operator:wikidata":"Q4938460"}},"amenity/school/bonnevillejointschooldistrict-d7611a":{"name":"Bonneville Joint School District No. 93","locationSet":{"include":["us-id"]},"geometry":["area","point"],"matchScore":2,"terms":["bonneville joint school district","d93"],"tags":{"amenity":"school","operator:wikidata":"Q28449536"},"addTags":{"amenity":"school","operator":"Bonneville Joint School District","operator:short":"D93","operator:type":"public","operator:wikidata":"Q28449536"}},"amenity/school/coeurdalenepublicschools-d7611a":{"name":"Coeur d'Alene Public Schools","locationSet":{"include":["us-id"]},"geometry":["area","point"],"matchScore":2,"terms":["cda schools","coeur d'alene public schools","coeur d'alene school district","school district 271"],"tags":{"amenity":"school","operator:wikidata":"Q30637416"},"addTags":{"amenity":"school","operator":"Coeur d'Alene Public Schools","operator:short":"CDA Schools","operator:type":"public","operator:wikidata":"Q30637416"}},"amenity/school/idahofallsschooldistrict-d7611a":{"name":"Idaho Falls School District 91","locationSet":{"include":["us-id"]},"geometry":["area","point"],"matchScore":2,"terms":["d91","idaho falls school district"],"tags":{"amenity":"school","operator:wikidata":"Q28448210"},"addTags":{"amenity":"school","operator":"Idaho Falls School District","operator:short":"D91","operator:type":"public","operator:wikidata":"Q28448210"}},"amenity/school/jeffersonjointschooldistrict251-d7611a":{"name":"Jefferson School District 251","locationSet":{"include":["us-id"]},"geometry":["area","point"],"matchScore":2,"terms":["jefferson joint school district 251"],"tags":{"amenity":"school","operator:wikidata":"Q106920213"},"addTags":{"amenity":"school","operator":"Jefferson Joint School District 251","operator:type":"public","operator:wikidata":"Q106920213"}},"amenity/school/madisonschooldistrict321-d7611a":{"name":"Madison School District 321","locationSet":{"include":["us-id"]},"geometry":["area","point"],"matchScore":2,"terms":["madison school district 321","msd"],"tags":{"amenity":"school","operator:wikidata":"Q96391397"},"addTags":{"amenity":"school","operator":"Madison School District 321","operator:short":"MSD","operator:type":"public","operator:wikidata":"Q96391397"}},"amenity/school/pocatellochubbuckschooldistrict25-d7611a":{"name":"Pocatello/Chubbuck School District 25","locationSet":{"include":["us-id"]},"geometry":["area","point"],"matchScore":2,"terms":["pcsd25","pocatello/chubbuck school district 25"],"tags":{"amenity":"school","operator:wikidata":"Q7206294"},"addTags":{"amenity":"school","operator":"Pocatello/Chubbuck School District 25","operator:short":"PCSD25","operator:type":"public","operator:wikidata":"Q7206294"}},"amenity/school/vallivueschooldistrict-d7611a":{"name":"Vallivue School District #139","locationSet":{"include":["us-id"]},"geometry":["area","point"],"matchScore":2,"terms":["vallivue school district","vsd"],"tags":{"amenity":"school","operator:wikidata":"Q7912438"},"addTags":{"amenity":"school","operator":"Vallivue School District","operator:short":"VSD","operator:type":"public","operator:wikidata":"Q7912438"}},"amenity/school/westadaschooldistrict-d7611a":{"name":"West Ada School District","locationSet":{"include":["us-id"]},"geometry":["area","point"],"matchScore":2,"terms":["west ada school district"],"tags":{"amenity":"school","operator:wikidata":"Q17107971"},"addTags":{"amenity":"school","operator":"West Ada School District","operator:type":"public","operator:wikidata":"Q17107971"}},"leisure/nature_reserve/cityofboise-53eecf":{"name":"City of Boise","locationSet":{"include":["us-id"]},"geometry":["area","point"],"matchScore":2,"terms":["boise parks and recreation","city of boise"],"tags":{"leisure":"nature_reserve","operator:wikidata":"Q35775"},"addTags":{"leisure":"nature_reserve","operator":"City of Boise","operator:type":"public","operator:wikidata":"Q35775"}},"leisure/nature_reserve/cityofcaldwell-53eecf":{"name":"City of Caldwell (Idaho)","locationSet":{"include":["us-id"]},"geometry":["area","point"],"matchScore":2,"terms":["city of caldwell"],"tags":{"leisure":"nature_reserve","operator:wikidata":"Q849592"},"addTags":{"leisure":"nature_reserve","operator":"City of Caldwell","operator:type":"public","operator:wikidata":"Q849592"}},"leisure/nature_reserve/cityofcoeurdalene-53eecf":{"name":"City of Coeur d'Alene","locationSet":{"include":["us-id"]},"geometry":["area","point"],"matchScore":2,"terms":["city of coeur d'alene"],"tags":{"leisure":"nature_reserve","operator:wikidata":"Q499681"},"addTags":{"leisure":"nature_reserve","operator":"City of Coeur d'Alene","operator:type":"public","operator:wikidata":"Q499681"}},"leisure/nature_reserve/cityofidahofalls-53eecf":{"name":"City of Idaho Falls","locationSet":{"include":["us-id"]},"geometry":["area","point"],"matchScore":2,"terms":["city of idaho falls"],"tags":{"leisure":"nature_reserve","operator:wikidata":"Q496360"},"addTags":{"leisure":"nature_reserve","operator":"City of Idaho Falls","operator:type":"public","operator:wikidata":"Q496360"}},"leisure/nature_reserve/cityoflewiston-53eecf":{"name":"City of Lewiston","locationSet":{"include":["us-id"]},"geometry":["area","point"],"matchScore":2,"terms":["city of lewiston"],"tags":{"leisure":"nature_reserve","operator:wikidata":"Q505539"},"addTags":{"leisure":"nature_reserve","operator":"City of Lewiston","operator:type":"public","operator:wikidata":"Q505539"}},"leisure/nature_reserve/cityofmeridian-53eecf":{"name":"City of Meridian","locationSet":{"include":["us-id"]},"geometry":["area","point"],"matchScore":2,"terms":["city of meridian"],"tags":{"leisure":"nature_reserve","operator:wikidata":"Q1085274"},"addTags":{"leisure":"nature_reserve","operator":"City of Meridian","operator:type":"public","operator:wikidata":"Q1085274"}},"leisure/nature_reserve/cityofnampa-53eecf":{"name":"City of Nampa","locationSet":{"include":["us-id"]},"geometry":["area","point"],"matchScore":2,"terms":["city of nampa"],"tags":{"leisure":"nature_reserve","operator:wikidata":"Q622633"},"addTags":{"leisure":"nature_reserve","operator":"City of Nampa","operator:type":"public","operator:wikidata":"Q622633"}},"leisure/nature_reserve/cityofpocatello-53eecf":{"name":"City of Pocatello","locationSet":{"include":["us-id"]},"geometry":["area","point"],"matchScore":2,"terms":["city of pocatello"],"tags":{"leisure":"nature_reserve","operator:wikidata":"Q320729"},"addTags":{"leisure":"nature_reserve","operator":"City of Pocatello","operator:type":"public","operator:wikidata":"Q320729"}},"leisure/nature_reserve/cityoftwinfalls-53eecf":{"name":"City of Twin Falls","locationSet":{"include":["us-id"]},"geometry":["area","point"],"matchScore":2,"terms":["city of twin falls"],"tags":{"leisure":"nature_reserve","operator:wikidata":"Q548384"},"addTags":{"leisure":"nature_reserve","operator":"City of Twin Falls","operator:type":"public","operator:wikidata":"Q548384"}},"leisure/nature_reserve/idahodepartmentofparksandrecreation-53eecf":{"name":"Idaho State Parks & Recreation","locationSet":{"include":["us-id"]},"geometry":["area","point"],"matchScore":2,"terms":["idaho department of parks and recreation","idaho state parks","idpr"],"tags":{"leisure":"nature_reserve","operator:wikidata":"Q30258114"},"addTags":{"leisure":"nature_reserve","operator":"Idaho Department of Parks and Recreation","operator:short":"IDPR","operator:type":"public","operator:wikidata":"Q30258114"}},"leisure/park/cityofboise-e3f3ca":{"name":"City of Boise","locationSet":{"include":["us-id"]},"geometry":["area","point"],"matchScore":2,"terms":["boise parks and recreation","city of boise"],"tags":{"leisure":"park","operator:wikidata":"Q35775"},"addTags":{"leisure":"park","operator":"City of Boise","operator:type":"public","operator:wikidata":"Q35775"}},"leisure/park/cityofcaldwell-e3f3ca":{"name":"City of Caldwell (Idaho)","locationSet":{"include":["us-id"]},"geometry":["area","point"],"matchScore":2,"terms":["city of caldwell"],"tags":{"leisure":"park","operator:wikidata":"Q849592"},"addTags":{"leisure":"park","operator":"City of Caldwell","operator:type":"public","operator:wikidata":"Q849592"}},"leisure/park/cityofcoeurdalene-e3f3ca":{"name":"City of Coeur d'Alene","locationSet":{"include":["us-id"]},"geometry":["area","point"],"matchScore":2,"terms":["city of coeur d'alene"],"tags":{"leisure":"park","operator:wikidata":"Q499681"},"addTags":{"leisure":"park","operator":"City of Coeur d'Alene","operator:type":"public","operator:wikidata":"Q499681"}},"leisure/park/cityofidahofalls-e3f3ca":{"name":"City of Idaho Falls","locationSet":{"include":["us-id"]},"geometry":["area","point"],"matchScore":2,"terms":["city of idaho falls"],"tags":{"leisure":"park","operator:wikidata":"Q496360"},"addTags":{"leisure":"park","operator":"City of Idaho Falls","operator:type":"public","operator:wikidata":"Q496360"}},"leisure/park/cityoflewiston-e3f3ca":{"name":"City of Lewiston","locationSet":{"include":["us-id"]},"geometry":["area","point"],"matchScore":2,"terms":["city of lewiston"],"tags":{"leisure":"park","operator:wikidata":"Q505539"},"addTags":{"leisure":"park","operator":"City of Lewiston","operator:type":"public","operator:wikidata":"Q505539"}},"leisure/park/cityofmeridian-e3f3ca":{"name":"City of Meridian","locationSet":{"include":["us-id"]},"geometry":["area","point"],"matchScore":2,"terms":["city of meridian"],"tags":{"leisure":"park","operator:wikidata":"Q1085274"},"addTags":{"leisure":"park","operator":"City of Meridian","operator:type":"public","operator:wikidata":"Q1085274"}},"leisure/park/cityofnampa-e3f3ca":{"name":"City of Nampa","locationSet":{"include":["us-id"]},"geometry":["area","point"],"matchScore":2,"terms":["city of nampa"],"tags":{"leisure":"park","operator:wikidata":"Q622633"},"addTags":{"leisure":"park","operator":"City of Nampa","operator:type":"public","operator:wikidata":"Q622633"}},"leisure/park/cityofpocatello-e3f3ca":{"name":"City of Pocatello","locationSet":{"include":["us-id"]},"geometry":["area","point"],"matchScore":2,"terms":["city of pocatello"],"tags":{"leisure":"park","operator:wikidata":"Q320729"},"addTags":{"leisure":"park","operator":"City of Pocatello","operator:type":"public","operator:wikidata":"Q320729"}},"leisure/park/cityoftwinfalls-e3f3ca":{"name":"City of Twin Falls","locationSet":{"include":["us-id"]},"geometry":["area","point"],"matchScore":2,"terms":["city of twin falls"],"tags":{"leisure":"park","operator:wikidata":"Q548384"},"addTags":{"leisure":"park","operator":"City of Twin Falls","operator:type":"public","operator:wikidata":"Q548384"}},"leisure/park/idahodepartmentofparksandrecreation-e3f3ca":{"name":"Idaho State Parks & Recreation","locationSet":{"include":["us-id"]},"geometry":["area","point"],"matchScore":2,"terms":["idaho department of parks and recreation","idaho state parks","idpr"],"tags":{"leisure":"park","operator:wikidata":"Q30258114"},"addTags":{"leisure":"park","operator":"Idaho Department of Parks and Recreation","operator:short":"IDPR","operator:type":"public","operator:wikidata":"Q30258114"}},"power/substation/idahopower-b8015b":{"name":"Idaho Power","locationSet":{"include":["us-id"]},"geometry":["area","point"],"matchScore":2,"terms":["idaho power"],"tags":{"operator:wikidata":"Q3147780","power":"substation"},"addTags":{"operator":"Idaho Power","operator:wikidata":"Q3147780","power":"substation"}},"power/transformer/idahopower-9f7ba3":{"name":"Idaho Power","locationSet":{"include":["us-id"]},"geometry":["point","vertex"],"matchScore":2,"terms":["idaho power"],"tags":{"operator:wikidata":"Q3147780","power":"transformer"},"addTags":{"operator":"Idaho Power","operator:wikidata":"Q3147780","power":"transformer"}},"telecom/exchange/ziplyfiber-a4e28f":{"name":"Ziply Fiber","locationSet":{"include":["us-id","us-mt","us-or","us-wa"]},"geometry":["point","area"],"matchScore":2,"terms":["frontier","ziply fiber"],"fields":["name","operator","{telecom/exchange}"],"tags":{"operator:wikidata":"Q5505968","telecom":"exchange"},"addTags":{"name":"Ziply Fiber","operator":"Ziply Fiber","operator:wikidata":"Q5505968","telecom":"exchange"}},"public_transport/platform/bus_point/citylink-2e819e":{"name":"Citylink (Idaho)","locationSet":{"include":["us-id"]},"geometry":["point","vertex"],"matchScore":2,"terms":["citylink"],"reference":{"key":"public_transport","value":"platform"},"tags":{"bus":"yes","network:wikidata":"Q22058969","public_transport":"platform"},"addTags":{"bus":"yes","highway":"bus_stop","network":"Citylink","network:wikidata":"Q22058969","public_transport":"platform"}},"type/route/bus/citylink-26f57c":{"name":"Citylink (Idaho)","locationSet":{"include":["us-id"]},"geometry":["relation"],"matchScore":2,"terms":["citylink"],"reference":{"key":"route","value":"bus"},"tags":{"network:wikidata":"Q22058969","route":"bus","type":"route"},"addTags":{"network":"Citylink","network:wikidata":"Q22058969","route":"bus","type":"route"}}}