{"amenity/atm/bankofchina-a6c792":{"name":"中國銀行","locationSet":{"include":["mo"]},"geometry":["point","vertex"],"matchScore":2,"terms":["banco da china","bank of china","中國銀行","中行","中銀","中銀澳門"],"tags":{"amenity":"atm","brand:wikidata":"Q790068"},"addTags":{"amenity":"atm","brand":"中國銀行","brand:en":"Bank of China","brand:pt":"Banco da China","brand:wikidata":"Q790068","brand:wikipedia":"en:Bank of China","brand:zh":"中國銀行","brand:zh-Hans":"中国银行","brand:zh-Hant":"中國銀行","name":"中國銀行 Banco da China","name:en":"Bank of China","name:pt":"Banco da China","name:zh":"中國銀行","name:zh-Hans":"中国银行","name:zh-Hant":"中國銀行","operator":"中國銀行","operator:wikidata":"Q790068","operator:wikipedia":"en:Bank of China"}},"amenity/atm/chonghingbank-aa3d3d":{"name":"創興銀行","locationSet":{"include":["hk","mo"]},"geometry":["point","vertex"],"matchScore":2,"terms":["chong hing bank","創興","創興銀行"],"tags":{"amenity":"atm","brand:wikidata":"Q5104600"},"addTags":{"amenity":"atm","brand":"創興銀行","brand:en":"Chong Hing Bank","brand:wikidata":"Q5104600","brand:wikipedia":"en:Chong Hing Bank","brand:zh":"創興銀行","brand:zh-Hans":"创兴银行","brand:zh-Hant":"創興銀行","name":"創興銀行 Chong Hing Bank","name:en":"Chong Hing Bank","name:zh":"創興銀行","name:zh-Hans":"创兴银行","name:zh-Hant":"創興銀行","operator":"創興銀行","operator:wikidata":"Q5104600","operator:wikipedia":"en:Chong Hing Bank"}},"amenity/atm/hangsengbank-aa3d3d":{"name":"恒生銀行","locationSet":{"include":["hk","mo"]},"geometry":["point","vertex"],"matchScore":2,"terms":["hang seng bank","恒生","恒生銀行"],"tags":{"amenity":"atm","brand:wikidata":"Q1575470"},"addTags":{"amenity":"atm","brand":"恒生銀行","brand:en":"Hang Seng Bank","brand:wikidata":"Q1575470","brand:wikipedia":"en:Hang Seng Bank","brand:zh":"恒生銀行","brand:zh-Hans":"恒生银行","brand:zh-Hant":"恒生銀行","name":"恒生銀行 Hang Seng Bank","name:en":"Hang Seng Bank","name:zh":"恒生銀行","name:zh-Hans":"恒生银行","name:zh-Hant":"恒生銀行","operator":"恒生銀行","operator:wikidata":"Q1575470","operator:wikipedia":"en:Hang Seng Bank"}},"amenity/atm/hsbc-aa3d3d":{"name":"香港上海滙豐銀行 HSBC","locationSet":{"include":["hk","mo"]},"geometry":["point","vertex"],"matchScore":2,"terms":["hsbc","滙豐","滙豐銀行","香港上海滙豐銀行","香港上海滙豐銀行 hsbc"],"tags":{"amenity":"atm","brand:wikidata":"Q190464"},"addTags":{"amenity":"atm","brand":"香港上海滙豐銀行 HSBC","brand:en":"HSBC","brand:wikidata":"Q190464","brand:wikipedia":"en:HSBC","brand:zh":"香港上海滙豐銀行","brand:zh-Hans":"香港上海汇丰银行","brand:zh-Hant":"香港上海滙豐銀行","name":"滙豐銀行 HSBC","name:en":"HSBC","name:zh":"滙豐銀行","name:zh-Hans":"汇丰银行","name:zh-Hant":"滙豐銀行","operator":"香港上海滙豐銀行 HSBC","operator:wikidata":"Q190464","operator:wikipedia":"en:HSBC"}},"amenity/bank/bankofchina-fa24a7":{"name":"中國銀行","locationSet":{"include":["mo"]},"geometry":["point","area"],"matchScore":2,"terms":["banco da china","bank of china","中國銀行","中行","中銀","中銀澳門"],"tags":{"amenity":"bank","brand:wikidata":"Q790068"},"addTags":{"amenity":"bank","brand":"中國銀行","brand:en":"Bank of China","brand:pt":"Banco da China","brand:wikidata":"Q790068","brand:wikipedia":"en:Bank of China","brand:zh":"中國銀行","brand:zh-Hans":"中国银行","brand:zh-Hant":"中國銀行","name":"中國銀行 Banco da China","name:en":"Bank of China","name:pt":"Banco da China","name:zh":"中國銀行","name:zh-Hans":"中国银行","name:zh-Hant":"中國銀行"}},"amenity/bank/chonghingbank-075cf6":{"name":"創興銀行","locationSet":{"include":["hk","mo"]},"geometry":["point","area"],"matchScore":2,"terms":["chong hing bank","創興","創興銀行"],"tags":{"amenity":"bank","brand:wikidata":"Q5104600"},"addTags":{"amenity":"bank","brand":"創興銀行","brand:en":"Chong Hing Bank","brand:wikidata":"Q5104600","brand:wikipedia":"en:Chong Hing Bank","brand:zh":"創興銀行","brand:zh-Hans":"创兴银行","brand:zh-Hant":"創興銀行","name":"創興銀行 Chong Hing Bank","name:en":"Chong Hing Bank","name:zh":"創興銀行","name:zh-Hans":"创兴银行","name:zh-Hant":"創興銀行"}},"amenity/bank/hangsengbank-075cf6":{"name":"恒生銀行","locationSet":{"include":["hk","mo"]},"geometry":["point","area"],"matchScore":2,"terms":["hang seng bank","恒生","恒生銀行"],"tags":{"amenity":"bank","brand:wikidata":"Q1575470"},"addTags":{"amenity":"bank","brand":"恒生銀行","brand:en":"Hang Seng Bank","brand:wikidata":"Q1575470","brand:wikipedia":"en:Hang Seng Bank","brand:zh":"恒生銀行","brand:zh-Hans":"恒生银行","brand:zh-Hant":"恒生銀行","name":"恒生銀行 Hang Seng Bank","name:en":"Hang Seng Bank","name:zh":"恒生銀行","name:zh-Hans":"恒生银行","name:zh-Hant":"恒生銀行"}},"amenity/bank/hsbc-075cf6":{"name":"香港上海滙豐銀行 HSBC","locationSet":{"include":["hk","mo"]},"geometry":["point","area"],"matchScore":2,"terms":["hsbc","滙豐","滙豐銀行","香港上海滙豐銀行","香港上海滙豐銀行 hsbc"],"tags":{"amenity":"bank","brand:wikidata":"Q190464"},"addTags":{"amenity":"bank","brand":"香港上海滙豐銀行 HSBC","brand:en":"HSBC","brand:wikidata":"Q190464","brand:wikipedia":"en:HSBC","brand:zh":"香港上海滙豐銀行","brand:zh-Hans":"香港上海汇丰银行","brand:zh-Hant":"香港上海滙豐銀行","name":"滙豐銀行 HSBC","name:en":"HSBC","name:zh":"滙豐銀行","name:zh-Hans":"汇丰银行","name:zh-Hant":"滙豐銀行"}},"amenity/cafe/bubble_tea/gongcha-f9f9cb":{"name":"Gong Cha (worldwide)","locationSet":{"include":["au","bn","ca","mm","mo","my","nz","ph","sg","us"]},"geometry":["point","area"],"matchScore":2,"terms":["gong cha","貢茶"],"reference":{"key":"cuisine","value":"bubble_tea"},"tags":{"amenity":"cafe","brand:wikidata":"Q5581670","cuisine":"bubble_tea"},"addTags":{"amenity":"cafe","brand":"Gong Cha","brand:wikidata":"Q5581670","brand:wikipedia":"en:Gong Cha","brand:zh":"貢茶","cuisine":"bubble_tea","int_name":"Gong Cha","name":"Gong Cha","name:zh":"貢茶","takeaway":"yes"}},"amenity/cafe/coffee_shop/tomntoms-16c022":{"name":"Tom N Toms","locationSet":{"include":["au","ch","hk","kr","mn","mo","my","ph","sg","th","us"]},"geometry":["point","area"],"matchScore":2,"terms":["tom n toms","탐앤탐스"],"reference":{"key":"cuisine","value":"coffee_shop"},"tags":{"amenity":"cafe","brand:wikidata":"Q18142418","cuisine":"coffee_shop;pretzel;smoothie;tea;bread"},"addTags":{"amenity":"cafe","brand":"Tom N Toms","brand:en":"Tom N Toms","brand:ko":"탐앤탐스","brand:wikidata":"Q18142418","brand:wikipedia":"en:Tom N Toms","cuisine":"coffee_shop;pretzel;smoothie;tea;bread","name":"Tom N Toms","takeaway":"yes"}},"amenity/fast_food/burger/mosburger-17dd9a":{"name":"摩斯漢堡 MOS Burger","locationSet":{"include":["hk","mo"]},"geometry":["point","area"],"matchScore":2,"terms":["mos burger","摩斯漢堡","摩斯漢堡 mos burger"],"reference":{"key":"cuisine","value":"burger"},"tags":{"amenity":"fast_food","brand:wikidata":"Q1204169","cuisine":"burger"},"addTags":{"amenity":"fast_food","brand":"摩斯漢堡 MOS Burger","brand:en":"MOS Burger","brand:wikidata":"Q1204169","brand:wikipedia":"zh:摩斯漢堡","brand:zh":"摩斯漢堡","brand:zh-Hans":"摩斯汉堡","brand:zh-Hant":"摩斯漢堡","cuisine":"burger","name":"MOS Burger","name:en":"MOS Burger","takeaway":"yes"}},"amenity/fast_food/matsuya-2e6562":{"name":"松屋","locationSet":{"include":["cn","hk","jp","mo","sg","tw"]},"geometry":["point","area"],"matchScore":2,"terms":["matsuya","matsuya foods","松屋","松屋フーズ"],"tags":{"amenity":"fast_food","brand:wikidata":"Q848773"},"addTags":{"amenity":"fast_food","brand":"松屋","brand:en":"Matsuya","brand:ja":"松屋","brand:wikidata":"Q848773","brand:wikipedia":"ja:松屋フーズ","cuisine":"japanese","name":"松屋","name:en":"Matsuya","name:ja":"松屋","name:zh":"松屋","official_name":"松屋フーズ","official_name:en":"Matsuya Foods","official_name:ja":"松屋フーズ","takeaway":"yes"}},"amenity/fast_food/chicken/kfc-17dd9a":{"name":"肯德基 KFC","locationSet":{"include":["hk","mo"]},"geometry":["point","area"],"matchScore":2,"terms":["kfc","肯德基","肯德基 kfc"],"reference":{"key":"cuisine","value":"chicken"},"tags":{"amenity":"fast_food","brand:wikidata":"Q524757","cuisine":"chicken"},"addTags":{"amenity":"fast_food","brand":"肯德基 KFC","brand:en":"KFC","brand:wikidata":"Q524757","brand:wikipedia":"zh:肯德基","brand:zh":"肯德基","brand:zh-Hans":"肯德基","brand:zh-Hant":"肯德基","cuisine":"chicken","name":"肯德基","name:en":"KFC","name:zh":"肯德基","name:zh-Hans":"肯德基","name:zh-Hant":"肯德基","takeaway":"yes"}},"amenity/fast_food/burger/mcdonalds-17dd9a":{"name":"麥當勞 McDonald's","locationSet":{"include":["hk","mo"]},"geometry":["point","area"],"matchScore":2,"terms":["mcdonald's","m記","麥當勞","麥當勞 mcdonald's","麥記"],"reference":{"key":"cuisine","value":"burger"},"tags":{"amenity":"fast_food","brand:wikidata":"Q38076","cuisine":"burger"},"addTags":{"amenity":"fast_food","brand":"麥當勞 McDonald's","brand:en":"McDonald's","brand:wikidata":"Q38076","brand:wikipedia":"zh:麦当劳","brand:zh":"麥當勞","brand:zh-Hans":"麦当劳","brand:zh-Hant":"麥當勞","cuisine":"burger","name":"麥當勞","name:en":"McDonald's","name:zh":"麥當勞","name:zh-Hans":"麦当劳","name:zh-Hant":"麥當勞","takeaway":"yes"}},"amenity/pharmacy/mannings-fbd6d0":{"name":"Mannings","locationSet":{"include":["cn","hk","mo"]},"geometry":["point","area"],"matchScore":2,"terms":["mannings"],"reference":{"key":"amenity","value":"pharmacy"},"tags":{"amenity":"pharmacy","brand:wikidata":"Q13646560"},"addTags":{"amenity":"pharmacy","brand":"Mannings","brand:wikidata":"Q13646560","brand:wikipedia":"en:Mannings","healthcare":"pharmacy","name":"Mannings"}},"amenity/restaurant/dintaifung-4a64f1":{"name":"Din Tai Fung","locationSet":{"include":["ae","au","gb","id","jp","kr","mo","my","ph","sg","th","us"]},"geometry":["point","area"],"matchScore":2,"terms":["din tai fung","鼎泰豐"],"tags":{"amenity":"restaurant","brand:wikidata":"Q699142"},"addTags":{"amenity":"restaurant","brand":"Din Tai Fung","brand:en":"Din Tai Fung","brand:wikidata":"Q699142","brand:wikipedia":"en:Din Tai Fung","brand:zh":"鼎泰豐","cuisine":"taiwanese","name":"Din Tai Fung","name:en":"Din Tai Fung","name:zh":"鼎泰豐"}},"amenity/restaurant/pizza/pizzahut-edf541":{"name":"必勝客 Pizza Hut","locationSet":{"include":["hk","mo"]},"geometry":["point","area"],"matchScore":2,"terms":["pizza hut","必勝客","必勝客 pizza hut"],"reference":{"key":"cuisine","value":"pizza"},"tags":{"amenity":"restaurant","brand:wikidata":"Q191615","cuisine":"pizza"},"addTags":{"amenity":"restaurant","brand":"必勝客 Pizza Hut","brand:en":"Pizza Hut","brand:wikidata":"Q191615","brand:wikipedia":"zh:必胜客","brand:zh":"必勝客","brand:zh-Hans":"必胜客","brand:zh-Hant":"必勝客","cuisine":"pizza","name":"必勝客","name:en":"Pizza Hut","name:zh":"必勝客","name:zh-Hans":"必胜客","name:zh-Hant":"必勝客"}},"office/telecommunication/three-ad533f":{"name":"3","locationSet":{"include":["hk","mo"]},"geometry":["point","area"],"matchScore":2,"terms":["3","three."],"tags":{"brand:wikidata":"Q407009","office":"telecommunication"},"addTags":{"brand":"3","brand:en":"3","brand:wikidata":"Q407009","brand:wikipedia":"en:3 (company)","name":"Three.","name:en":"Three.","office":"telecommunication"}},"office/telecommunication/chinatelecom-186ba5":{"name":"中國電信 China Telecom","locationSet":{"include":["mo"]},"geometry":["point","area"],"matchScore":2,"terms":["china telecom","中國電信","中國電信 china telecom"],"tags":{"brand:wikidata":"Q1073540","office":"telecommunication"},"addTags":{"brand":"中國電信 China Telecom","brand:en":"China Telecom","brand:wikidata":"Q1073540","brand:wikipedia":"zh:中国电信","brand:zh":"中國電信","brand:zh-Hans":"中国电信","brand:zh-Hant":"中國電信","name":"中國電信 China Telecom","name:en":"China Telecom","name:zh":"中國電信","name:zh-Hans":"中国电信","name:zh-Hant":"中國電信","office":"telecommunication"}},"office/telecommunication/smartone-ad533f":{"name":"數碼通 SmarTone","locationSet":{"include":["hk","mo"]},"geometry":["point","area"],"matchScore":2,"terms":["smartone","數碼通","數碼通 smartone"],"tags":{"brand:wikidata":"Q11079498","office":"telecommunication"},"addTags":{"brand":"數碼通 SmarTone","brand:en":"SmarTone","brand:wikidata":"Q11079498","brand:wikipedia":"zh:數碼通","brand:zh":"數碼通","brand:zh-Hans":"数码通","brand:zh-Hant":"數碼通","name":"數碼通 SmarTone","name:en":"SmarTone","name:zh":"數碼通","name:zh-Hans":"数码通","name:zh-Hant":"數碼通","office":"telecommunication"}},"office/telecommunication/ctm-186ba5":{"name":"澳門電訊 CTM","locationSet":{"include":["mo"]},"geometry":["point","area"],"matchScore":2,"terms":["ctm","澳門電訊","澳門電訊 ctm"],"tags":{"brand:wikidata":"Q2990317","office":"telecommunication"},"addTags":{"brand":"澳門電訊 CTM","brand:en":"CTM","brand:pt":"CTM","brand:wikidata":"Q2990317","brand:wikipedia":"zh:澳門電訊","brand:zh":"澳門電訊","brand:zh-Hans":"澳门电讯","brand:zh-Hant":"澳門電訊","name":"澳門電訊 CTM","name:en":"CTM","name:pt":"CTM","name:zh":"澳門電訊","name:zh-Hans":"澳门电讯","name:zh-Hant":"澳門電訊","office":"telecommunication"}},"shop/clothes/jackwills-75e7ba":{"name":"Jack Wills","locationSet":{"include":["ae","gb","hk","ie","kw","lb","mo","sg","us"]},"geometry":["point","area"],"matchScore":2,"terms":["jack wills"],"tags":{"brand:wikidata":"Q6115814","shop":"clothes"},"addTags":{"brand":"Jack Wills","brand:wikidata":"Q6115814","brand:wikipedia":"en:Jack Wills","name":"Jack Wills","shop":"clothes"}},"shop/convenience/circlek-132595":{"name":"OK便利店 Circle K","locationSet":{"include":["hk","mo"]},"geometry":["point","area"],"matchScore":2,"terms":["circle k","ok便利商店","ok便利店","ok便利店 circle k"],"tags":{"brand:wikidata":"Q3268010","shop":"convenience"},"addTags":{"brand":"OK便利店 Circle K","brand:en":"Circle K","brand:wikidata":"Q3268010","brand:wikipedia":"zh:OK便利店","brand:zh":"OK便利店","brand:zh-Hans":"OK便利店","brand:zh-Hant":"OK便利店","name":"OK便利店 Circle K","name:en":"Circle K","name:zh":"OK便利店","name:zh-Hans":"OK便利店","name:zh-Hant":"OK便利店","shop":"convenience"}},"shop/jewelry/lukfookjewellery-2f2ea0":{"name":"六福珠寶 LukFook Jewellery","locationSet":{"include":["hk","mo"]},"geometry":["point","area"],"matchScore":2,"terms":["lukfook jewellery","六福","六福珠寶","六福珠寶 lukfook jewellery"],"tags":{"brand:wikidata":"Q10893397","shop":"jewelry"},"addTags":{"brand":"六福珠寶 LukFook Jewellery","brand:en":"LukFook Jewellery","brand:wikidata":"Q10893397","brand:wikipedia":"en:Lukfook","brand:zh":"六福珠寶","brand:zh-Hans":"六福珠宝","brand:zh-Hant":"六福珠寶","name":"六福珠寶 LukFook Jewellery","name:en":"LukFook Jewellery","name:zh":"六福珠寶","name:zh-Hans":"六福珠宝","name:zh-Hant":"六福珠寶","shop":"jewelry"}},"shop/jewelry/chowtaifook-2f2ea0":{"name":"周大福 Chow Tai Fook","locationSet":{"include":["hk","mo"]},"geometry":["point","area"],"matchScore":2,"terms":["chow tai fook","周大福","周大福 chow tai fook"],"tags":{"brand:wikidata":"Q48880993","shop":"jewelry"},"addTags":{"brand":"周大福 Chow Tai Fook","brand:en":"Chow Tai Fook","brand:wikidata":"Q48880993","brand:wikipedia":"en:Chow Tai Fook Jewellery Group","brand:zh":"周大福","brand:zh-Hans":"周大福","brand:zh-Hant":"周大福","name":"周大福 Chow Tai Fook","name:en":"Chow Tai Fook","name:zh":"周大福","name:zh-Hans":"周大福","name:zh-Hant":"周大福","shop":"jewelry"}},"shop/jewelry/chowsangsang-2f2ea0":{"name":"周生生 Chow Sang Sang","locationSet":{"include":["hk","mo"]},"geometry":["point","area"],"matchScore":2,"terms":["chow sang sang","周生生","周生生 chow sang sang"],"tags":{"brand:wikidata":"Q10920877","shop":"jewelry"},"addTags":{"brand":"周生生 Chow Sang Sang","brand:en":"Chow Sang Sang","brand:wikidata":"Q10920877","brand:wikipedia":"en:Chow Sang Sang","brand:zh":"周生生","brand:zh-Hans":"周生生","brand:zh-Hant":"周生生","name":"周生生 Chow Sang Sang","name:en":"Chow Sang Sang","name:zh":"周生生","name:zh-Hans":"周生生","name:zh-Hant":"周生生","shop":"jewelry"}},"shop/jewelry/laofengxiang-2f2ea0":{"name":"老鳳祥銀樓 Lao Feng Xiang Jewellery","locationSet":{"include":["hk","mo"]},"geometry":["point","area"],"matchScore":2,"terms":["lao feng xiang","lao feng xiang jewellery","老鳳祥","老鳳祥銀樓","老鳳祥銀樓 lao feng xiang jewellery"],"tags":{"brand:wikidata":"Q15910313","shop":"jewelry"},"addTags":{"brand":"老鳳祥銀樓 Lao Feng Xiang Jewellery","brand:en":"Lao Feng Xiang Jewellery","brand:wikidata":"Q15910313","brand:wikipedia":"en:Lao Feng Xiang","brand:zh":"老鳳祥銀樓","brand:zh-Hans":"老凤祥银楼","brand:zh-Hant":"老鳳祥銀樓","name":"老鳳祥銀樓 Lao Feng Xiang Jewellery","name:en":"Lao Feng Xiang","name:zh":"老鳳祥銀樓","name:zh-Hans":"老凤祥银楼","name:zh-Hant":"老鳳祥銀樓","shop":"jewelry"}},"shop/jewelry/tsl-2f2ea0":{"name":"謝瑞麟珠寶 TSL Jewellery","locationSet":{"include":["hk","mo"]},"geometry":["point","area"],"matchScore":2,"terms":["tsl","謝瑞麟","謝瑞麟珠寶","謝瑞麟珠寶 tsl jewellery"],"tags":{"brand:wikidata":"Q13164530","shop":"jewelry"},"addTags":{"brand":"謝瑞麟珠寶 TSL Jewellery","brand:en":"TSL","brand:wikidata":"Q13164530","brand:wikipedia":"zh:謝瑞麟珠寶","brand:zh":"謝瑞麟珠寶","brand:zh-Hans":"谢瑞麟珠宝","brand:zh-Hant":"謝瑞麟珠寶","name":"謝瑞麟 TSL","name:en":"TSL","name:zh-Hans":"谢瑞麟","name:zh-Hant":"謝瑞麟","shop":"jewelry"}},"shop/supermarket/parknshop-3601ab":{"name":"百佳超級市場 PARKnSHOP","locationSet":{"include":["hk","mo"]},"geometry":["point","area"],"matchScore":2,"terms":["parknshop","百佳","百佳超級市場 parknshop"],"tags":{"brand:wikidata":"Q7138619","shop":"supermarket"},"addTags":{"brand":"百佳超級市場 PARKnSHOP","brand-zh":"百佳超級市場","brand-zh-Hans":"百佳超級市場","brand-zh-Hant":"百佳超级市场","brand:en":"PARKnSHOP","brand:wikidata":"Q7138619","brand:wikipedia":"zh:百佳超級市場","name":"百佳 PARKnSHOP","name:en":"PARKnSHOP","name:zh":"百佳","name:zh-Hans":"百佳","name:zh-Hant":"百佳","shop":"supermarket"}},"tourism/hotel/mandarinorientalhotel-e68345":{"name":"文華東方酒店集團","locationSet":{"include":["hk","mo","tw"]},"geometry":["point","area"],"matchScore":2,"terms":["mandarin oriental hotel","文華東方酒店集團"],"fields":["name","brand","{tourism/hotel}"],"tags":{"brand:wikidata":"Q1236521","tourism":"hotel"},"addTags":{"brand":"文華東方酒店集團","brand:en":"Mandarin Oriental Hotel","brand:wikidata":"Q1236521","brand:wikipedia":"zh:文華東方酒店集團","brand:zh":"文華東方酒店集團","tourism":"hotel"}},"amenity/police/publicsecuritypoliceforce-ff7137":{"name":"治安警察局 Polícia de Segurança Pública","locationSet":{"include":["mo"]},"geometry":["point","area"],"matchScore":2,"terms":["cpsp","polícia de segurança pública","public security police force","治安警察局"],"tags":{"amenity":"police","operator:wikidata":"Q16926796"},"addTags":{"amenity":"police","operator":"治安警察局","operator:en":"Public Security Police Force","operator:pt":"Polícia de Segurança Pública","operator:short":"CPSP","operator:wikidata":"Q16926796","operator:wikipedia":"zh:澳門特別行政區政府治安警察局","operator:zh":"治安警察局"}},"amenity/post_box/ctt-e54f67":{"name":"CTT (Macau)","locationSet":{"include":["mo"]},"geometry":["point","vertex"],"matchScore":2,"terms":["ctt"],"tags":{"amenity":"post_box","operator:wikidata":"Q909429"},"addTags":{"amenity":"post_box","operator":"CTT","operator:wikidata":"Q909429","operator:wikipedia":"en:CTT (Macau)"}},"amenity/post_office/ctt-13f722":{"name":"CTT (Macau)","locationSet":{"include":["mo"]},"geometry":["point","area"],"matchScore":2,"terms":["ctt"],"fields":["name","operator","{amenity/post_office}"],"tags":{"amenity":"post_office","operator:wikidata":"Q909429"},"addTags":{"amenity":"post_office","operator":"CTT","operator:wikidata":"Q909429","operator:wikipedia":"en:CTT (Macau)"}},"type/route/subway/macaulightrailtransit-c1c777":{"name":"澳門輕軌","locationSet":{"include":["mo"]},"geometry":["relation"],"matchScore":2,"terms":["macau light rail transit","metro ligeiro de macau","mtr corporation","澳門輕軌","澳門輕軌 metro ligeiro de macau","香港鐵路有限公司","香港鐵路有限公司 mtr corporation"],"reference":{"key":"route","value":"subway"},"tags":{"network:wikidata":"Q866024","route":"subway","type":"route"},"addTags":{"network":"澳門輕軌 Metro Ligeiro de Macau","network:en":"Macau Light Rail Transit","network:pt":"Metro Ligeiro de Macau","network:wikidata":"Q866024","network:wikipedia":"en:Macau Light Rapid Transit","network:zh":"澳門輕軌","network:zh-Hans":"澳门轻轨","network:zh-Hant":"澳門輕軌","operator":"香港鐵路有限公司 MTR Corporation","operator:en":"MTR Corporation","operator:wikidata":"Q1479375","operator:wikipedia":"zh:港鐵公司","operator:zh":"香港鐵路有限公司","operator:zh-Hans":"香港铁路有限公司","operator:zh-Hant":"香港鐵路有限公司","route":"subway","type":"route"}}}