{"amenity/atm/baccredomatic-9c7dd6":{"name":"BAC Credomatic","locationSet":{"include":["cr","gt","hn","ni","pa","sv"]},"geometry":["point","vertex"],"matchScore":2,"terms":["bac","bac credomatic"],"fields":["name","brand","{amenity/atm}"],"tags":{"amenity":"atm","brand:wikidata":"Q5715556"},"addTags":{"amenity":"atm","brand":"BAC Credomatic","brand:wikidata":"Q5715556","operator":"BAC Credomatic","operator:wikidata":"Q5715556"}},"amenity/atm/ficohsa-3c5276":{"name":"Ficohsa","locationSet":{"include":["es","gt","hn","ni","pa","us"]},"geometry":["point","vertex"],"matchScore":2,"terms":["banco ficohsa","ficohsa"],"fields":["name","brand","{amenity/atm}"],"tags":{"amenity":"atm","brand:wikidata":"Q5886178"},"addTags":{"amenity":"atm","brand":"Ficohsa","brand:wikidata":"Q5886178","operator":"Ficohsa","operator:wikidata":"Q5886178"}},"amenity/bank/baccredomatic-a7c666":{"name":"BAC Credomatic","locationSet":{"include":["cr","gt","hn","ni","pa","sv"]},"geometry":["point","area"],"matchScore":2,"terms":["bac","bac credomatic"],"tags":{"amenity":"bank","brand:wikidata":"Q5715556"},"addTags":{"amenity":"bank","brand":"BAC Credomatic","brand:wikidata":"Q5715556","name":"BAC Credomatic"}},"amenity/bank/ficohsa-47ab19":{"name":"Ficohsa","locationSet":{"include":["es","gt","hn","ni","pa","us"]},"geometry":["point","area"],"matchScore":2,"terms":["banco ficohsa","ficohsa"],"tags":{"amenity":"bank","brand:wikidata":"Q5886178"},"addTags":{"amenity":"bank","brand":"Ficohsa","brand:wikidata":"Q5886178","name":"Ficohsa"}},"amenity/fuel/uno-24faf9":{"name":"Uno","locationSet":{"include":["bz","cr","gt","hn","ni","sv"]},"geometry":["point","area"],"matchScore":2,"terms":["uno"],"fields":["name","brand","{amenity/fuel}"],"tags":{"amenity":"fuel","brand:wikidata":"Q62535574"},"addTags":{"amenity":"fuel","brand":"Uno","brand:wikidata":"Q62535574","name":"Uno"}},"emergency/ambulance_station/cruzrojanicaraguense-8c4110":{"name":"Cruz Roja Nicaragüense","locationSet":{"include":["ni"]},"geometry":["point","area"],"matchScore":2,"terms":["crn","cruz roja","cruz roja nicaragüense"],"fields":["name","brand","{emergency/ambulance_station}"],"tags":{"brand:wikidata":"Q7024453","emergency":"ambulance_station"},"addTags":{"brand":"Cruz Roja Nicaragüense","brand:wikidata":"Q7024453","emergency":"ambulance_station","name":"Cruz Roja Nicaragüense"}},"shop/mobile_phone/claro-1c9651":{"name":"Claro","locationSet":{"include":["ar","br","cl","co","cr","do","ec","gt","hn","ni","pa","pe","pr","py","sv","uy"]},"geometry":["point","area"],"matchScore":2,"terms":["claro"],"tags":{"brand:wikidata":"Q1770208","shop":"mobile_phone"},"addTags":{"brand":"Claro","brand:wikidata":"Q1770208","name":"Claro","shop":"mobile_phone"}},"shop/mobile_phone/movistar-de0f48":{"name":"Movistar","locationSet":{"include":["ar","cl","co","cr","ec","es","gt","mx","ni","pa","pe","sv","uy","ve"]},"geometry":["point","area"],"matchScore":2,"terms":["movistar"],"tags":{"brand:wikidata":"Q967735","shop":"mobile_phone"},"addTags":{"brand":"Movistar","brand:wikidata":"Q967735","name":"Movistar","shop":"mobile_phone"}},"shop/mobile_phone/mtn-fe03c5":{"name":"MTN","locationSet":{"include":["af","bj","bw","cg","ci","cm","gn","gw","ir","lr","ni","rw","sd","ss","sy","ug","ye","za","zm"]},"geometry":["point","area"],"matchScore":2,"terms":["agence mtn","mtn"],"tags":{"brand:wikidata":"Q1813361","shop":"mobile_phone"},"addTags":{"brand":"MTN","brand:wikidata":"Q1813361","name":"MTN","shop":"mobile_phone"}},"shop/paint/comex-d8e74b":{"name":"Comex","locationSet":{"include":["bz","cr","gt","hn","mx","ni","sv"]},"geometry":["point","area"],"matchScore":2,"terms":["comex"],"tags":{"brand:wikidata":"Q5151654","shop":"paint"},"addTags":{"brand":"Comex","brand:wikidata":"Q5151654","name":"Comex","shop":"paint"}},"shop/supermarket/pali-ff0cfa":{"name":"Palí","locationSet":{"include":["cr","ni"]},"geometry":["point","area"],"matchScore":2,"terms":["palí"],"tags":{"brand:wikidata":"Q1064887","shop":"supermarket"},"addTags":{"brand":"Palí","brand:wikidata":"Q1064887","name":"Palí","shop":"supermarket"}},"amenity/hospital/ministeriodesalud-ef9693":{"name":"Ministerio de Salud (Nicaragua)","locationSet":{"include":["ni"]},"geometry":["area","point"],"matchScore":2,"terms":["ministerio de salud","minsa"],"fields":["name","operator","{amenity/hospital}"],"reference":{"key":"amenity","value":"hospital"},"tags":{"amenity":"hospital","operator:wikidata":"Q30282287"},"addTags":{"amenity":"hospital","healthcare":"hospital","operator":"Ministerio de Salud","operator:short":"MINSA","operator:wikidata":"Q30282287"}},"amenity/telephone/claro-6490cd":{"name":"Claro","locationSet":{"include":["ai","ag","aw","bs","bb","bq","vg","ky","cu","cw","dm","do","gd","gp","ht","jm","mq","ms","pr","bl","kn","lc","mf","vc","sx","tt","tc","vi","bz","cr","sv","gt","hn","mx","ni","pa","ar","bo","bv","br","cl","co","ec","fk","gf","gy","py","pe","gs","sr","uy","ve"]},"geometry":["point","vertex"],"matchScore":2,"terms":["claro"],"fields":["name","operator","{amenity/telephone}"],"tags":{"amenity":"telephone","operator:wikidata":"Q1770208"},"addTags":{"amenity":"telephone","operator":"Claro","operator:wikidata":"Q1770208"}}}