{"amenity/atm/aliorbank-53bcca":{"name":"Alior Bank","locationSet":{"include":["pl"]},"geometry":["point","vertex"],"matchScore":2,"terms":["alior bank"],"tags":{"amenity":"atm","brand:wikidata":"Q9148395"},"addTags":{"amenity":"atm","brand":"Alior Bank","brand:wikidata":"Q9148395","name":"Alior Bank","operator":"Alior Bank","operator:wikidata":"Q9148395"}},"amenity/atm/bankbps-53bcca":{"name":"Bank BPS","locationSet":{"include":["pl"]},"geometry":["point","vertex"],"matchScore":2,"terms":["bank polskiej spółdzielczości"],"tags":{"amenity":"atm","brand:wikidata":"Q9165001"},"addTags":{"amenity":"atm","brand":"Bank Polskiej Spółdzielczości","brand:wikidata":"Q9165001","name":"Bank BPS","operator":"Bank Polskiej Spółdzielczości","operator:wikidata":"Q9165001"}},"amenity/atm/bankpekao-53bcca":{"name":"Bank Pekao","locationSet":{"include":["pl"]},"geometry":["point","vertex"],"matchScore":2,"terms":["bank pekao","pekao","pekao sa","pko sa","polska kasa opieki"],"tags":{"amenity":"atm","brand:wikidata":"Q806642"},"addTags":{"amenity":"atm","brand":"Bank Pekao","brand:wikidata":"Q806642","name":"Bank Pekao","operator":"Bank Pekao","operator:wikidata":"Q806642"}},"amenity/atm/bnpparibaspolska-53bcca":{"name":"BNP Paribas Bank Polska","locationSet":{"include":["pl"]},"geometry":["point","vertex"],"matchScore":2,"terms":["bgż","bnp paribas bank polska"],"tags":{"amenity":"atm","brand:wikidata":"Q20744004"},"addTags":{"amenity":"atm","brand":"BNP Paribas Bank Polska","brand:wikidata":"Q20744004","name":"BNP Paribas Polska","operator":"BNP Paribas Bank Polska","operator:wikidata":"Q20744004"}},"amenity/atm/getinbank-53bcca":{"name":"Getin Bank","locationSet":{"include":["pl"]},"geometry":["point","vertex"],"matchScore":2,"terms":["getin bank"],"tags":{"amenity":"atm","brand:wikidata":"Q9267646"},"addTags":{"amenity":"atm","brand":"Getin Bank","brand:wikidata":"Q9267646","name":"Getin Bank","operator":"Getin Bank","operator:wikidata":"Q9267646"}},"amenity/atm/ingbankslaski-53bcca":{"name":"ING Bank Śląski","locationSet":{"include":["pl"]},"geometry":["point","vertex"],"matchScore":2,"terms":["ing bank śląski"],"tags":{"amenity":"atm","brand:wikidata":"Q1410383"},"addTags":{"amenity":"atm","brand":"ING Bank Śląski","brand:wikidata":"Q1410383","name":"ING Bank Śląski","operator":"ING Bank Śląski","operator:wikidata":"Q1410383"}},"amenity/atm/kasastefczyka-53bcca":{"name":"Kasa Stefczyka","locationSet":{"include":["pl"]},"geometry":["point","vertex"],"matchScore":2,"terms":["kasa stefczyka"],"tags":{"amenity":"atm","brand:wikidata":"Q57624461"},"addTags":{"amenity":"atm","brand":"Kasa Stefczyka","brand:wikidata":"Q57624461","name":"Kasa Stefczyka","operator":"Kasa Stefczyka","operator:wikidata":"Q57624461"}},"amenity/atm/mbank-ede12f":{"name":"mBank (Europe)","locationSet":{"include":["cz","pl","sk"]},"geometry":["point","vertex"],"matchScore":2,"terms":["mbank"],"tags":{"amenity":"atm","brand:wikidata":"Q1160928"},"addTags":{"amenity":"atm","brand":"mBank","brand:wikidata":"Q1160928","name":"mBank","operator":"mBank","operator:wikidata":"Q1160928"}},"amenity/atm/millenniumbank-53bcca":{"name":"Millennium Bank","locationSet":{"include":["pl"]},"geometry":["point","vertex"],"matchScore":2,"terms":["bank millennium","millennium bank"],"tags":{"amenity":"atm","brand:wikidata":"Q4855947"},"addTags":{"amenity":"atm","brand":"Millennium Bank","brand:wikidata":"Q4855947","name":"Millennium Bank","operator":"Millennium Bank","operator:wikidata":"Q4855947"}},"amenity/atm/nestbank-53bcca":{"name":"Nest Bank","locationSet":{"include":["pl"]},"geometry":["point","vertex"],"matchScore":2,"terms":["nest bank"],"tags":{"amenity":"atm","brand:wikidata":"Q48853121"},"addTags":{"amenity":"atm","brand":"Nest Bank","brand:wikidata":"Q48853121","name":"Nest Bank","operator":"Nest Bank","operator:wikidata":"Q48853121"}},"amenity/atm/pkobp-53bcca":{"name":"PKO BP","locationSet":{"include":["pl"]},"geometry":["point","vertex"],"matchScore":2,"terms":["pko bank polski","pko bp"],"tags":{"amenity":"atm","brand:wikidata":"Q578832"},"addTags":{"amenity":"atm","brand":"PKO BP","brand:wikidata":"Q578832","name":"PKO BP","operator":"PKO BP","operator:wikidata":"Q578832"}},"amenity/atm/raiffeisenbankpolska-53bcca":{"name":"Raiffeisen Bank Polska","locationSet":{"include":["pl"]},"geometry":["point","vertex"],"matchScore":2,"terms":["raiffeisen bank polska","raiffeisen polbank"],"tags":{"amenity":"atm","brand:wikidata":"Q9303218"},"addTags":{"amenity":"atm","brand":"Raiffeisen Bank Polska","brand:wikidata":"Q9303218","name":"Raiffeisen Bank Polska","operator":"Raiffeisen Bank Polska","operator:wikidata":"Q9303218"}},"amenity/bank/aliorbank-68054b":{"name":"Alior Bank","locationSet":{"include":["pl"]},"geometry":["point","area"],"matchScore":2,"terms":["alior bank"],"tags":{"amenity":"bank","brand:wikidata":"Q9148395"},"addTags":{"amenity":"bank","brand":"Alior Bank","brand:wikidata":"Q9148395","name":"Alior Bank"}},"amenity/bank/bankbps-68054b":{"name":"Bank BPS","locationSet":{"include":["pl"]},"geometry":["point","area"],"matchScore":2,"terms":["bank polskiej spółdzielczości"],"tags":{"amenity":"bank","brand:wikidata":"Q9165001"},"addTags":{"amenity":"bank","brand":"Bank Polskiej Spółdzielczości","brand:wikidata":"Q9165001","name":"Bank BPS"}},"amenity/bank/bankpekao-68054b":{"name":"Bank Pekao","locationSet":{"include":["pl"]},"geometry":["point","area"],"matchScore":2,"terms":["bank pekao","pekao","pekao sa","pko sa","polska kasa opieki"],"tags":{"amenity":"bank","brand:wikidata":"Q806642"},"addTags":{"amenity":"bank","brand":"Bank Pekao","brand:wikidata":"Q806642","name":"Bank Pekao"}},"amenity/bank/bnpparibaspolska-68054b":{"name":"BNP Paribas Bank Polska","locationSet":{"include":["pl"]},"geometry":["point","area"],"matchScore":2,"terms":["bgż","bnp paribas bank polska"],"tags":{"amenity":"bank","brand:wikidata":"Q20744004"},"addTags":{"amenity":"bank","brand":"BNP Paribas Bank Polska","brand:wikidata":"Q20744004","name":"BNP Paribas Polska"}},"amenity/bank/getinbank-68054b":{"name":"Getin Bank","locationSet":{"include":["pl"]},"geometry":["point","area"],"matchScore":2,"terms":["getin bank"],"tags":{"amenity":"bank","brand:wikidata":"Q9267646"},"addTags":{"amenity":"bank","brand":"Getin Bank","brand:wikidata":"Q9267646","name":"Getin Bank"}},"amenity/bank/ingbankslaski-68054b":{"name":"ING Bank Śląski","locationSet":{"include":["pl"]},"geometry":["point","area"],"matchScore":2,"terms":["ing bank śląski"],"tags":{"amenity":"bank","brand:wikidata":"Q1410383"},"addTags":{"amenity":"bank","brand":"ING Bank Śląski","brand:wikidata":"Q1410383","name":"ING Bank Śląski"}},"amenity/bank/kasastefczyka-68054b":{"name":"Kasa Stefczyka","locationSet":{"include":["pl"]},"geometry":["point","area"],"matchScore":2,"terms":["kasa stefczyka"],"tags":{"amenity":"bank","brand:wikidata":"Q57624461"},"addTags":{"amenity":"bank","brand":"Kasa Stefczyka","brand:wikidata":"Q57624461","name":"Kasa Stefczyka"}},"amenity/bank/mbank-b95c32":{"name":"mBank (Europe)","locationSet":{"include":["cz","pl","sk"]},"geometry":["point","area"],"matchScore":2,"terms":["mbank"],"tags":{"amenity":"bank","brand:wikidata":"Q1160928"},"addTags":{"amenity":"bank","brand":"mBank","brand:wikidata":"Q1160928","name":"mBank"}},"amenity/bank/millenniumbank-68054b":{"name":"Millennium Bank","locationSet":{"include":["pl"]},"geometry":["point","area"],"matchScore":2,"terms":["bank millennium","millennium bank"],"tags":{"amenity":"bank","brand:wikidata":"Q4855947"},"addTags":{"amenity":"bank","brand":"Millennium Bank","brand:wikidata":"Q4855947","name":"Millennium Bank"}},"amenity/bank/nestbank-68054b":{"name":"Nest Bank","locationSet":{"include":["pl"]},"geometry":["point","area"],"matchScore":2,"terms":["nest bank"],"tags":{"amenity":"bank","brand:wikidata":"Q48853121"},"addTags":{"amenity":"bank","brand":"Nest Bank","brand:wikidata":"Q48853121","name":"Nest Bank"}},"amenity/bank/pkobp-68054b":{"name":"PKO BP","locationSet":{"include":["pl"]},"geometry":["point","area"],"matchScore":2,"terms":["pko bank polski","pko bp"],"tags":{"amenity":"bank","brand:wikidata":"Q578832"},"addTags":{"amenity":"bank","brand":"PKO BP","brand:wikidata":"Q578832","name":"PKO BP"}},"amenity/bank/raiffeisenbankpolska-68054b":{"name":"Raiffeisen Bank Polska","locationSet":{"include":["pl"]},"geometry":["point","area"],"matchScore":2,"terms":["raiffeisen bank polska","raiffeisen polbank"],"tags":{"amenity":"bank","brand:wikidata":"Q9303218"},"addTags":{"amenity":"bank","brand":"Raiffeisen Bank Polska","brand:wikidata":"Q9303218","name":"Raiffeisen Bank Polska"}},"amenity/bar/pijalniawodkiipiwa-ca2c56":{"name":"Pijalnia Wódki i Piwa","locationSet":{"include":["pl"]},"geometry":["point","area"],"matchScore":2,"terms":["pijalnia wódki i piwa"],"fields":["name","brand","{amenity/bar}"],"tags":{"amenity":"bar","brand:wikidata":"Q86681898"},"addTags":{"amenity":"bar","brand":"Pijalnia Wódki i Piwa","brand:wikidata":"Q86681898","name":"Pijalnia Wódki i Piwa"}},"amenity/bicycle_rental/bikeu-4d145c":{"name":"BikeU","locationSet":{"include":["pl"]},"geometry":["point","vertex","area"],"matchScore":2,"terms":["bikeu"],"fields":["name","brand","{amenity/bicycle_rental}"],"tags":{"amenity":"bicycle_rental","brand:wikidata":"Q30915392"},"addTags":{"amenity":"bicycle_rental","brand":"BikeU","brand:wikidata":"Q30915392","name":"BikeU","network":"BikeU","network:wikidata":"Q30915392","operator":"BikeU"}},"amenity/bicycle_rental/geoveloopole-4d145c":{"name":"GeoVelo Opole","locationSet":{"include":["pl"]},"geometry":["point","vertex","area"],"matchScore":2,"terms":["geovelo","geovelo opole"],"fields":["name","brand","{amenity/bicycle_rental}"],"tags":{"amenity":"bicycle_rental","brand:wikidata":"Q11798700"},"addTags":{"amenity":"bicycle_rental","brand":"GeoVelo Opole","brand:wikidata":"Q11798700","network":"GeoVelo Opole","network:wikidata":"Q11798700","operator":"GeoVelo"}},"amenity/bicycle_rental/kolobrzeskirowermiejski-4d145c":{"name":"Kołobrzeski Rower Miejski","locationSet":{"include":["pl"]},"geometry":["point","vertex","area"],"matchScore":2,"terms":["kołobrzeski rower miejski","nextbike polska"],"fields":["name","brand","{amenity/bicycle_rental}"],"tags":{"amenity":"bicycle_rental","brand:wikidata":"Q97373105"},"addTags":{"amenity":"bicycle_rental","brand":"Kołobrzeski Rower Miejski","brand:wikidata":"Q97373105","network":"Kołobrzeski Rower Miejski","network:wikidata":"Q97373105","operator":"Nextbike Polska"}},"amenity/bicycle_rental/lodzkirowerpubliczny-4d145c":{"name":"Łódzki Rower Publiczny","locationSet":{"include":["pl"]},"geometry":["point","vertex","area"],"matchScore":2,"terms":["łódzki rower publiczny","nextbike polska"],"fields":["name","brand","{amenity/bicycle_rental}"],"tags":{"amenity":"bicycle_rental","brand:wikidata":"Q23955689"},"addTags":{"amenity":"bicycle_rental","brand":"Łódzki Rower Publiczny","brand:wikidata":"Q23955689","network":"Łódzki Rower Publiczny","network:wikidata":"Q23955689","operator":"Nextbike Polska"}},"amenity/bicycle_rental/lubelskirowermiejski-4d145c":{"name":"Lubelski Rower Miejski","locationSet":{"include":["pl"]},"geometry":["point","vertex","area"],"matchScore":2,"terms":["lubelski rower miejski","nextbike polska"],"fields":["name","brand","{amenity/bicycle_rental}"],"tags":{"amenity":"bicycle_rental","brand:wikidata":"Q24087694"},"addTags":{"amenity":"bicycle_rental","brand":"Lubelski Rower Miejski","brand:wikidata":"Q24087694","network":"Lubelski Rower Miejski","network:wikidata":"Q24087694","operator":"Nextbike Polska"}},"amenity/bicycle_rental/mevo-4d145c":{"name":"MEVO","locationSet":{"include":["pl"]},"geometry":["point","vertex","area"],"matchScore":2,"terms":["mevo","nextbike polska"],"fields":["name","brand","{amenity/bicycle_rental}"],"tags":{"amenity":"bicycle_rental","brand:wikidata":"Q60860236"},"addTags":{"amenity":"bicycle_rental","brand":"MEVO","brand:wikidata":"Q60860236","network":"MEVO","network:wikidata":"Q60860236","operator":"Nextbike Polska"}},"amenity/bicycle_rental/poznanskirowermiejski-4d145c":{"name":"Poznański Rower Miejski","locationSet":{"include":["pl"]},"geometry":["point","vertex","area"],"matchScore":2,"terms":["nextbike polska","poznański rower miejski"],"fields":["name","brand","{amenity/bicycle_rental}"],"tags":{"amenity":"bicycle_rental","brand:wikidata":"Q11826173"},"addTags":{"amenity":"bicycle_rental","brand":"Poznański Rower Miejski","brand:wikidata":"Q11826173","network":"Poznański Rower Miejski","network:wikidata":"Q11826173","operator":"Nextbike Polska"}},"amenity/bicycle_rental/sosnowieckirowermiejski-4d145c":{"name":"Sosnowiecki Rower Miejski","locationSet":{"include":["pl"]},"geometry":["point","vertex","area"],"matchScore":2,"terms":["nextbike polska","sosnowiecki rower miejski"],"fields":["name","brand","{amenity/bicycle_rental}"],"tags":{"amenity":"bicycle_rental","brand:wikidata":"Q55754308"},"addTags":{"amenity":"bicycle_rental","brand":"Sosnowiecki Rower Miejski","brand:wikidata":"Q55754308","network":"Sosnowiecki Rower Miejski","network:wikidata":"Q55754308","operator":"Nextbike Polska"}},"amenity/bicycle_rental/torvelo-4d145c":{"name":"Torvelo","locationSet":{"include":["pl"]},"geometry":["point","vertex","area"],"matchScore":2,"terms":["bikeu","torvelo"],"fields":["name","brand","{amenity/bicycle_rental}"],"tags":{"amenity":"bicycle_rental","brand:wikidata":"Q19947082"},"addTags":{"amenity":"bicycle_rental","brand":"Torvelo","brand:wikidata":"Q19947082","network":"Torvelo","network:wikidata":"Q19947082","operator":"BikeU"}},"amenity/bicycle_rental/veturilo-4d145c":{"name":"Veturilo","locationSet":{"include":["pl"]},"geometry":["point","vertex","area"],"matchScore":2,"terms":["nextbike polska","veturilo"],"fields":["name","brand","{amenity/bicycle_rental}"],"tags":{"amenity":"bicycle_rental","brand:wikidata":"Q3847868"},"addTags":{"amenity":"bicycle_rental","brand":"Veturilo","brand:wikidata":"Q3847868","network":"Veturilo","network:wikidata":"Q3847868","operator":"Nextbike Polska"}},"amenity/bicycle_rental/wavelo-4d145c":{"name":"Wavelo","locationSet":{"include":["pl"]},"geometry":["point","vertex","area"],"matchScore":2,"terms":["bikeu","wavelo"],"fields":["name","brand","{amenity/bicycle_rental}"],"tags":{"amenity":"bicycle_rental","brand:wikidata":"Q9380025"},"addTags":{"amenity":"bicycle_rental","brand":"Wavelo","brand:wikidata":"Q9380025","network":"Wavelo","network:wikidata":"Q9380025","operator":"BikeU"}},"amenity/bicycle_rental/wroclawskirowermiejski-4d145c":{"name":"Wrocławski Rower Miejski","locationSet":{"include":["pl"]},"geometry":["point","vertex","area"],"matchScore":2,"terms":["nextbike polska","wrocławski rower miejski"],"fields":["name","brand","{amenity/bicycle_rental}"],"tags":{"amenity":"bicycle_rental","brand:wikidata":"Q24941606"},"addTags":{"amenity":"bicycle_rental","brand":"Wrocławski Rower Miejski","brand:wikidata":"Q24941606","network":"Wrocławski Rower Miejski","network:wikidata":"Q24941606","operator":"Nextbike Polska"}},"amenity/cafe/coffee_shop/caffenero-0d98f2":{"name":"Caffè Nero","locationSet":{"include":["ae","cy","gb","hr","ie","om","pl","se","tr","us"]},"geometry":["point","area"],"matchScore":2,"terms":["cafe nero","caffè nero"],"reference":{"key":"cuisine","value":"coffee_shop"},"tags":{"amenity":"cafe","brand:wikidata":"Q675808","cuisine":"coffee_shop"},"addTags":{"amenity":"cafe","brand":"Caffè Nero","brand:wikidata":"Q675808","cuisine":"coffee_shop","name":"Caffè Nero","takeaway":"yes"}},"amenity/cafe/coffee_shop/greencaffenero-391a99":{"name":"Green Caffè Nero","locationSet":{"include":["pl"]},"geometry":["point","area"],"matchScore":2,"terms":["cafe nero","green cafe nero","green caffè nero"],"reference":{"key":"cuisine","value":"coffee_shop"},"tags":{"amenity":"cafe","brand:wikidata":"Q675808","cuisine":"coffee_shop"},"addTags":{"amenity":"cafe","brand":"Green Caffè Nero","brand:wikidata":"Q675808","cuisine":"coffee_shop","name":"Green Caffè Nero","takeaway":"yes"}},"amenity/car_wash/slovnaft-9d2a81":{"name":"Slovnaft","locationSet":{"include":["cz","pl","sk"]},"geometry":["point","area"],"matchScore":2,"terms":["slovnaft"],"tags":{"amenity":"car_wash","brand:wikidata":"Q1587563"},"addTags":{"amenity":"car_wash","brand":"Slovnaft","brand:wikidata":"Q1587563","name":"Slovnaft"}},"amenity/charging_station/ionity-b625d6":{"name":"Ionity","locationSet":{"include":["by","bg","cz","hu","pl","md","ro","ru","sk","ua","ax","gg","je","cq","dk","ee","fo","fi","is","ie","im","lv","lt","no","sj","se","gb","al","ad","ba","hr","gi","gr","va","it","mt","me","mk","pt","sm","rs","si","es","xk","at","be","fr","de","li","lu","mc","nl","ch"]},"geometry":["point","area"],"matchScore":2,"terms":["ionity","ionity gmbh"],"fields":["name","brand","{amenity/charging_station}"],"tags":{"amenity":"charging_station","brand:wikidata":"Q42717773"},"addTags":{"amenity":"charging_station","brand":"Ionity","brand:wikidata":"Q42717773"}},"amenity/cinema/cinemacity-2b5fb2":{"name":"Cinema City","locationSet":{"include":["bg","cz","hu","pl","ro","sk"]},"geometry":["point","area"],"matchScore":2,"terms":["cinema city"],"fields":["name","brand","{amenity/cinema}"],"tags":{"amenity":"cinema","brand:wikidata":"Q543651"},"addTags":{"amenity":"cinema","brand":"Cinema City","brand:wikidata":"Q543651","name":"Cinema City"}},"amenity/cinema/helios-696d99":{"name":"Helios","locationSet":{"include":["pl"]},"geometry":["point","area"],"matchScore":2,"terms":["helios"],"fields":["name","brand","{amenity/cinema}"],"tags":{"amenity":"cinema","brand:wikidata":"Q5705879"},"addTags":{"amenity":"cinema","brand":"Helios","brand:wikidata":"Q5705879","name":"Helios"}},"amenity/cinema/multikino-2d7744":{"name":"Multikino","locationSet":{"include":["lt","lv","pl"]},"geometry":["point","area"],"matchScore":2,"terms":["multikino","vue cinemas"],"fields":["name","brand","{amenity/cinema}"],"tags":{"amenity":"cinema","brand:wikidata":"Q1144802"},"addTags":{"amenity":"cinema","brand":"Multikino","brand:wikidata":"Q1144802","name":"Multikino","operator":"Vue Cinemas"}},"amenity/fast_food/mleczarniajerozolimska-3eab78":{"name":"Mleczarnia Jerozolimska","locationSet":{"include":["pl"]},"geometry":["point","area"],"matchScore":2,"terms":["mleczarnia jerozolimska"],"tags":{"amenity":"fast_food","brand:wikidata":"Q108585732"},"addTags":{"amenity":"fast_food","brand":"Mleczarnia Jerozolimska","brand:wikidata":"Q108585732","cuisine":"polish","name":"Mleczarnia Jerozolimska","takeaway":"yes"}},"amenity/fuel/123-67b972":{"name":"1-2-3","locationSet":{"include":["dk","pl"]},"geometry":["point","area"],"matchScore":2,"terms":["1-2-3"],"fields":["name","brand","{amenity/fuel}"],"tags":{"amenity":"fuel","brand:wikidata":"Q4545742"},"addTags":{"amenity":"fuel","brand":"1-2-3","brand:wikidata":"Q4545742","name":"1-2-3"}},"amenity/fuel/amic-4797a1":{"name":"Amic","locationSet":{"include":["at","lt","lv","pl","ua"]},"geometry":["point","area"],"matchScore":2,"terms":["amic","amic energy"],"fields":["name","brand","{amenity/fuel}"],"tags":{"amenity":"fuel","brand:wikidata":"Q96047373"},"addTags":{"amenity":"fuel","brand":"Amic","brand:wikidata":"Q96047373","name":"Amic"}},"amenity/fuel/as24-3463db":{"name":"AS 24","locationSet":{"include":["at","be","bg","cz","de","dk","es","fr","gb","ge","gr","hr","hu","ie","it","lt","lu","mk","nl","pl","pt","ro","rs","se","si","sk","ua"]},"geometry":["point","area"],"matchScore":2,"terms":["as 24"],"fields":["name","brand","{amenity/fuel}"],"tags":{"amenity":"fuel","brand:wikidata":"Q2819394"},"addTags":{"amenity":"fuel","brand":"AS 24","brand:wikidata":"Q2819394","hgv":"only","name":"AS 24"}},"amenity/fuel/auchan-fcb99f":{"name":"Auchan","locationSet":{"include":["al","ad","ba","hr","gi","gr","va","it","mt","me","mk","pt","sm","rs","si","es","xk","by","bg","cz","hu","pl","md","ro","ru","sk","ua","at","be","fr","de","li","lu","mc","nl","ch"]},"geometry":["point","area"],"matchScore":2,"terms":["auchan"],"fields":["name","brand","{amenity/fuel}"],"tags":{"amenity":"fuel","brand:wikidata":"Q758603"},"addTags":{"amenity":"fuel","brand":"Auchan","brand:wikidata":"Q758603","name":"Auchan"}},"amenity/fuel/avia-e0aaf8":{"name":"Avia","locationSet":{"include":["at","be","bg","ch","cz","de","es","fr","hu","it","nl","pl","pt","rs","ua"]},"geometry":["point","area"],"matchScore":2,"terms":["avia","station avia"],"fields":["name","brand","{amenity/fuel}"],"tags":{"amenity":"fuel","brand:wikidata":"Q300147"},"addTags":{"amenity":"fuel","brand":"Avia","brand:wikidata":"Q300147","name":"Avia"}},"amenity/fuel/bliska-5fd245":{"name":"Bliska","locationSet":{"include":["pl"]},"geometry":["point","area"],"matchScore":2,"terms":["bliska"],"fields":["name","brand","{amenity/fuel}"],"tags":{"amenity":"fuel","brand:wikidata":"Q4016378"},"addTags":{"amenity":"fuel","brand":"Bliska","brand:wikidata":"Q4016378","name":"Bliska"}},"amenity/fuel/lotos-5fd245":{"name":"Lotos","locationSet":{"include":["pl"]},"geometry":["point","area"],"matchScore":2,"terms":["lotos"],"fields":["name","brand","{amenity/fuel}"],"tags":{"amenity":"fuel","brand:wikidata":"Q1256909"},"addTags":{"amenity":"fuel","brand":"Lotos","brand:wikidata":"Q1256909","name":"Lotos"}},"amenity/fuel/lotosoptima-5fd245":{"name":"Lotos Optima","locationSet":{"include":["pl"]},"geometry":["point","area"],"matchScore":2,"terms":["lotos optima"],"fields":["name","brand","{amenity/fuel}"],"tags":{"amenity":"fuel","brand:wikidata":"Q1256909"},"addTags":{"amenity":"fuel","brand":"Lotos Optima","brand:wikidata":"Q1256909","name":"Lotos Optima"}},"amenity/fuel/moya-5fd245":{"name":"Moya","locationSet":{"include":["pl"]},"geometry":["point","area"],"matchScore":2,"terms":["moya"],"fields":["name","brand","{amenity/fuel}"],"tags":{"amenity":"fuel","brand:wikidata":"Q62297700"},"addTags":{"amenity":"fuel","brand":"Moya","brand:wikidata":"Q62297700","name":"Moya"}},"amenity/fuel/orlen-66fb29":{"name":"Orlen","locationSet":{"include":["lt","pl"]},"geometry":["point","area"],"matchScore":2,"terms":["orlen"],"fields":["name","brand","{amenity/fuel}"],"tags":{"amenity":"fuel","brand:wikidata":"Q971649"},"addTags":{"amenity":"fuel","brand":"Orlen","brand:wikidata":"Q971649","name":"Orlen"}},"amenity/fuel/preem-a611ce":{"name":"Preem","locationSet":{"include":["pl","se"]},"geometry":["point","area"],"matchScore":2,"terms":["preem"],"fields":["name","brand","{amenity/fuel}"],"tags":{"amenity":"fuel","brand:wikidata":"Q598835"},"addTags":{"amenity":"fuel","brand":"Preem","brand:wikidata":"Q598835","name":"Preem"}},"amenity/fuel/slovnaft-d7c78f":{"name":"Slovnaft","locationSet":{"include":["cz","pl","sk"]},"geometry":["point","area"],"matchScore":2,"terms":["slovnaft"],"fields":["name","brand","{amenity/fuel}"],"tags":{"amenity":"fuel","brand:wikidata":"Q1587563"},"addTags":{"amenity":"fuel","brand":"Slovnaft","brand:wikidata":"Q1587563","name":"Slovnaft"}},"amenity/fuel/statoil-442e61":{"name":"Statoil","locationSet":{"include":["dk","ee","ie","pl","ru","se"]},"geometry":["point","area"],"matchScore":2,"terms":["statoil"],"fields":["name","brand","{amenity/fuel}"],"tags":{"amenity":"fuel","brand:wikidata":"Q1776022"},"addTags":{"amenity":"fuel","brand":"Statoil","brand:wikidata":"Q1776022","name":"Statoil"}},"amenity/language_school/shaneenglishschool-f8b177":{"name":"Shane English School","locationSet":{"include":["dz","gb","hk","id","kr","pl","th","vn"]},"geometry":["point","area"],"matchScore":2,"terms":["shane english school","シェーン英会話"],"fields":["name","brand","{amenity/language_school}"],"tags":{"amenity":"language_school","brand:wikidata":"Q17054332"},"addTags":{"amenity":"language_school","brand":"Shane English School","brand:en":"Shane English School","brand:ja":"シェーン英会話","brand:ja-Latn":"Shēn Eikaiwa","brand:wikidata":"Q17054332","language:en":"main","name":"Shane English School","name:en":"Shane English School","name:ja":"シェーン英会話","name:ja-Latn":"Shēn Eikaiwa"}},"amenity/parcel_locker/allegroonebox-ce4e28":{"name":"Allegro One Box","locationSet":{"include":["pl"]},"geometry":["point","vertex"],"matchScore":2,"terms":["allegro one box","ups"],"reference":{"key":"amenity","value":"parcel_locker"},"tags":{"amenity":"parcel_locker","brand:wikidata":"Q110738715"},"addTags":{"amenity":"parcel_locker","brand":"Allegro One Box","brand:wikidata":"Q110738715","operator":"UPS","parcel_mail_in":"yes","parcel_pickup":"yes"}},"amenity/parcel_locker/orlenpaczka-ce4e28":{"name":"Orlen Paczka","locationSet":{"include":["pl"]},"geometry":["point","vertex"],"matchScore":2,"terms":["orlen paczka","orlen s.a"],"reference":{"key":"amenity","value":"parcel_locker"},"tags":{"amenity":"parcel_locker","brand:wikidata":"Q110457879"},"addTags":{"amenity":"parcel_locker","brand":"Orlen Paczka","brand:wikidata":"Q110457879","operator":"ORLEN S.A","parcel_mail_in":"yes","parcel_pickup":"yes"}},"amenity/parcel_locker/zbox-5a86e9":{"name":"Packeta","locationSet":{"include":["by","bg","cz","hu","pl","md","ro","ru","sk","ua","ax","gg","je","cq","dk","ee","fo","fi","is","ie","im","lv","lt","no","sj","se","gb","al","ad","ba","hr","gi","gr","va","it","mt","me","mk","pt","sm","rs","si","es","xk","at","be","fr","de","li","lu","mc","nl","ch"]},"geometry":["point","vertex"],"matchScore":2,"terms":["packeta"],"fields":["name","brand","{amenity/parcel_locker}"],"reference":{"key":"amenity","value":"parcel_locker"},"tags":{"amenity":"parcel_locker","brand:wikidata":"Q67809905"},"addTags":{"amenity":"parcel_locker","brand":"Packeta","brand:wikidata":"Q67809905","name":"Z-Box"}},"amenity/parcel_locker/paczkomatinpost-ce4e28":{"name":"Paczkomat InPost","locationSet":{"include":["pl"]},"geometry":["point","vertex"],"matchScore":2,"terms":["inpost","paczkomat inpost"],"reference":{"key":"amenity","value":"parcel_locker"},"tags":{"amenity":"parcel_locker","brand:wikidata":"Q110970254"},"addTags":{"amenity":"parcel_locker","brand":"Paczkomat InPost","brand:wikidata":"Q110970254","operator":"InPost","operator:wikidata":"Q3182097","parcel_mail_in":"yes","parcel_pickup":"yes"}},"amenity/pharmacy/dbamozdrowie-cf61fb":{"name":"Dbam o Zdrowie","locationSet":{"include":["pl"]},"geometry":["point","area"],"matchScore":2,"terms":["dbam o zdrowie"],"reference":{"key":"amenity","value":"pharmacy"},"tags":{"amenity":"pharmacy","brand:wikidata":"Q62563833"},"addTags":{"amenity":"pharmacy","brand":"Dbam o Zdrowie","brand:wikidata":"Q62563833","healthcare":"pharmacy","name":"Dbam o Zdrowie"}},"amenity/pharmacy/drmax-d40f7b":{"name":"Dr. Max","locationSet":{"include":["cz","it","pl","ro","rs","sk"]},"geometry":["point","area"],"matchScore":2,"terms":["dr. max"],"reference":{"key":"amenity","value":"pharmacy"},"tags":{"amenity":"pharmacy","brand:wikidata":"Q56317371"},"addTags":{"amenity":"pharmacy","brand":"Dr. Max","brand:wikidata":"Q56317371","healthcare":"pharmacy","name":"Dr. Max"}},"amenity/pharmacy/superpharm-8f2066":{"name":"Super-Pharm","locationSet":{"include":["cn","il","pl"]},"geometry":["point","area"],"matchScore":2,"terms":["super-pharm"],"reference":{"key":"amenity","value":"pharmacy"},"tags":{"amenity":"pharmacy","brand:wikidata":"Q13220217"},"addTags":{"amenity":"pharmacy","brand":"Super-Pharm","brand:wikidata":"Q13220217","healthcare":"pharmacy","name":"Super-Pharm"}},"amenity/pharmacy/zikoapteka-cf61fb":{"name":"Ziko Apteka","locationSet":{"include":["pl"]},"geometry":["point","area"],"matchScore":2,"terms":["ziko","ziko apteka"],"reference":{"key":"amenity","value":"pharmacy"},"tags":{"amenity":"pharmacy","brand:wikidata":"Q63432892"},"addTags":{"amenity":"pharmacy","brand":"Ziko Apteka","brand:wikidata":"Q63432892","healthcare":"pharmacy","name":"Ziko Apteka","short_name":"Ziko"}},"amenity/vending_machine/public_transport_tickets/automatskup-bd9635":{"name":"Automat ŚKUP","locationSet":{"include":["pl"]},"geometry":["point","vertex"],"matchScore":2,"terms":["automat śkup"],"reference":{"key":"vending","value":"public_transport_tickets"},"tags":{"amenity":"vending_machine","brand:wikidata":"Q24945427","vending":"public_transport_tickets"},"addTags":{"amenity":"vending_machine","brand":"Automat ŚKUP","brand:wikidata":"Q24945427","name":"Automat ŚKUP","vending":"public_transport_tickets"}},"amenity/vending_machine/continental-123edb":{"name":"Continental","locationSet":{"include":["by","bg","cz","hu","pl","md","ro","ru","sk","ua","ax","gg","je","cq","dk","ee","fo","fi","is","ie","im","lv","lt","no","sj","se","gb","al","ad","ba","hr","gi","gr","va","it","mt","me","mk","pt","sm","rs","si","es","xk","at","be","fr","de","li","lu","mc","nl","ch"]},"geometry":["point","vertex"],"matchScore":2,"terms":["continental"],"tags":{"amenity":"vending_machine","brand:wikidata":"Q64739247"},"addTags":{"amenity":"vending_machine","brand":"Continental","brand:wikidata":"Q64739247","name":"Continental","vending":"bicycle_tube"}},"amenity/vending_machine/public_transport_tickets/kkm-bd9635":{"name":"KKM","locationSet":{"include":["pl"]},"geometry":["point","vertex"],"matchScore":2,"terms":["kkm"],"reference":{"key":"vending","value":"public_transport_tickets"},"tags":{"amenity":"vending_machine","brand:wikidata":"Q57515549","vending":"public_transport_tickets"},"addTags":{"amenity":"vending_machine","brand":"KKM","brand:wikidata":"Q57515549","name":"KKM","vending":"public_transport_tickets"}},"amenity/vending_machine/schwalbe-123edb":{"name":"Schwalbe","locationSet":{"include":["by","bg","cz","hu","pl","md","ro","ru","sk","ua","ax","gg","je","cq","dk","ee","fo","fi","is","ie","im","lv","lt","no","sj","se","gb","al","ad","ba","hr","gi","gr","va","it","mt","me","mk","pt","sm","rs","si","es","xk","at","be","fr","de","li","lu","mc","nl","ch"]},"geometry":["point","vertex"],"matchScore":2,"terms":["schwalbe"],"tags":{"amenity":"vending_machine","brand:wikidata":"Q1312213"},"addTags":{"amenity":"vending_machine","brand":"Schwalbe","brand:wikidata":"Q1312213","name":"Schwalbe","vending":"bicycle_tube"}},"healthcare/sample_collection/synevo-42d0f5":{"name":"Synevo","locationSet":{"include":["pl"]},"geometry":["point","area"],"matchScore":2,"terms":["synevo"],"tags":{"brand:wikidata":"Q108474045","healthcare":"sample_collection"},"addTags":{"brand":"Synevo","brand:wikidata":"Q108474045","healthcare":"sample_collection","name":"Synevo"}},"leisure/fitness_centre/fitnessworld-6ef72b":{"name":"Fitness World","locationSet":{"include":["dk","pl"]},"geometry":["point","area"],"matchScore":2,"terms":["fitness world"],"tags":{"brand:wikidata":"Q12311466","leisure":"fitness_centre"},"addTags":{"brand":"Fitness World","brand:wikidata":"Q12311466","leisure":"fitness_centre","name":"Fitness World"}},"leisure/fitness_centre/mcfit-0ebac9":{"name":"McFit","locationSet":{"include":["at","de","es","it","pl"]},"geometry":["point","area"],"matchScore":2,"terms":["mcfit"],"tags":{"brand:wikidata":"Q871302","leisure":"fitness_centre"},"addTags":{"brand":"McFit","brand:wikidata":"Q871302","leisure":"fitness_centre","name":"McFit"}},"leisure/fitness_centre/mrssporty-658820":{"name":"Mrs. Sporty","locationSet":{"include":["at","ch","de","es","it","pl","sk"]},"geometry":["point","area"],"matchScore":2,"terms":["mrs. sporty"],"tags":{"brand:wikidata":"Q100718953","leisure":"fitness_centre"},"addTags":{"brand":"Mrs. Sporty","brand:wikidata":"Q100718953","leisure":"fitness_centre","name":"Mrs. Sporty"}},"office/estate_agent/tecnocasa-ed2199":{"name":"Tecnocasa","locationSet":{"include":["es","it","pl"]},"geometry":["point","area"],"matchScore":2,"terms":["tecnocasa"],"tags":{"brand:wikidata":"Q2399658","office":"estate_agent"},"addTags":{"brand":"Tecnocasa","brand:wikidata":"Q2399658","name":"Tecnocasa","office":"estate_agent"}},"office/estate_agent/vonpollrealestate-c99072":{"name":"von Poll Real Estate","locationSet":{"include":["by","bg","cz","hu","pl","md","ro","ru","sk","ua","ax","gg","je","cq","dk","ee","fo","fi","is","ie","im","lv","lt","no","sj","se","gb","al","ad","ba","hr","gi","gr","va","it","mt","me","mk","pt","sm","rs","si","es","xk","at","be","fr","de","li","lu","mc","nl","ch"],"exclude":["at","de"]},"geometry":["point","area"],"matchScore":2,"terms":["von poll immobilien","von poll real estate","vonpoll","vonpoll commercial"],"tags":{"brand:wikidata":"Q96026696","office":"estate_agent"},"addTags":{"brand":"von Poll Real Estate","brand:wikidata":"Q96026696","name":"von Poll Real Estate","office":"estate_agent"}},"office/insurance/aviva-851fcf":{"name":"Aviva","locationSet":{"include":["fr","ie","pl"]},"geometry":["point","area"],"matchScore":2,"terms":["aviva"],"fields":["name","brand","{office/insurance}"],"tags":{"brand:wikidata":"Q791179","office":"insurance"},"addTags":{"brand":"Aviva","brand:wikidata":"Q791179","name":"Aviva","office":"insurance"}},"office/insurance/pzu-313da8":{"name":"PZU","locationSet":{"include":["pl"]},"geometry":["point","area"],"matchScore":2,"terms":["pzu"],"fields":["name","brand","{office/insurance}"],"tags":{"brand:wikidata":"Q1807170","office":"insurance"},"addTags":{"brand":"PZU","brand:wikidata":"Q1807170","name":"PZU","office":"insurance"}},"shop/bakery/awiteks-839c38":{"name":"Awiteks","locationSet":{"include":["pl"]},"geometry":["point","area"],"matchScore":2,"terms":["awiteks"],"tags":{"brand:wikidata":"Q62054190","shop":"bakery"},"addTags":{"brand":"Awiteks","brand:wikidata":"Q62054190","name":"Awiteks","shop":"bakery"}},"shop/bakery/fornetti-0c6f37":{"name":"Fornetti","locationSet":{"include":["bg","cz","hr","hu","md","pl","ro","sk","ua"]},"geometry":["point","area"],"matchScore":2,"terms":["fornetti"],"tags":{"brand:wikidata":"Q1003020","shop":"bakery"},"addTags":{"brand":"Fornetti","brand:wikidata":"Q1003020","name":"Fornetti","shop":"bakery"}},"shop/bakery/galeriawypiekowlubaszka-839c38":{"name":"Galeria Wypieków Lubaszka","locationSet":{"include":["pl"]},"geometry":["point","area"],"matchScore":2,"terms":["galeria wypieków","galeria wypieków lubaszka","lubaszka"],"tags":{"brand:wikidata":"Q108586693","shop":"bakery"},"addTags":{"brand":"Galeria Wypieków Lubaszka","brand:wikidata":"Q108586693","name":"Galeria Wypieków Lubaszka","shop":"bakery"}},"shop/bakery/grzybki-839c38":{"name":"Grzybki","locationSet":{"include":["pl"]},"geometry":["point","area"],"matchScore":2,"terms":["grzybki","piekarnia grzybki"],"tags":{"brand:wikidata":"Q108586331","shop":"bakery"},"addTags":{"brand":"Grzybki","brand:wikidata":"Q108586331","name":"Grzybki","shop":"bakery"}},"shop/bakery/lecrobag-367eb3":{"name":"Le Crobag","locationSet":{"include":["at","de","pl","ru"]},"geometry":["point","area"],"matchScore":2,"terms":["le crobag"],"tags":{"brand:wikidata":"Q1558025","shop":"bakery"},"addTags":{"brand":"Le Crobag","brand:wikidata":"Q1558025","name":"Le Crobag","shop":"bakery"}},"shop/bakery/oskroba-839c38":{"name":"Oskroba","locationSet":{"include":["pl"]},"geometry":["point","area"],"matchScore":2,"terms":["oskroba","piekarnia oskroba"],"tags":{"brand:wikidata":"Q109323856","shop":"bakery"},"addTags":{"brand":"Oskroba","brand:wikidata":"Q109323856","name":"Oskroba","shop":"bakery"}},"shop/bakery/paul-652955":{"name":"Paul","locationSet":{"include":["ae","az","be","bh","by","ci","cy","cz","eg","es","fr","ga","gb","ge","gr","id","in","jo","jp","kw","kz","lb","lu","ma","mu","my","om","pa","ph","pl","pt","qa","ro","ru","sa","sg","th","tn","tw","ua","us","uz","vn","za"]},"geometry":["point","area"],"matchScore":2,"terms":["paul"],"tags":{"brand:wikidata":"Q3370417","shop":"bakery"},"addTags":{"brand":"Paul","brand:wikidata":"Q3370417","name":"Paul","shop":"bakery"}},"shop/bakery/spc-839c38":{"name":"SPC","locationSet":{"include":["pl"]},"geometry":["point","area"],"matchScore":2,"terms":["spc"],"tags":{"brand:wikidata":"Q108586596","shop":"bakery"},"addTags":{"brand":"SPC","brand:wikidata":"Q108586596","name":"SPC","shop":"bakery"}},"shop/bookmaker/fortuna-70887d":{"name":"Fortuna","locationSet":{"include":["cz","hr","pl","ro","sk"]},"geometry":["point","area"],"matchScore":2,"terms":["fortuna"],"tags":{"brand:wikidata":"Q25857973","shop":"bookmaker"},"addTags":{"brand":"Fortuna","brand:wikidata":"Q25857973","name":"Fortuna","shop":"bookmaker"}},"shop/books/empik-0c5adb":{"name":"Empik","locationSet":{"include":["pl"]},"geometry":["point","area"],"matchScore":2,"terms":["empik"],"tags":{"brand:wikidata":"Q3045978","shop":"books"},"addTags":{"brand":"Empik","brand:wikidata":"Q3045978","name":"Empik","shop":"books"}},"shop/books/swiatksiazki-0c5adb":{"name":"Świat Książki","locationSet":{"include":["pl"]},"geometry":["point","area"],"matchScore":2,"terms":["świat książki"],"tags":{"brand:wikidata":"Q9396199","shop":"books"},"addTags":{"brand":"Świat Książki","brand:wikidata":"Q9396199","name":"Świat Książki","shop":"books"}},"shop/butcher/gzella-436f1d":{"name":"Gzella","locationSet":{"include":["pl"]},"geometry":["point","area"],"matchScore":2,"terms":["gzella"],"tags":{"brand:wikidata":"Q110955605","shop":"butcher"},"addTags":{"brand":"Gzella","brand:wikidata":"Q110955605","name":"Gzella","shop":"butcher"}},"shop/butcher/sokolow-436f1d":{"name":"Sokołów","locationSet":{"include":["pl"]},"geometry":["point","area"],"matchScore":2,"terms":["sokołów"],"tags":{"brand:wikidata":"Q16605125","shop":"butcher"},"addTags":{"brand":"Sokołów","brand:wikidata":"Q16605125","name":"Sokołów","shop":"butcher"}},"shop/car/koenigsegg-45c2de":{"name":"Koenigsegg","locationSet":{"include":["ae","au","ca","ch","cn","de","es","gb","jp","kr","lb","mx","my","om","pl","se","sg","th","tw","us","za"]},"geometry":["point","area"],"matchScore":2,"terms":["koenigsegg"],"fields":["name","brand","{shop/car}"],"tags":{"brand:wikidata":"Q35594","shop":"car"},"addTags":{"brand":"Koenigsegg","brand:wikidata":"Q35594","name":"Koenigsegg","shop":"car"}},"shop/car/smart-f30ed8":{"name":"Smart","locationSet":{"include":["by","bg","cz","hu","pl","md","ro","ru","sk","ua","ax","gg","je","cq","dk","ee","fo","fi","is","ie","im","lv","lt","no","sj","se","gb","al","ad","ba","hr","gi","gr","va","it","mt","me","mk","pt","sm","rs","si","es","xk","at","be","fr","de","li","lu","mc","nl","ch"]},"geometry":["point","area"],"matchScore":2,"terms":["smart"],"fields":["name","brand","{shop/car}"],"tags":{"brand:wikidata":"Q156490","shop":"car"},"addTags":{"brand":"Smart","brand:wikidata":"Q156490","name":"Smart","shop":"car"}},"shop/car_repair/norauto-388a61":{"name":"Norauto","locationSet":{"include":["ar","es","fr","hu","it","pl","pt","ro"]},"geometry":["point","area"],"matchScore":2,"terms":["norauto"],"fields":["name","brand","{shop/car_repair}"],"tags":{"brand:wikidata":"Q3317698","shop":"car_repair"},"addTags":{"brand":"Norauto","brand:wikidata":"Q3317698","name":"Norauto","shop":"car_repair"}},"shop/car_repair/premio-354273":{"name":"Premio","locationSet":{"include":["be","bg","ch","cz","de","hu","nl","pl","ro","ru","sk"]},"geometry":["point","area"],"matchScore":2,"terms":["premio"],"fields":["name","brand","{shop/car_repair}"],"tags":{"brand:wikidata":"Q100895958","shop":"car_repair"},"addTags":{"brand":"Premio","brand:wikidata":"Q100895958","name":"Premio","shop":"car_repair"}},"shop/chemist/drogerianatura-650b49":{"name":"Drogeria Natura","locationSet":{"include":["pl"]},"geometry":["point","area"],"matchScore":2,"terms":["drogeria natura"],"tags":{"brand:wikidata":"Q9212032","shop":"chemist"},"addTags":{"brand":"Drogeria Natura","brand:wikidata":"Q9212032","name":"Drogeria Natura","shop":"chemist"}},"shop/chemist/rossmann-6513f7":{"name":"Rossmann","locationSet":{"include":["cz","de","hu","pl"]},"geometry":["point","area"],"matchScore":2,"terms":["rossmann"],"tags":{"brand:wikidata":"Q316004","shop":"chemist"},"addTags":{"brand":"Rossmann","brand:wikidata":"Q316004","name":"Rossmann","shop":"chemist"}},"shop/clothes/bigstar-de8f01":{"name":"Big Star","locationSet":{"include":["by","pl"]},"geometry":["point","area"],"matchScore":2,"terms":["big star"],"tags":{"brand:wikidata":"Q9171569","shop":"clothes"},"addTags":{"brand":"Big Star","brand:wikidata":"Q9171569","name":"Big Star","shop":"clothes"}},"shop/clothes/camaieu-1cb4e7":{"name":"Camaïeu","locationSet":{"include":["be","cz","fr","it","pl"]},"geometry":["point","area"],"matchScore":2,"terms":["camaïeu"],"tags":{"brand:wikidata":"Q2934647","shop":"clothes"},"addTags":{"brand":"Camaïeu","brand:wikidata":"Q2934647","name":"Camaïeu","shop":"clothes"}},"shop/clothes/coccodrillo-571709":{"name":"Coccodrillo","locationSet":{"include":["at","bg","by","cz","de","ee","fi","hu","lt","lv","me","pl","ro","rs","ru","sk","ua"]},"geometry":["point","area"],"matchScore":2,"terms":["coccodrillo"],"tags":{"brand:wikidata":"Q9195224","shop":"clothes"},"addTags":{"brand":"Coccodrillo","brand:wikidata":"Q9195224","clothes":"children","name":"Coccodrillo","shop":"clothes"}},"shop/clothes/colloseum-3648e4":{"name":"Colloseum","locationSet":{"include":["at","cz","de","gr","lv","pl","ru","sk"]},"geometry":["point","area"],"matchScore":2,"terms":["colloseum"],"tags":{"brand:wikidata":"Q15794685","shop":"clothes"},"addTags":{"brand":"Colloseum","brand:wikidata":"Q15794685","name":"Colloseum","shop":"clothes"}},"shop/clothes/diverse-196c99":{"name":"Diverse","locationSet":{"include":["pl"]},"geometry":["point","area"],"matchScore":2,"terms":["diverse"],"tags":{"brand:wikidata":"Q11694298","shop":"clothes"},"addTags":{"brand":"Diverse","brand:wikidata":"Q11694298","name":"Diverse","shop":"clothes"}},"shop/clothes/esotiq-264379":{"name":"Esotiq","locationSet":{"include":["de","pl","ua"]},"geometry":["point","area"],"matchScore":2,"terms":["esotiq"],"tags":{"brand:wikidata":"Q56338245","shop":"clothes"},"addTags":{"brand":"Esotiq","brand:wikidata":"Q56338245","name":"Esotiq","shop":"clothes"}},"shop/clothes/gate-d52ff8":{"name":"Gate","locationSet":{"include":["cz","hu","pl","ro","sk"]},"geometry":["point","area"],"matchScore":2,"terms":["gate"],"tags":{"brand:wikidata":"Q93517084","shop":"clothes"},"addTags":{"brand":"Gate","brand:wikidata":"Q93517084","name":"Gate","shop":"clothes"}},"shop/clothes/house-f09482":{"name":"House","locationSet":{"include":["ba","bg","cz","ee","fi","hr","hu","kz","lt","lv","pl","ro","rs","ru","si","sk","ua"]},"geometry":["point","area"],"matchScore":2,"terms":["house"],"tags":{"brand:wikidata":"Q9294202","shop":"clothes"},"addTags":{"brand":"House","brand:wikidata":"Q9294202","name":"House","shop":"clothes"}},"shop/clothes/kappahl-c962e5":{"name":"KappAhl","locationSet":{"include":["fi","no","pl","se"]},"geometry":["point","area"],"matchScore":2,"terms":["kappahl"],"fields":["name","brand","{shop/clothes}"],"tags":{"brand:wikidata":"Q4349016","shop":"clothes"},"addTags":{"brand":"KappAhl","brand:wikidata":"Q4349016","name":"KappAhl","shop":"clothes"}},"shop/clothes/kik-97626d":{"name":"KiK","locationSet":{"include":["at","cz","de","hr","hu","it","nl","pl","ro","si","sk"]},"geometry":["point","area"],"matchScore":2,"terms":["kik"],"tags":{"brand:wikidata":"Q883965","shop":"clothes"},"addTags":{"brand":"KiK","brand:wikidata":"Q883965","name":"KiK","shop":"clothes"}},"shop/clothes/maje-99ba8f":{"name":"Maje","locationSet":{"include":["by","bg","cz","hu","pl","md","ro","ru","sk","ua","ax","gg","je","cq","dk","ee","fo","fi","is","ie","im","lv","lt","no","sj","se","gb","al","ad","ba","hr","gi","gr","va","it","mt","me","mk","pt","sm","rs","si","es","xk","at","be","fr","de","li","lu","mc","nl","ch","cn","hk","sg","tw","uk","us"]},"geometry":["point","area"],"matchScore":2,"terms":["maje"],"tags":{"brand:wikidata":"Q3280458","shop":"clothes"},"addTags":{"brand":"Maje","brand:wikidata":"Q3280458","clothes":"women","name":"Maje","shop":"clothes"}},"shop/clothes/marcopolo-3cd4a4":{"name":"Marc O'Polo","locationSet":{"include":["at","be","ch","de","nl","pl"]},"geometry":["point","area"],"matchScore":2,"terms":["marc o'polo"],"tags":{"brand:wikidata":"Q1892752","shop":"clothes"},"addTags":{"brand":"Marc O'Polo","brand:wikidata":"Q1892752","name":"Marc O'Polo","shop":"clothes"}},"shop/clothes/newlook-c8149e":{"name":"New Look","locationSet":{"include":["be","de","fr","gb","ie","pl"]},"geometry":["point","area"],"matchScore":2,"terms":["new look"],"tags":{"brand:wikidata":"Q12063852","shop":"clothes"},"addTags":{"brand":"New Look","brand:wikidata":"Q12063852","name":"New Look","shop":"clothes"}},"shop/clothes/okaidi-eea264":{"name":"Okaïdi","locationSet":{"include":["be","ch","de","es","fr","it","pl"]},"geometry":["point","area"],"matchScore":2,"terms":["okaïdi"],"tags":{"brand:wikidata":"Q3350027","shop":"clothes"},"addTags":{"brand":"Okaïdi","brand:wikidata":"Q3350027","name":"Okaïdi","shop":"clothes"}},"shop/clothes/peekandcloppenburg-65e711":{"name":"Peek & Cloppenburg","locationSet":{"include":["at","be","de","nl","pl","sk"]},"geometry":["point","area"],"matchScore":2,"terms":["peek & cloppenburg"],"tags":{"brand:wikidata":"Q2066959","shop":"clothes"},"addTags":{"brand":"Peek & Cloppenburg","brand:wikidata":"Q2066959","name":"Peek & Cloppenburg","shop":"clothes"}},"shop/clothes/pepco-98e975":{"name":"Pepco","locationSet":{"include":["bg","cz","ee","hr","hu","it","lt","lv","pl","ro","rs","si","sk"]},"geometry":["point","area"],"matchScore":2,"terms":["pepco"],"tags":{"brand:wikidata":"Q11815580","shop":"clothes"},"addTags":{"brand":"Pepco","brand:wikidata":"Q11815580","name":"Pepco","shop":"clothes"}},"shop/clothes/riverisland-a754e7":{"name":"River Island","locationSet":{"include":["gb","ie","im","nl","pl"]},"geometry":["point","area"],"matchScore":2,"terms":["river island"],"tags":{"brand:wikidata":"Q2670328","shop":"clothes"},"addTags":{"brand":"River Island","brand:wikidata":"Q2670328","name":"River Island","shop":"clothes"}},"shop/clothes/seidensticker-a4dacd":{"name":"Seidensticker","locationSet":{"include":["at","be","ch","cz","de","fr","it","lu","nl","pl"]},"geometry":["point","area"],"matchScore":2,"terms":["seidensticker"],"tags":{"brand:wikidata":"Q1797834","shop":"clothes"},"addTags":{"brand":"Seidensticker","brand:wikidata":"Q1797834","name":"Seidensticker","shop":"clothes"}},"shop/coffee/tchibo-8e6167":{"name":"Tchibo","locationSet":{"include":["at","ch","cz","de","pl","sk"]},"geometry":["point","area"],"matchScore":2,"terms":["tchibo"],"tags":{"brand:wikidata":"Q564213","shop":"coffee"},"addTags":{"brand":"Tchibo","brand:wikidata":"Q564213","name":"Tchibo","shop":"coffee"}},"shop/convenience/abc-95f41b":{"name":"abc (Poland)","locationSet":{"include":["pl"]},"geometry":["point","area"],"matchScore":2,"terms":["abc"],"tags":{"brand:wikidata":"Q11683985","shop":"convenience"},"addTags":{"brand":"abc","brand:wikidata":"Q11683985","name":"abc","shop":"convenience"}},"shop/convenience/avia-3fdfc9":{"name":"Avia","locationSet":{"include":["at","be","bg","ch","cz","de","es","fr","hu","it","nl","pl","pt","rs","ua"]},"geometry":["point","area"],"matchScore":2,"terms":["avia"],"tags":{"brand:wikidata":"Q300147","shop":"convenience"},"addTags":{"brand":"Avia","brand:wikidata":"Q300147","name":"Avia","shop":"convenience"}},"shop/convenience/delikatesycentrum-95f41b":{"name":"Delikatesy Centrum","locationSet":{"include":["pl"]},"geometry":["point","area"],"matchScore":2,"terms":["delikatesy centrum"],"tags":{"brand:wikidata":"Q11693824","shop":"convenience"},"addTags":{"brand":"Delikatesy Centrum","brand:wikidata":"Q11693824","name":"Delikatesy Centrum","shop":"convenience"}},"shop/convenience/delikatesyslawex-95f41b":{"name":"Delikatesy SLAWEX","locationSet":{"include":["pl"]},"geometry":["point","area"],"matchScore":2,"terms":["slawex"],"tags":{"brand:wikidata":"Q110801396","shop":"convenience"},"addTags":{"brand":"SLAWEX","brand:wikidata":"Q110801396","name":"Delikatesy SLAWEX","shop":"convenience"}},"shop/convenience/groszek-95f41b":{"name":"Groszek","locationSet":{"include":["pl"]},"geometry":["point","area"],"matchScore":2,"terms":["groszek"],"tags":{"brand:wikidata":"Q9280965","shop":"convenience"},"addTags":{"brand":"Groszek","brand:wikidata":"Q9280965","name":"Groszek","shop":"convenience"}},"shop/convenience/lewiatan-95f41b":{"name":"Lewiatan","locationSet":{"include":["pl"]},"geometry":["point","area"],"matchScore":2,"terms":["lewiatan"],"tags":{"brand:wikidata":"Q11755396","shop":"convenience"},"addTags":{"brand":"Lewiatan","brand:wikidata":"Q11755396","name":"Lewiatan","shop":"convenience"}},"shop/convenience/livio-95f41b":{"name":"Livio","locationSet":{"include":["pl"]},"geometry":["point","area"],"matchScore":2,"terms":["livio"],"tags":{"brand:wikidata":"Q108599511","shop":"convenience"},"addTags":{"brand":"Livio","brand:wikidata":"Q108599511","name":"Livio","shop":"convenience"}},"shop/convenience/malpkaexpress-95f41b":{"name":"Małpka Express","locationSet":{"include":["pl"]},"geometry":["point","area"],"matchScore":2,"terms":["małpka express"],"tags":{"brand:wikidata":"Q18431946","shop":"convenience"},"addTags":{"brand":"Małpka Express","brand:wikidata":"Q18431946","name":"Małpka Express","shop":"convenience"}},"shop/convenience/naszsklep-95f41b":{"name":"Nasz Sklep","locationSet":{"include":["pl"]},"geometry":["point","area"],"matchScore":2,"terms":["nasz sklep"],"tags":{"brand:wikidata":"Q62070369","shop":"convenience"},"addTags":{"brand":"Nasz Sklep","brand:wikidata":"Q62070369","name":"Nasz Sklep","shop":"convenience"}},"shop/convenience/odido-95f41b":{"name":"Odido","locationSet":{"include":["pl"]},"geometry":["point","area"],"matchScore":2,"terms":["odido"],"tags":{"brand:wikidata":"Q106947294","shop":"convenience"},"addTags":{"brand":"Odido","brand:wikidata":"Q106947294","name":"Odido","shop":"convenience"}},"shop/convenience/orlen-95f41b":{"name":"Orlen","locationSet":{"include":["pl"]},"geometry":["point","area"],"matchScore":2,"terms":["orlen"],"tags":{"brand:wikidata":"Q971649","shop":"convenience"},"addTags":{"brand":"Orlen","brand:wikidata":"Q971649","name":"Orlen","shop":"convenience"}},"shop/convenience/stokrotkaexpress-95f41b":{"name":"Stokrotka Express","locationSet":{"include":["pl"]},"geometry":["point","area"],"matchScore":2,"terms":["stokrotka express"],"tags":{"brand:wikidata":"Q110801119","shop":"convenience"},"addTags":{"brand":"Stokrotka Express","brand:wikidata":"Q110801119","name":"Stokrotka Express","shop":"convenience"}},"shop/convenience/viva-856fe1":{"name":"Viva","locationSet":{"include":["by","bg","cz","hu","pl","md","ro","ru","sk","ua","ax","gg","je","cq","dk","ee","fo","fi","is","ie","im","lv","lt","no","sj","se","gb","al","ad","ba","hr","gi","gr","va","it","mt","me","mk","pt","sm","rs","si","es","xk","at","be","fr","de","li","lu","mc","nl","ch"]},"geometry":["point","area"],"matchScore":2,"terms":["viva"],"tags":{"brand:wikidata":"Q168238","shop":"convenience"},"addTags":{"brand":"Viva","brand:wikidata":"Q168238","name":"Viva","shop":"convenience"}},"shop/convenience/zabka-95f41b":{"name":"Żabka","locationSet":{"include":["pl"]},"geometry":["point","area"],"matchScore":2,"terms":["freshmarket","żabka","жабка"],"tags":{"brand:wikidata":"Q2589061","shop":"convenience"},"addTags":{"brand":"Żabka","brand:wikidata":"Q2589061","name":"Żabka","name:pl":"Żabka","name:uk":"Жабка","shop":"convenience"}},"shop/department_store/muji-b9b204":{"name":"Muji","locationSet":{"include":["au","ca","ch","de","es","fi","fr","gb","ie","it","pl","pt","se","tr"]},"geometry":["point","area"],"matchScore":2,"terms":["muji","無印良品"],"tags":{"brand:wikidata":"Q708789","shop":"department_store"},"addTags":{"brand":"Muji","brand:en":"Muji","brand:ja":"無印良品","brand:wikidata":"Q708789","name":"Muji","name:en":"Muji","name:ja":"無印良品","shop":"department_store"}},"shop/department_store/tkmaxx-d02268":{"name":"TK Maxx","locationSet":{"include":["at","au","de","ie","nl","pl","uk"]},"geometry":["point","area"],"matchScore":2,"terms":["tk maxx"],"tags":{"brand:wikidata":"Q23823668","shop":"department_store"},"addTags":{"brand":"TK Maxx","brand:wikidata":"Q23823668","name":"TK Maxx","shop":"department_store"}},"shop/doityourself/bricoman-5e1049":{"name":"Bricoman","locationSet":{"include":["fr","it","pl"]},"geometry":["point","area"],"matchScore":2,"terms":["bricoman"],"tags":{"brand:wikidata":"Q2925142","shop":"doityourself"},"addTags":{"brand":"Bricoman","brand:wikidata":"Q2925142","name":"Bricoman","shop":"doityourself"}},"shop/doityourself/bricomarche-cfc45c":{"name":"Bricomarché","locationSet":{"include":["fr","pl","pt"]},"geometry":["point","area"],"matchScore":2,"terms":["bricomarché"],"tags":{"brand:wikidata":"Q2925147","shop":"doityourself"},"addTags":{"brand":"Bricomarché","brand:wikidata":"Q2925147","name":"Bricomarché","shop":"doityourself"}},"shop/doityourself/castorama-f558f5":{"name":"Castorama","locationSet":{"include":["fr","pl","ru"]},"geometry":["point","area"],"matchScore":2,"terms":["castorama"],"tags":{"brand:wikidata":"Q966971","shop":"doityourself"},"addTags":{"brand":"Castorama","brand:wikidata":"Q966971","name":"Castorama","shop":"doityourself"}},"shop/doityourself/jula-2478eb":{"name":"Jula","locationSet":{"include":["no","pl","se"]},"geometry":["point","area"],"matchScore":2,"terms":["jula"],"fields":["name","brand","{shop/doityourself}"],"tags":{"brand:wikidata":"Q10541151","shop":"doityourself"},"addTags":{"brand":"Jula","brand:wikidata":"Q10541151","name":"Jula","shop":"doityourself"}},"shop/doityourself/merkurymarket-5a474c":{"name":"Merkury Market","locationSet":{"include":["pl","sk"]},"geometry":["point","area"],"matchScore":2,"terms":["merkury market"],"tags":{"brand:wikidata":"Q93070134","shop":"doityourself"},"addTags":{"brand":"Merkury Market","brand:wikidata":"Q93070134","name":"Merkury Market","shop":"doityourself"}},"shop/doityourself/obi-d5381e":{"name":"OBI","locationSet":{"include":["at","ba","ch","cz","de","hu","it","pl","ru","si","sk"]},"geometry":["point","area"],"matchScore":2,"terms":["obi"],"tags":{"brand:wikidata":"Q300518","shop":"doityourself"},"addTags":{"brand":"OBI","brand:wikidata":"Q300518","name":"OBI","shop":"doityourself"}},"shop/doityourself/psbmrowka-e3f321":{"name":"PSB Mrówka","locationSet":{"include":["pl"]},"geometry":["point","area"],"matchScore":2,"terms":["psb mrówka"],"tags":{"brand:wikidata":"Q11786409","shop":"doityourself"},"addTags":{"brand":"PSB Mrówka","brand:wikidata":"Q11786409","name":"PSB Mrówka","shop":"doityourself"}},"shop/electronics/cex-75e32e":{"name":"CeX","locationSet":{"include":["au","es","gb","ie","in","it","mx","nl","pl","pt"]},"geometry":["point","area"],"matchScore":2,"terms":["cex"],"tags":{"brand:wikidata":"Q5055676","shop":"electronics"},"addTags":{"brand":"CeX","brand:wikidata":"Q5055676","name":"CeX","shop":"electronics"}},"shop/electronics/komputronik-2b5e29":{"name":"Komputronik","locationSet":{"include":["pl"]},"geometry":["point","area"],"matchScore":2,"terms":["komputronik"],"tags":{"brand:wikidata":"Q11742085","shop":"electronics"},"addTags":{"brand":"Komputronik","brand:wikidata":"Q11742085","name":"Komputronik","shop":"electronics"}},"shop/electronics/mediaexpert-2b5e29":{"name":"Media Expert","locationSet":{"include":["pl"]},"geometry":["point","area"],"matchScore":2,"terms":["media expert"],"tags":{"brand:wikidata":"Q11776794","shop":"electronics"},"addTags":{"brand":"Media Expert","brand:wikidata":"Q11776794","name":"Media Expert","shop":"electronics"}},"shop/electronics/mediamarkt-51d852":{"name":"MediaMarkt","locationSet":{"include":["at","be","ch","de","es","gr","hu","it","nl","pl","pt","se","tr"]},"geometry":["point","area"],"matchScore":2,"terms":["mediamarkt"],"tags":{"brand:wikidata":"Q2381223","shop":"electronics"},"addTags":{"brand":"MediaMarkt","brand:wikidata":"Q2381223","name":"MediaMarkt","shop":"electronics"}},"shop/electronics/neonet-2b5e29":{"name":"Neonet","locationSet":{"include":["pl"]},"geometry":["point","area"],"matchScore":2,"terms":["neonet"],"tags":{"brand:wikidata":"Q11790622","shop":"electronics"},"addTags":{"brand":"Neonet","brand:wikidata":"Q11790622","name":"Neonet","shop":"electronics"}},"shop/electronics/rtveuroagd-2b5e29":{"name":"RTV Euro AGD","locationSet":{"include":["pl"]},"geometry":["point","area"],"matchScore":2,"terms":["rtv euro agd"],"tags":{"brand:wikidata":"Q7277895","shop":"electronics"},"addTags":{"brand":"RTV Euro AGD","brand:wikidata":"Q7277895","name":"RTV Euro AGD","shop":"electronics"}},"shop/electronics/saturn-cc2119":{"name":"Saturn","locationSet":{"include":["at","de","lu","pl"]},"geometry":["point","area"],"matchScore":2,"terms":["saturn"],"tags":{"brand:wikidata":"Q2543504","shop":"electronics"},"addTags":{"brand":"Saturn","brand:wikidata":"Q2543504","name":"Saturn","shop":"electronics"}},"shop/electronics/xkom-2b5e29":{"name":"x-kom","locationSet":{"include":["pl"]},"geometry":["point","area"],"matchScore":2,"terms":["x-kom"],"tags":{"brand:wikidata":"Q30909211","shop":"electronics"},"addTags":{"brand":"x-kom","brand:wikidata":"Q30909211","name":"x-kom","shop":"electronics"}},"shop/fashion_accessories/parfois-87714a":{"name":"Parfois","locationSet":{"include":["be","de","es","fr","gb","hu","ie","it","nl","pl","pt"]},"geometry":["point","area"],"matchScore":2,"terms":["parfois"],"tags":{"brand:wikidata":"Q7136948","shop":"fashion_accessories"},"addTags":{"brand":"Parfois","brand:wikidata":"Q7136948","name":"Parfois","shop":"fashion_accessories"}},"shop/furniture/agatameble-ad60fa":{"name":"Agata Meble","locationSet":{"include":["pl"]},"geometry":["point","area"],"matchScore":2,"terms":["agata meble"],"tags":{"brand:wikidata":"Q9141928","shop":"furniture"},"addTags":{"brand":"Agata Meble","brand:wikidata":"Q9141928","name":"Agata Meble","shop":"furniture"}},"shop/furniture/bodzio-ad60fa":{"name":"Bodzio","locationSet":{"include":["pl"]},"geometry":["point","area"],"matchScore":2,"terms":["bodzio"],"tags":{"brand:wikidata":"Q20034845","shop":"furniture"},"addTags":{"brand":"Bodzio","brand:wikidata":"Q20034845","name":"Bodzio","shop":"furniture"}},"shop/furniture/momax-a18722":{"name":"Mömax","locationSet":{"include":["by","bg","cz","hu","pl","md","ro","ru","sk","ua","ax","gg","je","cq","dk","ee","fo","fi","is","ie","im","lv","lt","no","sj","se","gb","al","ad","ba","hr","gi","gr","va","it","mt","me","mk","pt","sm","rs","si","es","xk","at","be","fr","de","li","lu","mc","nl","ch"]},"geometry":["point","area"],"matchScore":2,"terms":["mömax"],"tags":{"brand:wikidata":"Q56388481","shop":"furniture"},"addTags":{"brand":"Mömax","brand:wikidata":"Q56388481","name":"Mömax","shop":"furniture"}},"shop/furniture/xxxlutz-5acc6e":{"name":"XXXLutz","locationSet":{"include":["by","bg","cz","hu","pl","md","ro","ru","sk","ua","ax","gg","je","cq","dk","ee","fo","fi","is","ie","im","lv","lt","no","sj","se","gb","al","ad","ba","hr","gi","gr","va","it","mt","me","mk","pt","sm","rs","si","es","xk","at","be","fr","de","li","lu","mc","nl","ch"],"exclude":["bg"]},"geometry":["point","area"],"matchScore":2,"terms":["xxxlutz"],"tags":{"brand:wikidata":"Q70339467","shop":"furniture"},"addTags":{"brand":"XXXLutz","brand:wikidata":"Q70339467","name":"XXXLutz","shop":"furniture"}},"shop/hairdresser/franckprovost-343148":{"name":"Franck Provost","locationSet":{"include":["be","fr","lu","pl"]},"geometry":["point","area"],"matchScore":2,"terms":["franck provost"],"tags":{"brand:wikidata":"Q62805922","shop":"hairdresser"},"addTags":{"brand":"Franck Provost","brand:wikidata":"Q62805922","name":"Franck Provost","shop":"hairdresser"}},"shop/hairdresser/jeanlouisdavid-c24876":{"name":"Jean Louis David","locationSet":{"include":["es","fr","it","pl"]},"geometry":["point","area"],"matchScore":2,"terms":["jean louis david"],"tags":{"brand:wikidata":"Q64445174","shop":"hairdresser"},"addTags":{"brand":"Jean Louis David","brand:wikidata":"Q64445174","name":"Jean Louis David","shop":"hairdresser"}},"shop/hearing_aids/geershorgerate-b91cc2":{"name":"GEERS Hörgeräte","locationSet":{"include":["de","pl"]},"geometry":["point","area"],"matchScore":2,"terms":["geers","geers hörakustik"],"tags":{"brand:wikidata":"Q1497707","shop":"hearing_aids"},"addTags":{"brand":"GEERS","brand:wikidata":"Q1497707","name":"GEERS Hörgeräte","shop":"hearing_aids"}},"shop/houseware/duka-699029":{"name":"Duka","locationSet":{"include":["pl"]},"geometry":["point","area"],"matchScore":2,"terms":["duka"],"tags":{"brand:wikidata":"Q20354074","shop":"houseware"},"addTags":{"brand":"Duka","brand:wikidata":"Q20354074","name":"Duka","shop":"houseware"}},"shop/jewelry/apart-0f1493":{"name":"Apart","locationSet":{"include":["pl"]},"geometry":["point","area"],"matchScore":2,"terms":["apart"],"tags":{"brand:wikidata":"Q11686561","shop":"jewelry"},"addTags":{"brand":"Apart","brand:wikidata":"Q11686561","name":"Apart","shop":"jewelry"}},"shop/kiosk/ruch-5bd120":{"name":"Ruch","locationSet":{"include":["pl"]},"geometry":["point","area"],"matchScore":2,"terms":["ruch"],"tags":{"brand:wikidata":"Q1260314","shop":"kiosk"},"addTags":{"brand":"Ruch","brand:wikidata":"Q1260314","name":"Ruch","shop":"kiosk"}},"shop/kitchen/ixina-d089d8":{"name":"Ixina","locationSet":{"include":["ae","au","be","bf","bh","bj","ca","ci","cm","cn","cz","dz","ee","eg","fr","gh","hr","ke","kw","lu","ly","ma","mu","nl","pl","qa","ro","ru","sa","se","sn","tg","th","tn","vn"]},"geometry":["point","area"],"matchScore":2,"terms":["ixina"],"tags":{"brand:wikidata":"Q3156424","shop":"kitchen"},"addTags":{"brand":"Ixina","brand:wikidata":"Q3156424","name":"Ixina","shop":"kitchen"}},"shop/medical_supply/pofampoznan-e709d7":{"name":"Pofam-Poznań","locationSet":{"include":["pl"]},"geometry":["point","area"],"matchScore":2,"terms":["pofam-poznań"],"tags":{"brand:wikidata":"Q62057457","shop":"medical_supply"},"addTags":{"brand":"Pofam-Poznań","brand:wikidata":"Q62057457","name":"Pofam-Poznań","shop":"medical_supply"}},"shop/mobile_phone/play-914a2a":{"name":"Play","locationSet":{"include":["pl"]},"geometry":["point","area"],"matchScore":2,"terms":["play"],"tags":{"brand:wikidata":"Q7202998","shop":"mobile_phone"},"addTags":{"brand":"Play","brand:wikidata":"Q7202998","name":"Play","shop":"mobile_phone"}},"shop/mobile_phone/plus-914a2a":{"name":"Plus","locationSet":{"include":["pl"]},"geometry":["point","area"],"matchScore":2,"terms":["plus"],"tags":{"brand:wikidata":"Q7205598","shop":"mobile_phone"},"addTags":{"brand":"Plus","brand:wikidata":"Q7205598","name":"Plus","shop":"mobile_phone"}},"shop/newsagent/kolporter-4bc172":{"name":"Kolporter","locationSet":{"include":["pl"]},"geometry":["point","area"],"matchScore":2,"terms":["kolporter"],"tags":{"brand:wikidata":"Q6427874","shop":"newsagent"},"addTags":{"brand":"Kolporter","brand:wikidata":"Q6427874","name":"Kolporter","shop":"newsagent"}},"shop/newsagent/ruch-4bc172":{"name":"Ruch","locationSet":{"include":["pl"]},"geometry":["point","area"],"matchScore":2,"terms":["ruch"],"tags":{"brand:wikidata":"Q1260314","shop":"newsagent"},"addTags":{"brand":"Ruch","brand:wikidata":"Q1260314","name":"Ruch","shop":"newsagent"}},"shop/optician/fielmann-f003f4":{"name":"fielmann","locationSet":{"include":["at","by","ch","de","it","lt","lu","lv","nl","pl","ru","ua"]},"geometry":["point","area"],"matchScore":2,"terms":["fielmann"],"tags":{"brand:wikidata":"Q457822","shop":"optician"},"addTags":{"brand":"Fielmann","brand:wikidata":"Q457822","name":"Fielmann","shop":"optician"}},"shop/outdoor/jackwolfskin-5feed5":{"name":"Jack Wolfskin","locationSet":{"include":["at","be","ch","de","fr","gb","it","nl","pl","ru","ua"]},"geometry":["point","area"],"matchScore":2,"terms":["jack wolfskin"],"tags":{"brand:wikidata":"Q536133","shop":"outdoor"},"addTags":{"brand":"Jack Wolfskin","brand:wikidata":"Q536133","name":"Jack Wolfskin","shop":"outdoor"}},"shop/outdoor/mountainwarehouse-19caf6":{"name":"Mountain Warehouse","locationSet":{"include":["at","ca","de","gb","ie","nz","pl","us"]},"geometry":["point","area"],"matchScore":2,"terms":["mountain warehouse"],"tags":{"brand:wikidata":"Q6925414","shop":"outdoor"},"addTags":{"brand":"Mountain Warehouse","brand:wikidata":"Q6925414","name":"Mountain Warehouse","shop":"outdoor"}},"shop/paint/brillux-7853a1":{"name":"Brillux","locationSet":{"include":["at","ch","de","it","nl","pl"]},"geometry":["point","area"],"matchScore":2,"terms":["brillux"],"tags":{"brand:wikidata":"Q917229","shop":"paint"},"addTags":{"brand":"Brillux","brand:wikidata":"Q917229","name":"Brillux","shop":"paint"}},"shop/perfumery/douglas-4a1f51":{"name":"Douglas","locationSet":{"include":["at","ch","cz","de","es","it","nl","pl","sk"]},"geometry":["point","area"],"matchScore":2,"terms":["douglas"],"tags":{"brand:wikidata":"Q2052213","shop":"perfumery"},"addTags":{"brand":"Douglas","brand:wikidata":"Q2052213","name":"Douglas","shop":"perfumery"}},"shop/pet/maxizoo-3e2920":{"name":"Maxi Zoo","locationSet":{"include":["be","ch","dk","fr","ie","it","pl"]},"geometry":["point","area"],"matchScore":2,"terms":["maxi zoo"],"tags":{"brand:wikidata":"Q108403242","shop":"pet"},"addTags":{"brand":"Maxi Zoo","brand:wikidata":"Q108403242","name":"Maxi Zoo","shop":"pet"}},"shop/shoes/officeshoes-30afef":{"name":"Office Shoes","locationSet":{"include":["al","ba","cz","hr","hu","me","pl","ro","rs","si","sk"]},"geometry":["point","area"],"matchScore":2,"terms":["office shoes"],"tags":{"brand:wikidata":"Q93946123","shop":"shoes"},"addTags":{"brand":"Office Shoes","brand:wikidata":"Q93946123","name":"Office Shoes","shop":"shoes"}},"shop/shoes/sizeer-a67893":{"name":"Sizeer","locationSet":{"include":["at","cz","de","hu","lt","pl","ro","sk"]},"geometry":["point","area"],"matchScore":2,"terms":["sizeer"],"tags":{"brand:wikidata":"Q93982889","shop":"shoes"},"addTags":{"brand":"Sizeer","brand:wikidata":"Q93982889","name":"Sizeer","shop":"shoes"}},"shop/shoes/wojas-db04aa":{"name":"Wojas","locationSet":{"include":["by","cz","pl","sk"]},"geometry":["point","area"],"matchScore":2,"terms":["wojas"],"tags":{"brand:wikidata":"Q9376325","shop":"shoes"},"addTags":{"brand":"Wojas","brand:wikidata":"Q9376325","name":"Wojas","shop":"shoes"}},"shop/sports/martessport-0527cb":{"name":"Martes Sport","locationSet":{"include":["pl"]},"geometry":["point","area"],"matchScore":2,"terms":["martes sport"],"tags":{"brand:wikidata":"Q62073490","shop":"sports"},"addTags":{"brand":"Martes Sport","brand:wikidata":"Q62073490","name":"Martes Sport","shop":"sports"}},"shop/sports/sporttiedje-b06acf":{"name":"Sport-Tiedje","locationSet":{"include":["at","be","ch","de","dk","fr","gb","nl","pl"]},"geometry":["point","area"],"matchScore":2,"terms":["sport-tiedje"],"tags":{"brand:wikidata":"Q15848204","shop":"sports"},"addTags":{"brand":"Sport-Tiedje","brand:wikidata":"Q15848204","name":"Sport-Tiedje","shop":"sports"}},"shop/supermarket/aldi-b5be76":{"name":"ALDI (ALDI Nord group)","locationSet":{"include":["be","dk","es","fr","lu","nl","pl","pt"],"exclude":["de"]},"geometry":["point","area"],"matchScore":2,"terms":["aldi"],"tags":{"brand:wikidata":"Q41171373","shop":"supermarket"},"addTags":{"brand":"ALDI","brand:wikidata":"Q41171373","name":"ALDI","shop":"supermarket"}},"shop/supermarket/auchan-925d9b":{"name":"Auchan","locationSet":{"include":["al","ad","ba","hr","gi","gr","va","it","mt","me","mk","pt","sm","rs","si","es","xk","by","bg","cz","hu","pl","md","ro","ru","sk","ua","at","be","fr","de","li","lu","mc","nl","ch","cn"],"exclude":["ru"]},"geometry":["point","area"],"matchScore":2,"terms":["auchan"],"tags":{"brand:wikidata":"Q758603","shop":"supermarket"},"addTags":{"brand":"Auchan","brand:wikidata":"Q758603","name":"Auchan","shop":"supermarket"}},"shop/supermarket/bi1-f962b8":{"name":"bi1","locationSet":{"include":["fr","pl"]},"geometry":["point","area"],"matchScore":2,"terms":["bi1"],"tags":{"brand:wikidata":"Q56325139","shop":"supermarket"},"addTags":{"brand":"bi1","brand:wikidata":"Q56325139","name":"bi1","shop":"supermarket"}},"shop/supermarket/biedronka-9e6a6c":{"name":"Biedronka","locationSet":{"include":["pl"]},"geometry":["point","area"],"matchScore":2,"terms":["biedronka"],"tags":{"brand:wikidata":"Q857182","shop":"supermarket"},"addTags":{"brand":"Biedronka","brand:wikidata":"Q857182","name":"Biedronka","shop":"supermarket"}},"shop/supermarket/billa-260f39":{"name":"Billa","locationSet":{"include":["by","bg","cz","hu","pl","md","ro","ru","sk","ua","at"]},"geometry":["point","area"],"matchScore":2,"terms":["billa"],"tags":{"brand:wikidata":"Q537781","shop":"supermarket"},"addTags":{"brand":"Billa","brand:wikidata":"Q537781","name":"Billa","shop":"supermarket"}},"shop/supermarket/centrecommercialeleclerc-f962b8":{"name":"Centre Commercial E. Leclerc","locationSet":{"include":["fr","pl"]},"geometry":["point","area"],"matchScore":2,"terms":["centre commercial e. leclerc"],"tags":{"brand:wikidata":"Q1273376","shop":"supermarket"},"addTags":{"brand":"Centre Commercial E. Leclerc","brand:wikidata":"Q1273376","name":"Centre Commercial E. Leclerc","shop":"supermarket"}},"shop/supermarket/chatapolska-9e6a6c":{"name":"Chata Polska","locationSet":{"include":["pl"]},"geometry":["point","area"],"matchScore":2,"terms":["chata polska"],"tags":{"brand:wikidata":"Q61994406","shop":"supermarket"},"addTags":{"brand":"Chata Polska","brand:wikidata":"Q61994406","name":"Chata Polska","shop":"supermarket"}},"shop/supermarket/delikatesycentrum-9e6a6c":{"name":"Delikatesy Centrum","locationSet":{"include":["pl"]},"geometry":["point","area"],"matchScore":2,"terms":["delikatesy centrum"],"tags":{"brand:wikidata":"Q11693824","shop":"supermarket"},"addTags":{"brand":"Delikatesy Centrum","brand:wikidata":"Q11693824","name":"Delikatesy Centrum","shop":"supermarket"}},"shop/supermarket/dino-9e6a6c":{"name":"Dino","locationSet":{"include":["pl"]},"geometry":["point","area"],"matchScore":2,"terms":["dino"],"tags":{"brand:wikidata":"Q11694239","shop":"supermarket"},"addTags":{"brand":"Dino","brand:wikidata":"Q11694239","name":"Dino","shop":"supermarket"}},"shop/supermarket/eleclerc-111b05":{"name":"E. Leclerc","locationSet":{"include":["es","fr","pl","pt"]},"geometry":["point","area"],"matchScore":2,"terms":["e. leclerc"],"tags":{"brand:wikidata":"Q1273376","shop":"supermarket"},"addTags":{"brand":"E. Leclerc","brand:wikidata":"Q1273376","name":"E. Leclerc","shop":"supermarket"}},"shop/supermarket/eko-9e6a6c":{"name":"Eko","locationSet":{"include":["pl"]},"geometry":["point","area"],"matchScore":2,"terms":["eko"],"tags":{"brand:wikidata":"Q9251859","shop":"supermarket"},"addTags":{"brand":"Eko","brand:wikidata":"Q9251859","name":"Eko","shop":"supermarket"}},"shop/supermarket/eurospar-4b5e11":{"name":"Eurospar","locationSet":{"include":["by","bg","cz","hu","pl","md","ro","ru","sk","ua","ax","gg","je","cq","dk","ee","fo","fi","is","ie","im","lv","lt","no","sj","se","gb","al","ad","ba","hr","gi","gr","va","it","mt","me","mk","pt","sm","rs","si","es","xk","at","be","fr","de","li","lu","mc","nl","ch"]},"geometry":["point","area"],"matchScore":2,"terms":["eurospar"],"tags":{"brand:wikidata":"Q12309283","shop":"supermarket"},"addTags":{"brand":"Eurospar","brand:wikidata":"Q12309283","name":"Eurospar","shop":"supermarket"}},"shop/supermarket/frac-9e6a6c":{"name":"FRAC","locationSet":{"include":["pl"]},"geometry":["point","area"],"matchScore":2,"terms":["frac"],"tags":{"brand:wikidata":"Q18817260","shop":"supermarket"},"addTags":{"brand":"FRAC","brand:wikidata":"Q18817260","name":"FRAC","shop":"supermarket"}},"shop/supermarket/groszek-9e6a6c":{"name":"Groszek","locationSet":{"include":["pl"]},"geometry":["point","area"],"matchScore":2,"terms":["groszek"],"tags":{"brand:wikidata":"Q9280965","shop":"supermarket"},"addTags":{"brand":"Groszek","brand:wikidata":"Q9280965","name":"Groszek","shop":"supermarket"}},"shop/supermarket/intermarchesuper-86bfe8":{"name":"Intermarché Super","locationSet":{"include":["be","fr","pl","pt"]},"geometry":["point","area"],"matchScore":2,"terms":["intermarché super"],"tags":{"brand:wikidata":"Q3153200","shop":"supermarket"},"addTags":{"brand":"Intermarché Super","brand:wikidata":"Q3153200","name":"Intermarché Super","shop":"supermarket"}},"shop/supermarket/kaufland-c3ebf9":{"name":"Kaufland","locationSet":{"include":["bg","cz","de","hr","pl","ro","sk"]},"geometry":["point","area"],"matchScore":2,"terms":["kaufland"],"tags":{"brand:wikidata":"Q685967","shop":"supermarket"},"addTags":{"brand":"Kaufland","brand:wikidata":"Q685967","name":"Kaufland","shop":"supermarket"}},"shop/supermarket/lewiatan-9e6a6c":{"name":"Lewiatan","locationSet":{"include":["pl"]},"geometry":["point","area"],"matchScore":2,"terms":["lewiatan"],"tags":{"brand:wikidata":"Q11755396","shop":"supermarket"},"addTags":{"brand":"Lewiatan","brand:wikidata":"Q11755396","name":"Lewiatan","shop":"supermarket"}},"shop/supermarket/maximaxx-48a198":{"name":"Maxima XX","locationSet":{"include":["ee","lt","lv","pl"]},"geometry":["point","area"],"matchScore":2,"terms":["maxima xx"],"tags":{"brand:wikidata":"Q1881222","shop":"supermarket"},"addTags":{"brand":"Maxima XX","brand:wikidata":"Q1881222","name":"Maxima XX","shop":"supermarket"}},"shop/supermarket/maximaxxx-48a198":{"name":"Maxima XXX","locationSet":{"include":["ee","lt","lv","pl"]},"geometry":["point","area"],"matchScore":2,"terms":["maxima","maxima xxx"],"tags":{"brand:wikidata":"Q1881222","shop":"supermarket"},"addTags":{"brand":"Maxima XXX","brand:wikidata":"Q1881222","name":"Maxima XXX","shop":"supermarket"}},"shop/supermarket/mila-9e6a6c":{"name":"Mila","locationSet":{"include":["pl"]},"geometry":["point","area"],"matchScore":2,"terms":["mila"],"tags":{"brand:wikidata":"Q48844636","shop":"supermarket"},"addTags":{"brand":"Mila","brand:wikidata":"Q48844636","name":"Mila","shop":"supermarket"}},"shop/supermarket/netto-e5945f":{"name":"Netto (Salling)","locationSet":{"include":["de","dk","pl","se"]},"geometry":["point","area"],"matchScore":2,"terms":["netto"],"tags":{"brand:wikidata":"Q552652","shop":"supermarket"},"addTags":{"brand":"Netto","brand:wikidata":"Q552652","name":"Netto","shop":"supermarket"}},"shop/supermarket/nomi-9e6a6c":{"name":"Nomi","locationSet":{"include":["pl"]},"geometry":["point","area"],"matchScore":2,"terms":["nomi"],"tags":{"brand:wikidata":"Q11792768","shop":"supermarket"},"addTags":{"brand":"Nomi","brand:wikidata":"Q11792768","name":"Nomi","shop":"supermarket"}},"shop/supermarket/piotripawel-9e6a6c":{"name":"Piotr i Paweł","locationSet":{"include":["pl"]},"geometry":["point","area"],"matchScore":2,"terms":["piotr i paweł"],"tags":{"brand:wikidata":"Q2096356","shop":"supermarket"},"addTags":{"brand":"Piotr i Paweł","brand:wikidata":"Q2096356","name":"Piotr i Paweł","shop":"supermarket"}},"shop/supermarket/polomarket-9e6a6c":{"name":"POLOmarket","locationSet":{"include":["pl"]},"geometry":["point","area"],"matchScore":2,"terms":["polomarket"],"tags":{"brand:wikidata":"Q11821937","shop":"supermarket"},"addTags":{"brand":"POLOmarket","brand:wikidata":"Q11821937","name":"POLOmarket","shop":"supermarket"}},"shop/supermarket/supermarketslawex-9e6a6c":{"name":"SLAWEX","locationSet":{"include":["pl"]},"geometry":["point","area"],"matchScore":2,"terms":["slawex"],"tags":{"brand:wikidata":"Q110801396","shop":"supermarket"},"addTags":{"brand":"SLAWEX","brand:wikidata":"Q110801396","name":"Supermarket SLAWEX","shop":"supermarket"}},"shop/supermarket/stokrotka-9e6a6c":{"name":"Stokrotka","locationSet":{"include":["pl"]},"geometry":["point","area"],"matchScore":2,"terms":["stokrotka"],"tags":{"brand:wikidata":"Q9345945","shop":"supermarket"},"addTags":{"brand":"Stokrotka","brand:wikidata":"Q9345945","name":"Stokrotka","shop":"supermarket"}},"shop/supermarket/stokrotkamarket-9e6a6c":{"name":"Stokrotka Market","locationSet":{"include":["pl"]},"geometry":["point","area"],"matchScore":2,"terms":["stokrotka market"],"tags":{"brand:wikidata":"Q110801183","shop":"supermarket"},"addTags":{"brand":"Stokrotka Market","brand:wikidata":"Q110801183","name":"Stokrotka Market","shop":"supermarket"}},"shop/supermarket/stokrotkaoptima-9e6a6c":{"name":"Stokrotka Optima","locationSet":{"include":["pl"]},"geometry":["point","area"],"matchScore":2,"terms":["stokrotka optima"],"tags":{"brand:wikidata":"Q110801045","shop":"supermarket"},"addTags":{"brand":"Stokrotka Optima","brand:wikidata":"Q110801045","name":"Stokrotka Optima","shop":"supermarket"}},"shop/supermarket/topmarket-9e6a6c":{"name":"Top Market","locationSet":{"include":["pl"]},"geometry":["point","area"],"matchScore":2,"terms":["top market"],"tags":{"brand:wikidata":"Q9360044","shop":"supermarket"},"addTags":{"brand":"Top Market","brand:wikidata":"Q9360044","name":"Top Market","shop":"supermarket"}},"shop/supermarket/topaz-9e6a6c":{"name":"Topaz","locationSet":{"include":["pl"]},"geometry":["point","area"],"matchScore":2,"terms":["topaz"],"tags":{"brand:wikidata":"Q11837058","shop":"supermarket"},"addTags":{"brand":"Topaz","brand:wikidata":"Q11837058","name":"Topaz","shop":"supermarket"}},"shop/tool_hire/boels-d0c09f":{"name":"Boels","locationSet":{"include":["at","be","ch","cz","de","gb","it","lu","nl","pl","sk"]},"geometry":["point","area"],"matchScore":2,"terms":["boels","boels rental"],"tags":{"brand:wikidata":"Q19901961","shop":"tool_hire"},"addTags":{"brand":"Boels","brand:wikidata":"Q19901961","name":"Boels","shop":"tool_hire"}},"shop/tool_hire/kiloutou-d6c674":{"name":"Kiloutou","locationSet":{"include":["de","es","fr","it","pl"]},"geometry":["point","area"],"matchScore":2,"terms":["kiloutou"],"tags":{"brand:wikidata":"Q3196672","shop":"tool_hire"},"addTags":{"brand":"Kiloutou","brand:wikidata":"Q3196672","name":"Kiloutou","shop":"tool_hire"}},"shop/tool_hire/loxam-33fef8":{"name":"Loxam","locationSet":{"include":["ae","be","bh","br","ch","co","cz","de","dk","ee","es","fi","fr","gb","ie","it","kw","lt","lu","lv","ma","nl","no","om","pl","pt","qa","sa","se","sk"]},"geometry":["point","area"],"matchScore":2,"terms":["loxam"],"tags":{"brand:wikidata":"Q3264407","shop":"tool_hire"},"addTags":{"brand":"Loxam","brand:wikidata":"Q3264407","name":"Loxam","shop":"tool_hire"}},"shop/toys/smyk-3d0b80":{"name":"Smyk","locationSet":{"include":["pl","ro","ua"]},"geometry":["point","area"],"matchScore":2,"terms":["smyk"],"tags":{"brand:wikidata":"Q2295606","shop":"toys"},"addTags":{"brand":"Smyk","brand:wikidata":"Q2295606","name":"Smyk","shop":"toys"}},"shop/travel_agency/coraltravel-45eb20":{"name":"Coral Travel","locationSet":{"include":["pl","ru","ua"]},"geometry":["point","area"],"matchScore":2,"terms":["coral travel"],"tags":{"brand:wikidata":"Q58011479","shop":"travel_agency"},"addTags":{"brand":"Coral Travel","brand:wikidata":"Q58011479","name":"Coral Travel","shop":"travel_agency"}},"shop/variety_store/action-98734c":{"name":"Action","locationSet":{"include":["at","be","cz","de","fr","it","lu","nl","pl"]},"geometry":["point","area"],"matchScore":2,"terms":["action"],"tags":{"brand:wikidata":"Q2634111","shop":"variety_store"},"addTags":{"brand":"Action","brand:wikidata":"Q2634111","name":"Action","shop":"variety_store"}},"shop/variety_store/dealz-01f38b":{"name":"Dealz","locationSet":{"include":["es","ie","pl"]},"geometry":["point","area"],"matchScore":2,"terms":["dealz"],"tags":{"brand:wikidata":"Q16942585","shop":"variety_store"},"addTags":{"brand":"Dealz","brand:wikidata":"Q16942585","name":"Dealz","shop":"variety_store"}},"shop/variety_store/flyingtigercopenhagen-37d726":{"name":"Flying Tiger Copenhagen","locationSet":{"include":["at","be","ch","cy","cz","de","dk","ee","es","fi","fr","gb","gr","hu","ie","is","it","jp","kr","lt","lv","mt","nl","no","pl","pt","se","sk"]},"geometry":["point","area"],"matchScore":2,"terms":["flying tiger","flying tiger copenhagen","tgr","tiger"],"tags":{"brand:wikidata":"Q2786319","shop":"variety_store"},"addTags":{"brand":"Flying Tiger Copenhagen","brand:wikidata":"Q2786319","name":"Flying Tiger Copenhagen","shop":"variety_store","short_name":"Flying Tiger"}},"shop/wholesale/selgroscashandcarry-8ea7cd":{"name":"SELGROS cash & carry","locationSet":{"include":["de","pl","ro","ru"]},"geometry":["point","area"],"matchScore":2,"terms":["selgros","selgros cash & carry"],"tags":{"brand:wikidata":"Q473918","shop":"wholesale"},"addTags":{"brand":"SELGROS cash & carry","brand:wikidata":"Q473918","name":"SELGROS cash & carry","shop":"wholesale","short_name":"SELGROS"}},"tourism/hostel/aando-a930a5":{"name":"A&O","locationSet":{"include":["at","cz","de","dk","hu","it","nl","pl","uk"]},"geometry":["point","area"],"matchScore":2,"terms":["a&o"],"fields":["name","brand","{tourism/hostel}"],"tags":{"brand:wikidata":"Q15890910","tourism":"hostel"},"addTags":{"brand":"A&O","brand:wikidata":"Q15890910","name":"A&O","tourism":"hostel"}},"tourism/hotel/aando-7ebc01":{"name":"A&O","locationSet":{"include":["at","cz","de","dk","hu","it","nl","pl","uk"]},"geometry":["point","area"],"matchScore":2,"terms":["a&o"],"fields":["name","brand","{tourism/hotel}"],"tags":{"brand:wikidata":"Q15890910","tourism":"hotel"},"addTags":{"brand":"A&O","brand:wikidata":"Q15890910","name":"A&O","tourism":"hotel"}},"tourism/hotel/bandbhotel-fc8c2c":{"name":"B&B Hotel","locationSet":{"include":["by","bg","cz","hu","pl","md","ro","ru","sk","ua","ax","gg","je","cq","dk","ee","fo","fi","is","ie","im","lv","lt","no","sj","se","gb","al","ad","ba","hr","gi","gr","va","it","mt","me","mk","pt","sm","rs","si","es","xk","at","be","fr","de","li","lu","mc","nl","ch","br"]},"geometry":["point","area"],"matchScore":2,"terms":["b&b hotels"],"fields":["name","brand","{tourism/hotel}"],"tags":{"brand:wikidata":"Q794939","tourism":"hotel"},"addTags":{"brand":"B&B Hotels","brand:wikidata":"Q794939","name":"B&B Hotel","tourism":"hotel"}},"tourism/hotel/leonardoroyal-b40680":{"name":"Leonardo Royal","locationSet":{"include":["de","it","nl","pl"]},"geometry":["point","area"],"matchScore":2,"terms":["leonardo royal"],"fields":["name","brand","{tourism/hotel}"],"tags":{"brand:wikidata":"Q1819101","tourism":"hotel"},"addTags":{"brand":"Leonardo Royal","brand:wikidata":"Q1819101","name":"Leonardo Royal","tourism":"hotel"}},"tourism/hotel/motelone-046fe6":{"name":"Motel One","locationSet":{"include":["by","bg","cz","hu","pl","md","ro","ru","sk","ua","ax","gg","je","cq","dk","ee","fo","fi","is","ie","im","lv","lt","no","sj","se","gb","al","ad","ba","hr","gi","gr","va","it","mt","me","mk","pt","sm","rs","si","es","xk","at","be","fr","de","li","lu","mc","nl","ch"]},"geometry":["point","area"],"matchScore":2,"terms":["motel one"],"fields":["name","brand","{tourism/hotel}"],"tags":{"brand:wikidata":"Q391080","tourism":"hotel"},"addTags":{"brand":"Motel One","brand:wikidata":"Q391080","name":"Motel One","tourism":"hotel"}},"tourism/hotel/qubus-e2655f":{"name":"Qubus","locationSet":{"include":["pl"]},"geometry":["point","area"],"matchScore":2,"terms":["qubus","qubus hotel"],"fields":["name","brand","{tourism/hotel}"],"tags":{"brand:wikidata":"Q11832868","tourism":"hotel"},"addTags":{"brand":"Qubus","brand:wikidata":"Q11832868","name":"Qubus","official_name":"Qubus Hotel","tourism":"hotel"}},"tourism/hotel/raffles-771760":{"name":"Raffles","locationSet":{"include":["ae","bh","cn","fr","gb","id","in","kh","mv","ph","pl","qa","ru","sa","sc","sg","us"]},"geometry":["point","area"],"matchScore":2,"terms":["raffles"],"fields":["name","brand","{tourism/hotel}"],"tags":{"brand:wikidata":"Q4306661","tourism":"hotel"},"addTags":{"brand":"Raffles","brand:wikidata":"Q4306661","name":"Raffles","tourism":"hotel"}},"tourism/hotel/scandichotels-f8f452":{"name":"Scandic Hotels","locationSet":{"include":["de","dk","fi","no","pl","se"]},"geometry":["point","area"],"matchScore":2,"terms":["scandic hotels"],"fields":["name","brand","{tourism/hotel}"],"tags":{"brand:wikidata":"Q129391","tourism":"hotel"},"addTags":{"brand":"Scandic Hotels","brand:wikidata":"Q129391","name":"Scandic Hotels","tourism":"hotel"}},"amenity/charging_station/eon-7f623e":{"name":"E.ON","locationSet":{"include":["by","bg","cz","hu","pl","md","ro","ru","sk","ua","ax","gg","je","cq","dk","ee","fo","fi","is","ie","im","lv","lt","no","sj","se","gb","al","ad","ba","hr","gi","gr","va","it","mt","me","mk","pt","sm","rs","si","es","xk","at","be","fr","de","li","lu","mc","nl","ch"]},"geometry":["point","area"],"matchScore":2,"terms":["e-on drive","e.on"],"fields":["name","operator","{amenity/charging_station}"],"tags":{"amenity":"charging_station","operator:wikidata":"Q270223"},"addTags":{"amenity":"charging_station","operator":"E.ON","operator:wikidata":"Q270223"}},"amenity/charging_station/energa-392011":{"name":"Energa","locationSet":{"include":["pl"]},"geometry":["point","area"],"matchScore":2,"terms":["energa"],"fields":["name","operator","{amenity/charging_station}"],"tags":{"amenity":"charging_station","operator:wikidata":"Q9253957"},"addTags":{"amenity":"charging_station","operator":"Energa","operator:wikidata":"Q9253957"}},"amenity/charging_station/evbox-7f623e":{"name":"EVBOX","locationSet":{"include":["by","bg","cz","hu","pl","md","ro","ru","sk","ua","ax","gg","je","cq","dk","ee","fo","fi","is","ie","im","lv","lt","no","sj","se","gb","al","ad","ba","hr","gi","gr","va","it","mt","me","mk","pt","sm","rs","si","es","xk","at","be","fr","de","li","lu","mc","nl","ch"]},"geometry":["point","area"],"matchScore":2,"terms":["evbox"],"fields":["name","operator","{amenity/charging_station}"],"tags":{"amenity":"charging_station","operator:wikidata":"Q28406392"},"addTags":{"amenity":"charging_station","operator":"EVBOX","operator:wikidata":"Q28406392"}},"amenity/charging_station/orlen-392011":{"name":"Orlen","locationSet":{"include":["pl"]},"geometry":["point","area"],"matchScore":2,"terms":["orlen"],"fields":["name","operator","{amenity/charging_station}"],"tags":{"amenity":"charging_station","operator:wikidata":"Q971649"},"addTags":{"amenity":"charging_station","operator":"Orlen","operator:wikidata":"Q971649"}},"amenity/charging_station/qpark-7f623e":{"name":"Q-Park","locationSet":{"include":["by","bg","cz","hu","pl","md","ro","ru","sk","ua","ax","gg","je","cq","dk","ee","fo","fi","is","ie","im","lv","lt","no","sj","se","gb","al","ad","ba","hr","gi","gr","va","it","mt","me","mk","pt","sm","rs","si","es","xk","at","be","fr","de","li","lu","mc","nl","ch"]},"geometry":["point","area"],"matchScore":2,"terms":["q-park"],"fields":["name","operator","{amenity/charging_station}"],"tags":{"amenity":"charging_station","operator:wikidata":"Q1127798"},"addTags":{"amenity":"charging_station","operator":"Q-Park","operator:wikidata":"Q1127798"}},"amenity/charging_station/tauron-392011":{"name":"Tauron","locationSet":{"include":["pl"]},"geometry":["point","area"],"matchScore":2,"terms":["tauron"],"fields":["name","operator","{amenity/charging_station}"],"tags":{"amenity":"charging_station","operator:wikidata":"Q2397198"},"addTags":{"amenity":"charging_station","operator":"Tauron","operator:wikidata":"Q2397198"}},"amenity/fire_station/panstwowastrazpozarna-a9e71c":{"name":"Państwowa Straż Pożarna","locationSet":{"include":["pl"]},"geometry":["point","area"],"matchScore":2,"terms":["państwowa straż pożarna","psp"],"tags":{"amenity":"fire_station","operator:wikidata":"Q11815208"},"addTags":{"amenity":"fire_station","operator":"Państwowa Straż Pożarna","operator:wikidata":"Q11815208"}},"amenity/parking/apcoaparking-e752ad":{"name":"Apcoa Parking","locationSet":{"include":["at","be","ch","de","dk","gb","ie","it","nl","no","pl","se"]},"geometry":["area","point","vertex"],"matchScore":2,"terms":["apcoa parking"],"fields":["name","operator","{amenity/parking}"],"tags":{"amenity":"parking","operator:wikidata":"Q296108"},"addTags":{"amenity":"parking","operator":"APCOA Parking","operator:wikidata":"Q296108"}},"amenity/police/policja-821ef5":{"name":"Policja","locationSet":{"include":["pl"]},"geometry":["point","area"],"matchScore":2,"terms":["policja"],"tags":{"amenity":"police","operator:wikidata":"Q622532"},"addTags":{"amenity":"police","operator":"Policja","operator:wikidata":"Q622532"}},"amenity/post_box/inpost-01d69e":{"name":"InPost","locationSet":{"include":["pl"]},"geometry":["point","vertex"],"matchScore":2,"terms":["inpost"],"tags":{"amenity":"post_box","operator:wikidata":"Q3182097"},"addTags":{"amenity":"post_box","operator":"InPost","operator:wikidata":"Q3182097"}},"amenity/post_box/pocztapolska-01d69e":{"name":"Poczta Polska","locationSet":{"include":["pl"]},"geometry":["point","vertex"],"matchScore":2,"terms":["poczta","poczta polska","poczta polska sa"],"tags":{"amenity":"post_box","operator:wikidata":"Q168833"},"addTags":{"amenity":"post_box","operator":"Poczta Polska","operator:wikidata":"Q168833"}},"amenity/post_office/inpost-504b8a":{"name":"InPost","locationSet":{"include":["pl"]},"geometry":["point","area"],"matchScore":2,"terms":["inpost"],"fields":["name","operator","{amenity/post_office}"],"tags":{"amenity":"post_office","operator:wikidata":"Q3182097"},"addTags":{"amenity":"post_office","operator":"InPost","operator:wikidata":"Q3182097"}},"amenity/post_office/pocztapolska-504b8a":{"name":"Poczta Polska","locationSet":{"include":["pl"]},"geometry":["point","area"],"matchScore":2,"terms":["poczta","poczta polska","poczta polska sa"],"fields":["name","operator","{amenity/post_office}"],"tags":{"amenity":"post_office","operator:wikidata":"Q168833"},"addTags":{"amenity":"post_office","operator":"Poczta Polska","operator:wikidata":"Q168833"}},"amenity/school/gminaprzemysl-83282a":{"name":"Gmina Przemyśl","locationSet":{"include":["pl"]},"geometry":["area","point"],"matchScore":2,"terms":["gmina przemyśl"],"tags":{"amenity":"school","operator:wikidata":"Q2325412"},"addTags":{"amenity":"school","operator":"Gmina Przemyśl","operator:type":"public","operator:wikidata":"Q2325412"}},"amenity/toilets/sanifairgmbh-99935b":{"name":"SANIFAIR","locationSet":{"include":["at","cz","de","nl","pl"]},"geometry":["point","vertex","area"],"matchScore":2,"terms":["sanifair","sanifair gmbh"],"tags":{"amenity":"toilets","operator:wikidata":"Q104814416"},"addTags":{"access":"yes","amenity":"toilets","brand":"SANIFAIR","operator":"SANIFAIR GmbH","operator:wikidata":"Q104814416"}},"emergency/phone/autostradawielkopolska-cf0612":{"name":"Autostrada Wielkopolska","locationSet":{"include":["pl"]},"geometry":["point","vertex"],"matchScore":2,"terms":["autostrada wielkopolska"],"tags":{"emergency":"phone","operator:wikidata":"Q13404090"},"addTags":{"emergency":"phone","operator":"Autostrada Wielkopolska","operator:wikidata":"Q13404090"}},"leisure/nature_reserve/pgllp-34905d":{"name":"PGL LP","locationSet":{"include":["pl"]},"geometry":["area","point"],"matchScore":2,"terms":["pgl lp"],"tags":{"leisure":"nature_reserve","operator:wikidata":"Q7603225"},"addTags":{"leisure":"nature_reserve","operator":"PGL LP","operator:type":"public","operator:wikidata":"Q7603225"}},"leisure/park/pgllp-d6816a":{"name":"PGL LP","locationSet":{"include":["pl"]},"geometry":["area","point"],"matchScore":2,"terms":["pgl lp"],"tags":{"leisure":"park","operator:wikidata":"Q7603225"},"addTags":{"leisure":"park","operator":"PGL LP","operator:type":"public","operator:wikidata":"Q7603225"}},"power/generator/innogy-16c9d0":{"name":"Innogy","locationSet":{"include":["by","bg","cz","hu","pl","md","ro","ru","sk","ua","ax","gg","je","cq","dk","ee","fo","fi","is","ie","im","lv","lt","no","sj","se","gb","al","ad","ba","hr","gi","gr","va","it","mt","me","mk","pt","sm","rs","si","es","xk","at","be","fr","de","li","lu","mc","nl","ch"]},"geometry":["point","vertex","area"],"matchScore":2,"terms":["innogy"],"tags":{"operator:wikidata":"Q2124721","power":"generator"},"addTags":{"operator":"Innogy","operator:wikidata":"Q2124721","power":"generator"}},"power/generator/orlen-c79aa4":{"name":"Orlen","locationSet":{"include":["pl"]},"geometry":["point","vertex","area"],"matchScore":2,"terms":["orlen"],"tags":{"operator:wikidata":"Q971649","power":"generator"},"addTags":{"operator":"Orlen","operator:wikidata":"Q971649","power":"generator"}},"power/generator/pge-c79aa4":{"name":"PGE","locationSet":{"include":["pl"]},"geometry":["point","vertex","area"],"matchScore":2,"terms":["pge","pge polska grupa energetyczna s.a."],"tags":{"operator:wikidata":"Q787714","power":"generator"},"addTags":{"operator":"PGE","operator:wikidata":"Q787714","power":"generator"}},"power/generator/prokon-8248fb":{"name":"Prokon","locationSet":{"include":["de","pl"]},"geometry":["point","vertex","area"],"matchScore":2,"terms":["prokon","prokon energiesysteme gmbh"],"tags":{"operator:wikidata":"Q2112553","power":"generator"},"addTags":{"operator":"Prokon","operator:wikidata":"Q2112553","power":"generator"}},"power/generator/rwe-16c9d0":{"name":"RWE","locationSet":{"include":["by","bg","cz","hu","pl","md","ro","ru","sk","ua","ax","gg","je","cq","dk","ee","fo","fi","is","ie","im","lv","lt","no","sj","se","gb","al","ad","ba","hr","gi","gr","va","it","mt","me","mk","pt","sm","rs","si","es","xk","at","be","fr","de","li","lu","mc","nl","ch"]},"geometry":["point","vertex","area"],"matchScore":2,"terms":["rwe"],"tags":{"operator:wikidata":"Q138133","power":"generator"},"addTags":{"operator":"RWE","operator:wikidata":"Q138133","power":"generator"}},"power/generator/statkraft-16c9d0":{"name":"Statkraft","locationSet":{"include":["by","bg","cz","hu","pl","md","ro","ru","sk","ua","ax","gg","je","cq","dk","ee","fo","fi","is","ie","im","lv","lt","no","sj","se","gb","al","ad","ba","hr","gi","gr","va","it","mt","me","mk","pt","sm","rs","si","es","xk","at","be","fr","de","li","lu","mc","nl","ch"]},"geometry":["point","vertex","area"],"matchScore":2,"terms":["statkraft"],"tags":{"operator:wikidata":"Q1681145","power":"generator"},"addTags":{"operator":"Statkraft","operator:wikidata":"Q1681145","power":"generator"}},"power/generator/tauronekoenergiaspzoo-c79aa4":{"name":"TAURON Ekoenergia Sp. z o.o.","locationSet":{"include":["pl"]},"geometry":["point","vertex","area"],"matchScore":2,"terms":["tauron ekoenergia sp. z o.o."],"tags":{"operator:wikidata":"Q9355892","power":"generator"},"addTags":{"operator":"TAURON Ekoenergia Sp. z o.o.","operator:wikidata":"Q9355892","power":"generator"}},"power/generator/uniper-16c9d0":{"name":"Uniper","locationSet":{"include":["by","bg","cz","hu","pl","md","ro","ru","sk","ua","ax","gg","je","cq","dk","ee","fo","fi","is","ie","im","lv","lt","no","sj","se","gb","al","ad","ba","hr","gi","gr","va","it","mt","me","mk","pt","sm","rs","si","es","xk","at","be","fr","de","li","lu","mc","nl","ch"]},"geometry":["point","vertex","area"],"matchScore":2,"terms":["uniper"],"tags":{"operator:wikidata":"Q19839259","power":"generator"},"addTags":{"operator":"Uniper","operator:wikidata":"Q19839259","power":"generator"}},"power/line/ceps-f6b6f1":{"name":"ČEPS","locationSet":{"include":["cz","de","pl","sk"]},"geometry":["line"],"matchScore":2,"terms":["čeps"],"tags":{"operator:wikidata":"Q11089927","power":"line"},"addTags":{"operator":"ČEPS","operator:wikidata":"Q11089927","power":"line"}},"power/line/enea-dffc4e":{"name":"Enea","locationSet":{"include":["pl"]},"geometry":["line"],"matchScore":2,"terms":["enea","enea operator","enea operator sp. z o.o."],"tags":{"operator:wikidata":"Q1341068","power":"line"},"addTags":{"operator":"Enea","operator:wikidata":"Q1341068","power":"line"}},"power/line/energa-dffc4e":{"name":"Energa","locationSet":{"include":["pl"]},"geometry":["line"],"matchScore":2,"terms":["energa","energa operator","energa operator oddział toruń"],"tags":{"operator:wikidata":"Q9253957","power":"line"},"addTags":{"operator":"Energa","operator:wikidata":"Q9253957","power":"line"}},"power/line/pgedystrybucja-dffc4e":{"name":"PGE Dystrybucja","locationSet":{"include":["pl"]},"geometry":["line"],"matchScore":2,"terms":["pge dystrybucja","pge dystrybucja o/warszawa","pge dystrybucja s.a. oddział rzeszów"],"tags":{"operator:wikidata":"Q787714","power":"line"},"addTags":{"operator":"PGE Dystrybucja","operator:wikidata":"Q787714","power":"line"}},"power/line/polskiesiecielektroenergetycznesa-dffc4e":{"name":"Polskie Sieci Elektroenergetyczne S.A.","locationSet":{"include":["pl"]},"geometry":["line"],"matchScore":2,"terms":["polskie sieci elektroenergetyczne s.a."],"tags":{"operator:wikidata":"Q1749435","power":"line"},"addTags":{"operator":"Polskie Sieci Elektroenergetyczne S.A.","operator:wikidata":"Q1749435","power":"line"}},"power/line/pse-dffc4e":{"name":"PSE","locationSet":{"include":["pl"]},"geometry":["line"],"matchScore":2,"terms":["pse","pse operator","pse operator oddział bydgoszcz","pse s.a."],"tags":{"operator:wikidata":"Q1749435","power":"line"},"addTags":{"operator":"PSE","operator:wikidata":"Q1749435","power":"line"}},"power/line/tauron-dffc4e":{"name":"Tauron","locationSet":{"include":["pl"]},"geometry":["line"],"matchScore":2,"terms":["tauron","tauron dystrybucja","tauron dystrybucja s.a.","tauron dystrybucja s.a. oddział w częstochowie","tauron dystrybucja s.a. oddział w krakowie"],"tags":{"operator:wikidata":"Q2397198","power":"line"},"addTags":{"operator":"Tauron","operator:wikidata":"Q2397198","power":"line"}},"power/minor_line/ceps-43d40b":{"name":"ČEPS","locationSet":{"include":["cz","de","pl","sk"]},"geometry":["line"],"matchScore":2,"terms":["čeps"],"tags":{"operator:wikidata":"Q11089927","power":"minor_line"},"addTags":{"operator":"ČEPS","operator:wikidata":"Q11089927","power":"minor_line"}},"power/minor_line/enea-8d0004":{"name":"Enea","locationSet":{"include":["pl"]},"geometry":["line"],"matchScore":2,"terms":["enea","enea operator","enea operator sp. z o.o."],"tags":{"operator:wikidata":"Q1341068","power":"minor_line"},"addTags":{"operator":"Enea","operator:wikidata":"Q1341068","power":"minor_line"}},"power/minor_line/energa-8d0004":{"name":"Energa","locationSet":{"include":["pl"]},"geometry":["line"],"matchScore":2,"terms":["energa","energa operator","energa operator oddział toruń"],"tags":{"operator:wikidata":"Q9253957","power":"minor_line"},"addTags":{"operator":"Energa","operator:wikidata":"Q9253957","power":"minor_line"}},"power/minor_line/pgedystrybucja-8d0004":{"name":"PGE Dystrybucja","locationSet":{"include":["pl"]},"geometry":["line"],"matchScore":2,"terms":["pge dystrybucja","pge dystrybucja o/warszawa","pge dystrybucja s.a. oddział rzeszów"],"tags":{"operator:wikidata":"Q787714","power":"minor_line"},"addTags":{"operator":"PGE Dystrybucja","operator:wikidata":"Q787714","power":"minor_line"}},"power/minor_line/polskiesiecielektroenergetycznesa-8d0004":{"name":"Polskie Sieci Elektroenergetyczne S.A.","locationSet":{"include":["pl"]},"geometry":["line"],"matchScore":2,"terms":["polskie sieci elektroenergetyczne s.a."],"tags":{"operator:wikidata":"Q1749435","power":"minor_line"},"addTags":{"operator":"Polskie Sieci Elektroenergetyczne S.A.","operator:wikidata":"Q1749435","power":"minor_line"}},"power/minor_line/pse-8d0004":{"name":"PSE","locationSet":{"include":["pl"]},"geometry":["line"],"matchScore":2,"terms":["pse","pse operator","pse operator oddział bydgoszcz","pse s.a."],"tags":{"operator:wikidata":"Q1749435","power":"minor_line"},"addTags":{"operator":"PSE","operator:wikidata":"Q1749435","power":"minor_line"}},"power/minor_line/tauron-8d0004":{"name":"Tauron","locationSet":{"include":["pl"]},"geometry":["line"],"matchScore":2,"terms":["tauron","tauron dystrybucja","tauron dystrybucja s.a.","tauron dystrybucja s.a. oddział w częstochowie","tauron dystrybucja s.a. oddział w krakowie"],"tags":{"operator:wikidata":"Q2397198","power":"minor_line"},"addTags":{"operator":"Tauron","operator:wikidata":"Q2397198","power":"minor_line"}},"power/plant/pgepolskagrupaenergetycznasa-73b00d":{"name":"PGE Polska Grupa Energetyczna S.A.","locationSet":{"include":["pl"]},"geometry":["area"],"matchScore":2,"terms":["pge","pge polska grupa energetyczna s.a."],"tags":{"operator:wikidata":"Q787714","power":"plant"},"addTags":{"operator":"PGE Polska Grupa Energetyczna S.A.","operator:short":"PGE","operator:wikidata":"Q787714","power":"plant"}},"power/plant/tauronekoenergiaspzoo-73b00d":{"name":"TAURON Ekoenergia Sp. z o.o.","locationSet":{"include":["pl"]},"geometry":["area"],"matchScore":2,"terms":["tauron ekoenergia sp. z o.o."],"tags":{"operator:wikidata":"Q9355892","power":"plant"},"addTags":{"operator":"TAURON Ekoenergia Sp. z o.o.","operator:wikidata":"Q9355892","power":"plant"}},"power/plant/vattenfall-482654":{"name":"Vattenfall","locationSet":{"include":["dk","fi","gb","nl","pl","se"]},"geometry":["area"],"matchScore":2,"terms":["vattenfall","vattenfall ab"],"tags":{"operator:wikidata":"Q157675","power":"plant"},"addTags":{"operator":"Vattenfall","operator:wikidata":"Q157675","power":"plant"}},"power/pole/ceps-cbe952":{"name":"ČEPS","locationSet":{"include":["cz","de","pl","sk"]},"geometry":["point","vertex"],"matchScore":2,"terms":["čeps"],"tags":{"operator:wikidata":"Q11089927","power":"pole"},"addTags":{"operator":"ČEPS","operator:wikidata":"Q11089927","power":"pole"}},"power/pole/enea-7d29f7":{"name":"Enea","locationSet":{"include":["pl"]},"geometry":["point","vertex"],"matchScore":2,"terms":["enea","enea operator","enea operator sp. z o.o."],"tags":{"operator:wikidata":"Q1341068","power":"pole"},"addTags":{"operator":"Enea","operator:wikidata":"Q1341068","power":"pole"}},"power/pole/energa-7d29f7":{"name":"Energa","locationSet":{"include":["pl"]},"geometry":["point","vertex"],"matchScore":2,"terms":["energa","energa operator","energa operator oddział toruń"],"tags":{"operator:wikidata":"Q9253957","power":"pole"},"addTags":{"operator":"Energa","operator:wikidata":"Q9253957","power":"pole"}},"power/pole/pgedystrybucja-7d29f7":{"name":"PGE Dystrybucja","locationSet":{"include":["pl"]},"geometry":["point","vertex"],"matchScore":2,"terms":["pge dystrybucja","pge dystrybucja o/warszawa","pge dystrybucja s.a. oddział rzeszów"],"tags":{"operator:wikidata":"Q787714","power":"pole"},"addTags":{"operator":"PGE Dystrybucja","operator:wikidata":"Q787714","power":"pole"}},"power/pole/polskiesiecielektroenergetycznesa-7d29f7":{"name":"Polskie Sieci Elektroenergetyczne S.A.","locationSet":{"include":["pl"]},"geometry":["point","vertex"],"matchScore":2,"terms":["polskie sieci elektroenergetyczne s.a."],"tags":{"operator:wikidata":"Q1749435","power":"pole"},"addTags":{"operator":"Polskie Sieci Elektroenergetyczne S.A.","operator:wikidata":"Q1749435","power":"pole"}},"power/pole/pse-7d29f7":{"name":"PSE","locationSet":{"include":["pl"]},"geometry":["point","vertex"],"matchScore":2,"terms":["pse","pse operator","pse operator oddział bydgoszcz","pse s.a."],"tags":{"operator:wikidata":"Q1749435","power":"pole"},"addTags":{"operator":"PSE","operator:wikidata":"Q1749435","power":"pole"}},"power/pole/tauron-7d29f7":{"name":"Tauron","locationSet":{"include":["pl"]},"geometry":["point","vertex"],"matchScore":2,"terms":["tauron","tauron dystrybucja","tauron dystrybucja s.a.","tauron dystrybucja s.a. oddział w częstochowie","tauron dystrybucja s.a. oddział w krakowie"],"tags":{"operator:wikidata":"Q2397198","power":"pole"},"addTags":{"operator":"Tauron","operator:wikidata":"Q2397198","power":"pole"}},"power/substation/ceps-fdda90":{"name":"ČEPS","locationSet":{"include":["cz","de","pl","sk"]},"geometry":["area","point"],"matchScore":2,"terms":["čeps"],"tags":{"operator:wikidata":"Q11089927","power":"substation"},"addTags":{"operator":"ČEPS","operator:wikidata":"Q11089927","power":"substation"}},"power/substation/enea-83e94a":{"name":"Enea","locationSet":{"include":["pl"]},"geometry":["area","point"],"matchScore":2,"terms":["enea","enea operator","enea operator sp. z o.o."],"tags":{"operator:wikidata":"Q1341068","power":"substation"},"addTags":{"operator":"Enea","operator:wikidata":"Q1341068","power":"substation"}},"power/substation/energa-83e94a":{"name":"Energa","locationSet":{"include":["pl"]},"geometry":["area","point"],"matchScore":2,"terms":["energa","energa operator","energa operator oddział toruń"],"tags":{"operator:wikidata":"Q9253957","power":"substation"},"addTags":{"operator":"Energa","operator:wikidata":"Q9253957","power":"substation"}},"power/substation/pgedystrybucja-83e94a":{"name":"PGE Dystrybucja","locationSet":{"include":["pl"]},"geometry":["area","point"],"matchScore":2,"terms":["pge dystrybucja","pge dystrybucja o/warszawa","pge dystrybucja s.a.","pge dystrybucja s.a. oddział rzeszów"],"tags":{"operator:wikidata":"Q787714","power":"substation"},"addTags":{"operator":"PGE Dystrybucja","operator:wikidata":"Q787714","power":"substation"}},"power/substation/pkpenergetyka-83e94a":{"name":"PKP Energetyka","locationSet":{"include":["pl"]},"geometry":["area","point"],"matchScore":2,"terms":["pkp energetyka","pkp energetyka sa"],"tags":{"operator:wikidata":"Q7119525","power":"substation"},"addTags":{"operator":"PKP Energetyka","operator:wikidata":"Q7119525","power":"substation"}},"power/substation/pse-83e94a":{"name":"PSE","locationSet":{"include":["pl"]},"geometry":["area","point"],"matchScore":2,"terms":["pse","pse operator","pse operator oddział bydgoszcz","pse s.a."],"tags":{"operator:wikidata":"Q1749435","power":"substation"},"addTags":{"operator":"PSE","operator:wikidata":"Q1749435","power":"substation"}},"power/substation/rwestoenoperator-83e94a":{"name":"RWE Stoen Operator","locationSet":{"include":["pl"]},"geometry":["area","point"],"matchScore":2,"terms":["rwe stoen operator"],"tags":{"operator:wikidata":"Q11833155","power":"substation"},"addTags":{"operator":"RWE Stoen Operator","operator:wikidata":"Q11833155","power":"substation"}},"power/substation/tauron-83e94a":{"name":"Tauron","locationSet":{"include":["pl"]},"geometry":["area","point"],"matchScore":2,"terms":["tauron","tauron dystrybucja","tauron dystrybucja s.a.","tauron dystrybucja s.a. oddział w częstochowie","tauron dystrybucja s.a. oddział w krakowie"],"tags":{"operator:wikidata":"Q2397198","power":"substation"},"addTags":{"operator":"Tauron","operator:wikidata":"Q2397198","power":"substation"}},"power/tower/ceps-2998d9":{"name":"ČEPS","locationSet":{"include":["cz","de","pl","sk"]},"geometry":["point","vertex"],"matchScore":2,"terms":["čeps"],"tags":{"operator:wikidata":"Q11089927","power":"tower"},"addTags":{"operator":"ČEPS","operator:wikidata":"Q11089927","power":"tower"}},"power/tower/enea-983018":{"name":"Enea","locationSet":{"include":["pl"]},"geometry":["point","vertex"],"matchScore":2,"terms":["enea","enea operator","enea operator sp. z o.o."],"tags":{"operator:wikidata":"Q1341068","power":"tower"},"addTags":{"operator":"Enea","operator:wikidata":"Q1341068","power":"tower"}},"power/tower/energa-983018":{"name":"Energa","locationSet":{"include":["pl"]},"geometry":["point","vertex"],"matchScore":2,"terms":["energa","energa operator","energa operator oddział toruń"],"tags":{"operator:wikidata":"Q9253957","power":"tower"},"addTags":{"operator":"Energa","operator:wikidata":"Q9253957","power":"tower"}},"power/tower/pgedystrybucja-983018":{"name":"PGE Dystrybucja","locationSet":{"include":["pl"]},"geometry":["point","vertex"],"matchScore":2,"terms":["pge dystrybucja","pge dystrybucja o/warszawa","pge dystrybucja s.a. oddział rzeszów"],"tags":{"operator:wikidata":"Q787714","power":"tower"},"addTags":{"operator":"PGE Dystrybucja","operator:wikidata":"Q787714","power":"tower"}},"power/tower/polskiesiecielektroenergetycznesa-983018":{"name":"Polskie Sieci Elektroenergetyczne S.A.","locationSet":{"include":["pl"]},"geometry":["point","vertex"],"matchScore":2,"terms":["polskie sieci elektroenergetyczne s.a."],"tags":{"operator:wikidata":"Q1749435","power":"tower"},"addTags":{"operator":"Polskie Sieci Elektroenergetyczne S.A.","operator:wikidata":"Q1749435","power":"tower"}},"power/tower/pse-983018":{"name":"PSE","locationSet":{"include":["pl"]},"geometry":["point","vertex"],"matchScore":2,"terms":["pse","pse operator","pse operator oddział bydgoszcz","pse s.a."],"tags":{"operator:wikidata":"Q1749435","power":"tower"},"addTags":{"operator":"PSE","operator:wikidata":"Q1749435","power":"tower"}},"power/tower/tauron-983018":{"name":"Tauron","locationSet":{"include":["pl"]},"geometry":["point","vertex"],"matchScore":2,"terms":["tauron","tauron dystrybucja","tauron dystrybucja s.a.","tauron dystrybucja s.a. oddział w częstochowie","tauron dystrybucja s.a. oddział w krakowie"],"tags":{"operator:wikidata":"Q2397198","power":"tower"},"addTags":{"operator":"Tauron","operator:wikidata":"Q2397198","power":"tower"}},"power/transformer/ceps-ecf5fe":{"name":"ČEPS","locationSet":{"include":["cz","de","pl","sk"]},"geometry":["point","vertex"],"matchScore":2,"terms":["čeps"],"tags":{"operator:wikidata":"Q11089927","power":"transformer"},"addTags":{"operator":"ČEPS","operator:wikidata":"Q11089927","power":"transformer"}},"power/transformer/enea-b34e65":{"name":"Enea","locationSet":{"include":["pl"]},"geometry":["point","vertex"],"matchScore":2,"terms":["enea","enea operator","enea operator sp. z o.o."],"tags":{"operator:wikidata":"Q1341068","power":"transformer"},"addTags":{"operator":"Enea","operator:wikidata":"Q1341068","power":"transformer"}},"power/transformer/energa-b34e65":{"name":"Energa","locationSet":{"include":["pl"]},"geometry":["point","vertex"],"matchScore":2,"terms":["energa","energa operator","energa operator oddział toruń"],"tags":{"operator:wikidata":"Q9253957","power":"transformer"},"addTags":{"operator":"Energa","operator:wikidata":"Q9253957","power":"transformer"}},"power/transformer/pgedystrybucja-b34e65":{"name":"PGE Dystrybucja","locationSet":{"include":["pl"]},"geometry":["point","vertex"],"matchScore":2,"terms":["pge dystrybucja","pge dystrybucja o/warszawa","pge dystrybucja s.a.","pge dystrybucja s.a. oddział rzeszów"],"tags":{"operator:wikidata":"Q787714","power":"transformer"},"addTags":{"operator":"PGE Dystrybucja","operator:wikidata":"Q787714","power":"transformer"}},"power/transformer/pkpenergetyka-b34e65":{"name":"PKP Energetyka","locationSet":{"include":["pl"]},"geometry":["point","vertex"],"matchScore":2,"terms":["pkp energetyka","pkp energetyka sa"],"tags":{"operator:wikidata":"Q7119525","power":"transformer"},"addTags":{"operator":"PKP Energetyka","operator:wikidata":"Q7119525","power":"transformer"}},"power/transformer/pse-b34e65":{"name":"PSE","locationSet":{"include":["pl"]},"geometry":["point","vertex"],"matchScore":2,"terms":["pse","pse operator","pse operator oddział bydgoszcz","pse s.a."],"tags":{"operator:wikidata":"Q1749435","power":"transformer"},"addTags":{"operator":"PSE","operator:wikidata":"Q1749435","power":"transformer"}},"power/transformer/rwestoenoperator-b34e65":{"name":"RWE Stoen Operator","locationSet":{"include":["pl"]},"geometry":["point","vertex"],"matchScore":2,"terms":["rwe stoen operator"],"tags":{"operator:wikidata":"Q11833155","power":"transformer"},"addTags":{"operator":"RWE Stoen Operator","operator:wikidata":"Q11833155","power":"transformer"}},"power/transformer/tauron-b34e65":{"name":"Tauron","locationSet":{"include":["pl"]},"geometry":["point","vertex"],"matchScore":2,"terms":["tauron","tauron dystrybucja","tauron dystrybucja s.a.","tauron dystrybucja s.a. oddział w częstochowie","tauron dystrybucja s.a. oddział w krakowie"],"tags":{"operator:wikidata":"Q2397198","power":"transformer"},"addTags":{"operator":"Tauron","operator:wikidata":"Q2397198","power":"transformer"}},"type/route/power/ceps-3c5842":{"name":"ČEPS","locationSet":{"include":["cz","de","pl","sk"]},"geometry":["relation"],"matchScore":2,"terms":["čeps"],"reference":{"key":"route","value":"power"},"tags":{"operator:wikidata":"Q11089927","route":"power","type":"route"},"addTags":{"operator":"ČEPS","operator:wikidata":"Q11089927","route":"power","type":"route"}},"type/route/power/enea-99d878":{"name":"Enea","locationSet":{"include":["pl"]},"geometry":["relation"],"matchScore":2,"terms":["enea","enea operator","enea operator sp. z o.o."],"reference":{"key":"route","value":"power"},"tags":{"operator:wikidata":"Q1341068","route":"power","type":"route"},"addTags":{"operator":"Enea","operator:wikidata":"Q1341068","route":"power","type":"route"}},"type/route/power/energa-99d878":{"name":"Energa Operator","locationSet":{"include":["pl"]},"geometry":["relation"],"matchScore":2,"terms":["energa","energa operator","energa operator oddział toruń"],"reference":{"key":"route","value":"power"},"tags":{"operator:wikidata":"Q9253957","route":"power","type":"route"},"addTags":{"operator":"Energa","operator:wikidata":"Q9253957","route":"power","type":"route"}},"type/route/power/pgedystrybucja-99d878":{"name":"PGE Dystrybucja","locationSet":{"include":["pl"]},"geometry":["relation"],"matchScore":2,"terms":["pge dystrybucja"],"reference":{"key":"route","value":"power"},"tags":{"operator:wikidata":"Q787714","route":"power","type":"route"},"addTags":{"operator":"PGE Dystrybucja","operator:wikidata":"Q787714","route":"power","type":"route"}},"type/route/power/pseoperator-99d878":{"name":"PSE Operator","locationSet":{"include":["pl"]},"geometry":["relation"],"matchScore":2,"terms":["pse operator"],"reference":{"key":"route","value":"power"},"tags":{"operator:wikidata":"Q1749435","route":"power","type":"route"},"addTags":{"operator":"PSE Operator","operator:wikidata":"Q1749435","route":"power","type":"route"}},"type/route/power/psesa-99d878":{"name":"PSE S.A.","locationSet":{"include":["pl"]},"geometry":["relation"],"matchScore":2,"terms":["pse s.a."],"reference":{"key":"route","value":"power"},"tags":{"operator:wikidata":"Q1749435","route":"power","type":"route"},"addTags":{"operator":"PSE S.A.","operator:wikidata":"Q1749435","route":"power","type":"route"}},"telecom/exchange/interoute-58ec5d":{"name":"Interoute","locationSet":{"include":["by","bg","cz","hu","pl","md","ro","ru","sk","ua","ax","gg","je","cq","dk","ee","fo","fi","is","ie","im","lv","lt","no","sj","se","gb","al","ad","ba","hr","gi","gr","va","it","mt","me","mk","pt","sm","rs","si","es","xk","at","be","fr","de","li","lu","mc","nl","ch"]},"geometry":["point","area"],"matchScore":2,"terms":["interoute"],"fields":["name","operator","{telecom/exchange}"],"tags":{"operator:wikidata":"Q1668090","telecom":"exchange"},"addTags":{"operator":"Interoute","operator:wikidata":"Q1668090","telecom":"exchange"}},"public_transport/platform/bus_point/bkm-ad52c2":{"name":"BKM","locationSet":{"include":["pl"]},"geometry":["point","vertex"],"matchScore":2,"terms":["bkm"],"reference":{"key":"public_transport","value":"platform"},"tags":{"bus":"yes","network:wikidata":"Q9162501","public_transport":"platform"},"addTags":{"bus":"yes","highway":"bus_stop","network":"BKM","network:wikidata":"Q9162501","public_transport":"platform"}},"public_transport/platform/bus_point/iredo-b99f27":{"name":"IREDO","locationSet":{"include":["cz","pl"]},"geometry":["point","vertex"],"matchScore":2,"terms":["iredo"],"reference":{"key":"public_transport","value":"platform"},"tags":{"bus":"yes","network:wikidata":"Q12021384","public_transport":"platform"},"addTags":{"bus":"yes","highway":"bus_stop","network":"IREDO","network:wikidata":"Q12021384","public_transport":"platform"}},"public_transport/platform/bus_point/kmk-ad52c2":{"name":"KMK","locationSet":{"include":["pl"]},"geometry":["point","vertex"],"matchScore":2,"terms":["kmk"],"reference":{"key":"public_transport","value":"platform"},"tags":{"bus":"yes","network:wikidata":"Q11687034","public_transport":"platform"},"addTags":{"bus":"yes","highway":"bus_stop","network":"KMK","network:wikidata":"Q11687034","public_transport":"platform"}},"public_transport/platform/bus_point/komunikacjamiejskawkrasniku-ad52c2":{"name":"Komunikacja miejska w Kraśniku","locationSet":{"include":["pl"]},"geometry":["point","vertex"],"matchScore":2,"terms":["komunikacja miejska w kraśniku","kraśnik","mpk kraśnik"],"reference":{"key":"public_transport","value":"platform"},"tags":{"bus":"yes","network:wikidata":"Q11742131","public_transport":"platform"},"addTags":{"bus":"yes","highway":"bus_stop","network":"Komunikacja miejska w Kraśniku","network:wikidata":"Q11742131","operator":"MPK Kraśnik","public_transport":"platform"}},"public_transport/platform/bus_point/mkskrosno-ad52c2":{"name":"MKS Krosno","locationSet":{"include":["pl"]},"geometry":["point","vertex"],"matchScore":2,"terms":["mks krosno"],"reference":{"key":"public_transport","value":"platform"},"tags":{"bus":"yes","network:wikidata":"Q11780201","public_transport":"platform"},"addTags":{"bus":"yes","highway":"bus_stop","network":"MKS Krosno","network:wikidata":"Q11780201","public_transport":"platform"}},"public_transport/platform/bus_point/mpkgniezno-ad52c2":{"name":"MPK Gniezno","locationSet":{"include":["pl"]},"geometry":["point","vertex"],"matchScore":2,"terms":["mpk gniezno"],"reference":{"key":"public_transport","value":"platform"},"tags":{"bus":"yes","network:wikidata":"Q11780300","public_transport":"platform"},"addTags":{"bus":"yes","highway":"bus_stop","network":"MPK Gniezno","network:wikidata":"Q11780300","public_transport":"platform"}},"public_transport/platform/bus_point/mukzgierz-ad52c2":{"name":"MUK Zgierz","locationSet":{"include":["pl"]},"geometry":["point","vertex"],"matchScore":2,"terms":["muk zgierz"],"reference":{"key":"public_transport","value":"platform"},"tags":{"bus":"yes","network:wikidata":"Q11780314","public_transport":"platform"},"addTags":{"bus":"yes","highway":"bus_stop","network":"MUK Zgierz","network:wikidata":"Q11780314","public_transport":"platform"}},"public_transport/platform/bus_point/mzdikradom-ad52c2":{"name":"MZDiK Radom","locationSet":{"include":["pl"]},"geometry":["point","vertex"],"matchScore":2,"terms":["mzdik radom"],"reference":{"key":"public_transport","value":"platform"},"tags":{"bus":"yes","network:wikidata":"Q11780285","public_transport":"platform"},"addTags":{"bus":"yes","highway":"bus_stop","network":"MZDiK Radom","network:wikidata":"Q11780285","public_transport":"platform"}},"public_transport/platform/bus_point/mzkbielskobiala-ad52c2":{"name":"MZK Bielsko-Biała","locationSet":{"include":["pl"]},"geometry":["point","vertex"],"matchScore":2,"terms":["mzk bielsko-biała"],"reference":{"key":"public_transport","value":"platform"},"tags":{"bus":"yes","network:wikidata":"Q11780275","public_transport":"platform"},"addTags":{"bus":"yes","highway":"bus_stop","network":"MZK Bielsko-Biała","network:wikidata":"Q11780275","public_transport":"platform"}},"public_transport/platform/bus_point/mzkgrudziadz-ad52c2":{"name":"MZK Grudziądz","locationSet":{"include":["pl"]},"geometry":["point","vertex"],"matchScore":2,"terms":["mzk grudziądz"],"reference":{"key":"public_transport","value":"platform"},"tags":{"bus":"yes","network:wikidata":"Q11780251","public_transport":"platform"},"addTags":{"bus":"yes","highway":"bus_stop","network":"MZK Grudziądz","network:wikidata":"Q11780251","public_transport":"platform"}},"public_transport/platform/bus_point/mzkkoszalin-ad52c2":{"name":"MZK Koszalin","locationSet":{"include":["pl"]},"geometry":["point","vertex"],"matchScore":2,"terms":["mzk koszalin"],"reference":{"key":"public_transport","value":"platform"},"tags":{"bus":"yes","network:wikidata":"Q11780261","public_transport":"platform"},"addTags":{"bus":"yes","highway":"bus_stop","network":"MZK Koszalin","network:wikidata":"Q11780261","public_transport":"platform"}},"public_transport/platform/bus_point/mzknysa-ad52c2":{"name":"MZK Nysa","locationSet":{"include":["pl"]},"geometry":["point","vertex"],"matchScore":2,"terms":["miejski zakład komunikacji w nysie sp. z o.o.","mzk nysa"],"reference":{"key":"public_transport","value":"platform"},"tags":{"bus":"yes","network:wikidata":"Q11780266","public_transport":"platform"},"addTags":{"bus":"yes","highway":"bus_stop","network":"MZK Nysa","network:wikidata":"Q11780266","public_transport":"platform"}},"public_transport/platform/bus_point/mzkstalowawola-ad52c2":{"name":"MZK Stalowa Wola","locationSet":{"include":["pl"]},"geometry":["point","vertex"],"matchScore":2,"terms":["mzk stalowa wola"],"reference":{"key":"public_transport","value":"platform"},"tags":{"bus":"yes","network:wikidata":"Q9386230","public_transport":"platform"},"addTags":{"bus":"yes","highway":"bus_stop","network":"MZK Stalowa Wola","network:wikidata":"Q9386230","public_transport":"platform"}},"public_transport/platform/bus_point/mzkwejherowo-ad52c2":{"name":"MZK Wejherowo","locationSet":{"include":["pl"]},"geometry":["point","vertex"],"matchScore":2,"terms":["mzk wejherowo"],"reference":{"key":"public_transport","value":"platform"},"tags":{"bus":"yes","network:wikidata":"Q11780253","public_transport":"platform"},"addTags":{"bus":"yes","highway":"bus_stop","network":"MZK Wejherowo","network:wikidata":"Q11780253","public_transport":"platform"}},"public_transport/platform/bus_point/pksgdynia-ad52c2":{"name":"PKS Gdynia","locationSet":{"include":["pl"]},"geometry":["point","vertex"],"matchScore":2,"terms":["pks gdynia"],"reference":{"key":"public_transport","value":"platform"},"tags":{"bus":"yes","network:wikidata":"Q11801865","public_transport":"platform"},"addTags":{"bus":"yes","highway":"bus_stop","network":"PKS Gdynia","network:wikidata":"Q11801865","public_transport":"platform"}},"public_transport/platform/bus_point/pztplipno-ad52c2":{"name":"PZTP Lipno","locationSet":{"include":["pl"]},"geometry":["point","vertex"],"matchScore":2,"terms":["pztp lipno"],"reference":{"key":"public_transport","value":"platform"},"tags":{"bus":"yes","network:wikidata":"Q91011389","public_transport":"platform"},"addTags":{"bus":"yes","highway":"bus_stop","network":"PZTP Lipno","network:wikidata":"Q91011389","public_transport":"platform"}},"public_transport/platform/bus_point/siechnickakomunikacjapubliczna-ad52c2":{"name":"Siechnicka Komunikacja Publiczna","locationSet":{"include":["pl"]},"geometry":["point","vertex"],"matchScore":2,"terms":["siechnicka komunikacja publiczna"],"reference":{"key":"public_transport","value":"platform"},"tags":{"bus":"yes","network:wikidata":"Q86669414","public_transport":"platform"},"addTags":{"bus":"yes","highway":"bus_stop","network":"Siechnicka Komunikacja Publiczna","network:wikidata":"Q86669414","public_transport":"platform"}},"public_transport/platform/bus_point/zarzadtransportumetropolitalnego-ad52c2":{"name":"Zarząd Transportu Metropolitalnego","locationSet":{"include":["pl"]},"geometry":["point","vertex"],"matchScore":2,"terms":["zarząd transportu metropolitalnego"],"reference":{"key":"public_transport","value":"platform"},"tags":{"bus":"yes","network:wikidata":"Q48862619","public_transport":"platform"},"addTags":{"bus":"yes","highway":"bus_stop","network":"Zarząd Transportu Metropolitalnego","network:wikidata":"Q48862619","public_transport":"platform"}},"public_transport/platform/bus_point/zditmszczecin-ad52c2":{"name":"ZDiTM Szczecin","locationSet":{"include":["pl"]},"geometry":["point","vertex"],"matchScore":2,"terms":["zditm szczecin"],"reference":{"key":"public_transport","value":"platform"},"tags":{"bus":"yes","network:wikidata":"Q62534866","public_transport":"platform"},"addTags":{"bus":"yes","highway":"bus_stop","network":"ZDiTM Szczecin","network:wikidata":"Q62534866","public_transport":"platform"}},"public_transport/platform/bus_point/zkkmchrzanow-ad52c2":{"name":"ZKKM Chrzanów","locationSet":{"include":["pl"]},"geometry":["point","vertex"],"matchScore":2,"terms":["zkkm chrzanów"],"reference":{"key":"public_transport","value":"platform"},"tags":{"bus":"yes","network:wikidata":"Q9383695","public_transport":"platform"},"addTags":{"bus":"yes","highway":"bus_stop","network":"ZKKM Chrzanów","network:wikidata":"Q9383695","public_transport":"platform"}},"public_transport/platform/bus_point/zkmaugustow-ad52c2":{"name":"ZKM Augustów","locationSet":{"include":["pl"]},"geometry":["point","vertex"],"matchScore":2,"terms":["zkm augustów"],"reference":{"key":"public_transport","value":"platform"},"tags":{"bus":"yes","network:wikidata":"Q9386216","public_transport":"platform"},"addTags":{"bus":"yes","highway":"bus_stop","network":"ZKM Augustów","network:wikidata":"Q9386216","public_transport":"platform"}},"public_transport/platform/bus_point/zkmelblag-ad52c2":{"name":"ZKM Elbląg","locationSet":{"include":["pl"]},"geometry":["point","vertex"],"matchScore":2,"terms":["zkm elbląg"],"reference":{"key":"public_transport","value":"platform"},"tags":{"bus":"yes","network:wikidata":"Q11838296","public_transport":"platform"},"addTags":{"bus":"yes","highway":"bus_stop","network":"ZKM Elbląg","network:wikidata":"Q11838296","public_transport":"platform"}},"public_transport/platform/bus_point/zkmgdynia-ad52c2":{"name":"ZKM Gdynia","locationSet":{"include":["pl"]},"geometry":["point","vertex"],"matchScore":2,"terms":["zkm gdynia"],"reference":{"key":"public_transport","value":"platform"},"tags":{"bus":"yes","network:wikidata":"Q9387114","public_transport":"platform"},"addTags":{"bus":"yes","highway":"bus_stop","network":"ZKM Gdynia","network:wikidata":"Q9387114","public_transport":"platform"}},"public_transport/platform/bus_point/ztmgdansk-ad52c2":{"name":"ZTM Gdańsk","locationSet":{"include":["pl"]},"geometry":["point","vertex"],"matchScore":2,"terms":["ztm gdańsk"],"reference":{"key":"public_transport","value":"platform"},"tags":{"bus":"yes","network:wikidata":"Q9387123","public_transport":"platform"},"addTags":{"bus":"yes","highway":"bus_stop","network":"ZTM Gdańsk","network:wikidata":"Q9387123","public_transport":"platform"}},"public_transport/platform/bus_point/ztmkielce-ad52c2":{"name":"ZTM Kielce","locationSet":{"include":["pl"]},"geometry":["point","vertex"],"matchScore":2,"terms":["ztm kielce"],"reference":{"key":"public_transport","value":"platform"},"tags":{"bus":"yes","network:wikidata":"Q9387122","public_transport":"platform"},"addTags":{"bus":"yes","highway":"bus_stop","network":"ZTM Kielce","network:wikidata":"Q9387122","public_transport":"platform"}},"public_transport/platform/bus_point/ztmpoznan-ad52c2":{"name":"ZTM Poznań","locationSet":{"include":["pl"]},"geometry":["point","vertex"],"matchScore":2,"terms":["ztm poznań"],"reference":{"key":"public_transport","value":"platform"},"tags":{"bus":"yes","network:wikidata":"Q9387124","public_transport":"platform"},"addTags":{"bus":"yes","highway":"bus_stop","network":"ZTM Poznań","network:wikidata":"Q9387124","public_transport":"platform"}},"public_transport/platform/bus_point/ztmwarszawa-ad52c2":{"name":"ZTM Warszawa","locationSet":{"include":["pl"]},"geometry":["point","vertex"],"matchScore":2,"terms":["ztm warszawa"],"reference":{"key":"public_transport","value":"platform"},"tags":{"bus":"yes","network:wikidata":"Q8066998","public_transport":"platform"},"addTags":{"bus":"yes","highway":"bus_stop","network":"ZTM Warszawa","network:wikidata":"Q8066998","public_transport":"platform"}},"type/route/bus/bkm-9340cc":{"name":"BKM","locationSet":{"include":["pl"]},"geometry":["relation"],"matchScore":2,"terms":["bkm"],"reference":{"key":"route","value":"bus"},"tags":{"network:wikidata":"Q9162501","route":"bus","type":"route"},"addTags":{"network":"BKM","network:wikidata":"Q9162501","route":"bus","type":"route"}},"type/route/bus/iredo-a1a5c7":{"name":"IREDO","locationSet":{"include":["cz","pl"]},"geometry":["relation"],"matchScore":2,"terms":["iredo"],"reference":{"key":"route","value":"bus"},"tags":{"network:wikidata":"Q12021384","route":"bus","type":"route"},"addTags":{"network":"IREDO","network:wikidata":"Q12021384","route":"bus","type":"route"}},"type/route/bus/kmk-9340cc":{"name":"KMK","locationSet":{"include":["pl"]},"geometry":["relation"],"matchScore":2,"terms":["kmk"],"reference":{"key":"route","value":"bus"},"tags":{"network:wikidata":"Q11687034","route":"bus","type":"route"},"addTags":{"network":"KMK","network:wikidata":"Q11687034","route":"bus","type":"route"}},"type/route/bus/komunikacjamiejskawkrasniku-9340cc":{"name":"Komunikacja miejska w Kraśniku","locationSet":{"include":["pl"]},"geometry":["relation"],"matchScore":2,"terms":["komunikacja miejska w kraśniku","kraśnik","mpk kraśnik"],"reference":{"key":"route","value":"bus"},"tags":{"network:wikidata":"Q11742131","route":"bus","type":"route"},"addTags":{"network":"Komunikacja miejska w Kraśniku","network:wikidata":"Q11742131","operator":"MPK Kraśnik","route":"bus","type":"route"}},"type/route/bus/mkskrosno-9340cc":{"name":"MKS Krosno","locationSet":{"include":["pl"]},"geometry":["relation"],"matchScore":2,"terms":["mks krosno"],"reference":{"key":"route","value":"bus"},"tags":{"network:wikidata":"Q11780201","route":"bus","type":"route"},"addTags":{"network":"MKS Krosno","network:wikidata":"Q11780201","route":"bus","type":"route"}},"type/route/bus/mpkgniezno-9340cc":{"name":"MPK Gniezno","locationSet":{"include":["pl"]},"geometry":["relation"],"matchScore":2,"terms":["mpk gniezno"],"reference":{"key":"route","value":"bus"},"tags":{"network:wikidata":"Q11780300","route":"bus","type":"route"},"addTags":{"network":"MPK Gniezno","network:wikidata":"Q11780300","route":"bus","type":"route"}},"type/route/bus/mukzgierz-9340cc":{"name":"MUK Zgierz","locationSet":{"include":["pl"]},"geometry":["relation"],"matchScore":2,"terms":["muk zgierz"],"reference":{"key":"route","value":"bus"},"tags":{"network:wikidata":"Q11780314","route":"bus","type":"route"},"addTags":{"network":"MUK Zgierz","network:wikidata":"Q11780314","route":"bus","type":"route"}},"type/route/bus/mzdikradom-9340cc":{"name":"MZDiK Radom","locationSet":{"include":["pl"]},"geometry":["relation"],"matchScore":2,"terms":["mzdik radom"],"reference":{"key":"route","value":"bus"},"tags":{"network:wikidata":"Q11780285","route":"bus","type":"route"},"addTags":{"network":"MZDiK Radom","network:wikidata":"Q11780285","route":"bus","type":"route"}},"type/route/bus/mzkbielskobiala-9340cc":{"name":"MZK Bielsko-Biała","locationSet":{"include":["pl"]},"geometry":["relation"],"matchScore":2,"terms":["mzk bielsko-biała"],"reference":{"key":"route","value":"bus"},"tags":{"network:wikidata":"Q11780275","route":"bus","type":"route"},"addTags":{"network":"MZK Bielsko-Biała","network:wikidata":"Q11780275","route":"bus","type":"route"}},"type/route/bus/mzkgrudziadz-9340cc":{"name":"MZK Grudziądz","locationSet":{"include":["pl"]},"geometry":["relation"],"matchScore":2,"terms":["mzk grudziądz"],"reference":{"key":"route","value":"bus"},"tags":{"network:wikidata":"Q11780251","route":"bus","type":"route"},"addTags":{"network":"MZK Grudziądz","network:wikidata":"Q11780251","route":"bus","type":"route"}},"type/route/bus/mzkkoszalin-9340cc":{"name":"MZK Koszalin","locationSet":{"include":["pl"]},"geometry":["relation"],"matchScore":2,"terms":["mzk koszalin"],"reference":{"key":"route","value":"bus"},"tags":{"network:wikidata":"Q11780261","route":"bus","type":"route"},"addTags":{"network":"MZK Koszalin","network:wikidata":"Q11780261","route":"bus","type":"route"}},"type/route/bus/mzknysa-9340cc":{"name":"MZK Nysa","locationSet":{"include":["pl"]},"geometry":["relation"],"matchScore":2,"terms":["miejski zakład komunikacji w nysie sp. z o.o.","mzk nysa"],"reference":{"key":"route","value":"bus"},"tags":{"network:wikidata":"Q11780266","route":"bus","type":"route"},"addTags":{"network":"MZK Nysa","network:wikidata":"Q11780266","route":"bus","type":"route"}},"type/route/bus/mzkstalowawola-9340cc":{"name":"MZK Stalowa Wola","locationSet":{"include":["pl"]},"geometry":["relation"],"matchScore":2,"terms":["mzk stalowa wola"],"reference":{"key":"route","value":"bus"},"tags":{"network:wikidata":"Q9386230","route":"bus","type":"route"},"addTags":{"network":"MZK Stalowa Wola","network:wikidata":"Q9386230","route":"bus","type":"route"}},"type/route/bus/mzkwejherowo-9340cc":{"name":"MZK Wejherowo","locationSet":{"include":["pl"]},"geometry":["relation"],"matchScore":2,"terms":["mzk wejherowo"],"reference":{"key":"route","value":"bus"},"tags":{"network:wikidata":"Q11780253","route":"bus","type":"route"},"addTags":{"network":"MZK Wejherowo","network:wikidata":"Q11780253","route":"bus","type":"route"}},"type/route/bus/pksgdynia-9340cc":{"name":"PKS Gdynia","locationSet":{"include":["pl"]},"geometry":["relation"],"matchScore":2,"terms":["pks gdynia"],"reference":{"key":"route","value":"bus"},"tags":{"network:wikidata":"Q11801865","route":"bus","type":"route"},"addTags":{"network":"PKS Gdynia","network:wikidata":"Q11801865","route":"bus","type":"route"}},"type/route/bus/pztplipno-9340cc":{"name":"PZTP Lipno","locationSet":{"include":["pl"]},"geometry":["relation"],"matchScore":2,"terms":["pztp lipno"],"reference":{"key":"route","value":"bus"},"tags":{"network:wikidata":"Q91011389","route":"bus","type":"route"},"addTags":{"network":"PZTP Lipno","network:wikidata":"Q91011389","route":"bus","type":"route"}},"type/route/bus/siechnickakomunikacjapubliczna-9340cc":{"name":"Siechnicka Komunikacja Publiczna","locationSet":{"include":["pl"]},"geometry":["relation"],"matchScore":2,"terms":["siechnicka komunikacja publiczna"],"reference":{"key":"route","value":"bus"},"tags":{"network:wikidata":"Q86669414","route":"bus","type":"route"},"addTags":{"network":"Siechnicka Komunikacja Publiczna","network:wikidata":"Q86669414","route":"bus","type":"route"}},"type/route/bus/zarzadtransportumetropolitalnego-9340cc":{"name":"Zarząd Transportu Metropolitalnego","locationSet":{"include":["pl"]},"geometry":["relation"],"matchScore":2,"terms":["zarząd transportu metropolitalnego"],"reference":{"key":"route","value":"bus"},"tags":{"network:wikidata":"Q48862619","route":"bus","type":"route"},"addTags":{"network":"Zarząd Transportu Metropolitalnego","network:wikidata":"Q48862619","route":"bus","type":"route"}},"type/route/bus/zditmszczecin-9340cc":{"name":"ZDiTM Szczecin","locationSet":{"include":["pl"]},"geometry":["relation"],"matchScore":2,"terms":["zditm szczecin"],"reference":{"key":"route","value":"bus"},"tags":{"network:wikidata":"Q62534866","route":"bus","type":"route"},"addTags":{"network":"ZDiTM Szczecin","network:wikidata":"Q62534866","route":"bus","type":"route"}},"type/route/bus/zkkmchrzanow-9340cc":{"name":"ZKKM Chrzanów","locationSet":{"include":["pl"]},"geometry":["relation"],"matchScore":2,"terms":["zkkm chrzanów"],"reference":{"key":"route","value":"bus"},"tags":{"network:wikidata":"Q9383695","route":"bus","type":"route"},"addTags":{"network":"ZKKM Chrzanów","network:wikidata":"Q9383695","route":"bus","type":"route"}},"type/route/bus/zkmaugustow-9340cc":{"name":"ZKM Augustów","locationSet":{"include":["pl"]},"geometry":["relation"],"matchScore":2,"terms":["zkm augustów"],"reference":{"key":"route","value":"bus"},"tags":{"network:wikidata":"Q9386216","route":"bus","type":"route"},"addTags":{"network":"ZKM Augustów","network:wikidata":"Q9386216","route":"bus","type":"route"}},"type/route/bus/zkmelblag-9340cc":{"name":"ZKM Elbląg","locationSet":{"include":["pl"]},"geometry":["relation"],"matchScore":2,"terms":["zkm elbląg"],"reference":{"key":"route","value":"bus"},"tags":{"network:wikidata":"Q11838296","route":"bus","type":"route"},"addTags":{"network":"ZKM Elbląg","network:wikidata":"Q11838296","route":"bus","type":"route"}},"type/route/bus/zkmgdynia-9340cc":{"name":"ZKM Gdynia","locationSet":{"include":["pl"]},"geometry":["relation"],"matchScore":2,"terms":["zkm gdynia"],"reference":{"key":"route","value":"bus"},"tags":{"network:wikidata":"Q9387114","route":"bus","type":"route"},"addTags":{"network":"ZKM Gdynia","network:wikidata":"Q9387114","route":"bus","type":"route"}},"type/route/bus/ztmgdansk-9340cc":{"name":"ZTM Gdańsk","locationSet":{"include":["pl"]},"geometry":["relation"],"matchScore":2,"terms":["ztm gdańsk"],"reference":{"key":"route","value":"bus"},"tags":{"network:wikidata":"Q9387123","route":"bus","type":"route"},"addTags":{"network":"ZTM Gdańsk","network:wikidata":"Q9387123","route":"bus","type":"route"}},"type/route/bus/ztmkielce-9340cc":{"name":"ZTM Kielce","locationSet":{"include":["pl"]},"geometry":["relation"],"matchScore":2,"terms":["ztm kielce"],"reference":{"key":"route","value":"bus"},"tags":{"network:wikidata":"Q9387122","route":"bus","type":"route"},"addTags":{"network":"ZTM Kielce","network:wikidata":"Q9387122","route":"bus","type":"route"}},"type/route/bus/ztmpoznan-9340cc":{"name":"ZTM Poznań","locationSet":{"include":["pl"]},"geometry":["relation"],"matchScore":2,"terms":["ztm poznań"],"reference":{"key":"route","value":"bus"},"tags":{"network:wikidata":"Q9387124","route":"bus","type":"route"},"addTags":{"network":"ZTM Poznań","network:wikidata":"Q9387124","route":"bus","type":"route"}},"type/route/bus/ztmwarszawa-9340cc":{"name":"ZTM Warszawa","locationSet":{"include":["pl"]},"geometry":["relation"],"matchScore":2,"terms":["ztm warszawa"],"reference":{"key":"route","value":"bus"},"tags":{"network:wikidata":"Q8066998","route":"bus","type":"route"},"addTags":{"network":"ZTM Warszawa","network:wikidata":"Q8066998","route":"bus","type":"route"}},"type/route/train/eurocity-6b9d23":{"name":"EuroCity","locationSet":{"include":["by","bg","cz","hu","pl","md","ro","ru","sk","ua","ax","gg","je","cq","dk","ee","fo","fi","is","ie","im","lv","lt","no","sj","se","gb","al","ad","ba","hr","gi","gr","va","it","mt","me","mk","pt","sm","rs","si","es","xk","at","be","fr","de","li","lu","mc","nl","ch"]},"geometry":["relation"],"matchScore":2,"terms":["eurocity"],"reference":{"key":"route","value":"train"},"tags":{"network:wikidata":"Q753050","route":"train","type":"route"},"addTags":{"network":"EuroCity","network:wikidata":"Q753050","route":"train","type":"route"}},"type/route/train/euronight-6b9d23":{"name":"EuroNight","locationSet":{"include":["by","bg","cz","hu","pl","md","ro","ru","sk","ua","ax","gg","je","cq","dk","ee","fo","fi","is","ie","im","lv","lt","no","sj","se","gb","al","ad","ba","hr","gi","gr","va","it","mt","me","mk","pt","sm","rs","si","es","xk","at","be","fr","de","li","lu","mc","nl","ch"]},"geometry":["relation"],"matchScore":2,"terms":["euronight"],"reference":{"key":"route","value":"train"},"tags":{"network:wikidata":"Q257307","route":"train","type":"route"},"addTags":{"network":"EuroNight","network:wikidata":"Q257307","route":"train","type":"route"}},"type/route/train/kolejeslaskie-163923":{"name":"Koleje Śląskie","locationSet":{"include":["cz","pl"]},"geometry":["relation"],"matchScore":2,"terms":["koleje śląskie","ksl"],"reference":{"key":"route","value":"train"},"tags":{"network:wikidata":"Q776749","route":"train","type":"route"},"addTags":{"network":"Koleje Śląskie","network:short":"KSl","network:wikidata":"Q776749","operator":"Koleje Śląskie","operator:wikidata":"Q776749","route":"train","type":"route"}},"type/route/tram/bydgoszcz-ba1938":{"name":"Bydgoszcz","locationSet":{"include":["pl"]},"geometry":["relation"],"matchScore":2,"terms":["bydgoszcz","mzk bydgoszcz"],"reference":{"key":"route","value":"tram"},"tags":{"network:wikidata":"Q16618278","route":"tram","type":"route"},"addTags":{"network":"Bydgoszcz","network:wikidata":"Q16618278","operator":"MZK Bydgoszcz","operator:wikidata":"Q11780317","route":"tram","type":"route"}},"type/route/tram/komunikacjamiejskawkrakowie-ba1938":{"name":"Komunikacja Miejska w Krakowie","locationSet":{"include":["pl"]},"geometry":["relation"],"matchScore":2,"terms":["komunikacja miejska w krakowie","mpk kraków"],"reference":{"key":"route","value":"tram"},"tags":{"network:wikidata":"Q1784404","route":"tram","type":"route"},"addTags":{"network":"Komunikacja Miejska w Krakowie","network:wikidata":"Q1784404","operator":"MPK Kraków","operator:wikidata":"Q11780297","route":"tram","type":"route"}},"type/route/tram/ltzlodz-ba1938":{"name":"LTZ Łódź","locationSet":{"include":["pl"]},"geometry":["relation"],"matchScore":2,"terms":["ltz łódź","mpk łódź"],"reference":{"key":"route","value":"tram"},"tags":{"network:wikidata":"Q1149987","route":"tram","type":"route"},"addTags":{"network":"LTZ Łódź","network:wikidata":"Q1149987","operator":"MPK Łódź","operator:wikidata":"Q11780295","route":"tram","type":"route"}},"type/route/tram/wroclaw-ba1938":{"name":"Wrocław","locationSet":{"include":["pl"]},"geometry":["relation"],"matchScore":2,"terms":["mpk wrocław","wrocław"],"reference":{"key":"route","value":"tram"},"tags":{"network:wikidata":"Q1531939","route":"tram","type":"route"},"addTags":{"network":"Wrocław","network:wikidata":"Q1531939","operator":"MPK Wrocław","operator:wikidata":"Q11780311","route":"tram","type":"route"}},"type/route/tram/zarzadtransportumetropolitalnego-ba1938":{"name":"Zarząd Transportu Metropolitalnego","locationSet":{"include":["pl"]},"geometry":["relation"],"matchScore":2,"terms":["tramwaje śląskie","zarząd transportu metropolitalnego"],"reference":{"key":"route","value":"tram"},"tags":{"network:wikidata":"Q48862619","route":"tram","type":"route"},"addTags":{"network":"Zarząd Transportu Metropolitalnego","network:wikidata":"Q48862619","operator":"Tramwaje Śląskie","operator:wikidata":"Q9361097","route":"tram","type":"route"}},"type/route/tram/zditmszczecin-ba1938":{"name":"ZDiTM Szczecin","locationSet":{"include":["pl"]},"geometry":["relation"],"matchScore":2,"terms":["tramwaje szczecińskie","zditm szczecin"],"reference":{"key":"route","value":"tram"},"tags":{"network:wikidata":"Q62534866","route":"tram","type":"route"},"addTags":{"network":"ZDiTM Szczecin","network:wikidata":"Q62534866","operator":"Tramwaje Szczecińskie","operator:wikidata":"Q14331058","route":"tram","type":"route"}},"type/route/tram/ztmgdansk-ba1938":{"name":"ZTM Gdańsk","locationSet":{"include":["pl"]},"geometry":["relation"],"matchScore":2,"terms":["gdańskie autobusy i tramwaje","ztm gdańsk"],"reference":{"key":"route","value":"tram"},"tags":{"network:wikidata":"Q9387123","route":"tram","type":"route"},"addTags":{"network":"ZTM Gdańsk","network:wikidata":"Q9387123","operator":"Gdańskie Autobusy i Tramwaje","operator:wikidata":"Q9386219","route":"tram","type":"route"}},"type/route/tram/ztmpoznan-ba1938":{"name":"ZTM Poznań","locationSet":{"include":["pl"]},"geometry":["relation"],"matchScore":2,"terms":["mpk poznań","ztm poznań"],"reference":{"key":"route","value":"tram"},"tags":{"network:wikidata":"Q9387124","route":"tram","type":"route"},"addTags":{"network":"ZTM Poznań","network:wikidata":"Q9387124","operator":"MPK Poznań","operator:wikidata":"Q53430","route":"tram","type":"route"}},"type/route/tram/ztmwarszawa-ba1938":{"name":"ZTM Warszawa","locationSet":{"include":["pl"]},"geometry":["relation"],"matchScore":2,"terms":["tramwaje warszawskie","ztm warszawa"],"reference":{"key":"route","value":"tram"},"tags":{"network:wikidata":"Q8066998","route":"tram","type":"route"},"addTags":{"network":"ZTM Warszawa","network:wikidata":"Q8066998","operator":"Tramwaje Warszawskie","operator:wikidata":"Q9360809","route":"tram","type":"route"}},"type/route/trolleybus/lublin-ac5bc5":{"name":"Lublin","locationSet":{"include":["pl"]},"geometry":["relation"],"matchScore":2,"terms":["lublin","mpk lublin"],"reference":{"key":"route","value":"trolleybus"},"tags":{"network:wikidata":"Q27686568","route":"trolleybus","type":"route"},"addTags":{"network":"Lublin","network:wikidata":"Q27686568","operator":"MPK Lublin","operator:wikidata":"Q11742137","route":"trolleybus","type":"route"}},"type/route/trolleybus/zarzadtransportumetropolitalnego-ac5bc5":{"name":"Zarząd Transportu Metropolitalnego","locationSet":{"include":["pl"]},"geometry":["relation"],"matchScore":2,"terms":["tyskie linie trolejbusowe","zarząd transportu metropolitalnego"],"reference":{"key":"route","value":"trolleybus"},"tags":{"network:wikidata":"Q48862619","route":"trolleybus","type":"route"},"addTags":{"network":"Zarząd Transportu Metropolitalnego","network:wikidata":"Q48862619","operator":"Tyskie Linie Trolejbusowe","route":"trolleybus","type":"route"}},"type/route/trolleybus/zkmgdynia-ac5bc5":{"name":"ZKM Gdynia","locationSet":{"include":["pl"]},"geometry":["relation"],"matchScore":2,"terms":["pkt gdynia","zkm gdynia"],"reference":{"key":"route","value":"trolleybus"},"tags":{"network:wikidata":"Q9387114","route":"trolleybus","type":"route"},"addTags":{"network":"ZKM Gdynia","network:wikidata":"Q9387114","operator":"PKT Gdynia","route":"trolleybus","type":"route"}}}