{"amenity/atm/alliedbank-ed31a6":{"name":"Allied Bank (Pakistan)","locationSet":{"include":["pk"]},"geometry":["point","vertex"],"matchScore":2,"terms":["allied bank","allied bank limited","الائیڈ بینک","الائیڈ بینک لمیٹڈ"],"tags":{"amenity":"atm","brand:wikidata":"Q4732553"},"addTags":{"amenity":"atm","brand":"Allied Bank","brand:ar":"الائیڈ بینک لمیٹڈ","brand:en":"Allied Bank","brand:ur":"الائیڈ بینک","brand:wikidata":"Q4732553","name":"Allied Bank","name:ar":"الائیڈ بینک لمیٹڈ","name:en":"Allied Bank","name:ur":"الائیڈ بینک","operator":"Allied Bank","operator:wikidata":"Q4732553"}},"amenity/atm/askaribank-ed31a6":{"name":"Askari Bank (عسکری بینک)","locationSet":{"include":["pk"]},"geometry":["point","vertex"],"matchScore":2,"terms":["askari bank","عسکری بینک"],"tags":{"amenity":"atm","brand:wikidata":"Q4807137"},"addTags":{"amenity":"atm","brand":"Askari Bank","brand:en":"Askari Bank","brand:ur":"عسکری بینک","brand:wikidata":"Q4807137","name":"Askari Bank","name:en":"Askari Bank","name:ur":"عسکری بینک","operator":"Askari Bank","operator:wikidata":"Q4807137"}},"amenity/atm/bankalhabib-ed31a6":{"name":"Bank Al Habib (بينک الحبيب)","locationSet":{"include":["pk"]},"geometry":["point","vertex"],"matchScore":2,"terms":["bank al habib","بينک الحبيب"],"tags":{"amenity":"atm","brand:wikidata":"Q4034833"},"addTags":{"amenity":"atm","brand":"Bank Al Habib","brand:en":"Bank Al Habib","brand:ur":"بينک الحبيب","brand:wikidata":"Q4034833","name":"Bank Al Habib","name:en":"Bank Al Habib","name:ur":"بينک الحبيب","operator":"Bank Al Habib","operator:wikidata":"Q4034833"}},"amenity/atm/bankalfalah-d0578d":{"name":"Bank Alfalah (بینک الفلاح)","locationSet":{"include":["ae","af","bd","bh","pk"]},"geometry":["point","vertex"],"matchScore":2,"terms":["bank alfalah","bank alfalah limited","habib credit and exchange bank","بینک الفلاح","بینک الفلاح لمیٹڈ"],"tags":{"amenity":"atm","brand:wikidata":"Q4855895"},"addTags":{"amenity":"atm","brand":"Bank Alfalah","brand:en":"Bank Alfalah","brand:ur":"بینک الفلاح","brand:wikidata":"Q4855895","name:en":"Bank Alfalah","name:ur":"بینک الفلاح","operator":"Bank Alfalah","operator:wikidata":"Q4855895"}},"amenity/atm/faysalbank-ed31a6":{"name":"Faysal Bank (فیصل بینک)","locationSet":{"include":["pk"]},"geometry":["point","vertex"],"matchScore":2,"terms":["faysal bank","بنك فيصل الباكستاني المحدود","فیصل بینک"],"tags":{"amenity":"atm","brand:wikidata":"Q5439099"},"addTags":{"amenity":"atm","brand":"Faysal Bank","brand:ar":"بنك فيصل الباكستاني المحدود","brand:en":"Faysal Bank","brand:ur":"فیصل بینک","brand:wikidata":"Q5439099","name":"Faysal Bank","name:ar":"بنك فيصل الباكستاني المحدود","name:en":"Faysal Bank","name:ur":"فیصل بینک","operator":"Faysal Bank","operator:wikidata":"Q5439099"}},"amenity/atm/hblbank-ed31a6":{"name":"HBL Bank (ایچ بی ایل پاکستان)","locationSet":{"include":["pk"]},"geometry":["point","vertex"],"matchScore":2,"terms":["habib bank limited","hbl","hbl bank","ایچ بی ایل پاکستان"],"tags":{"amenity":"atm","brand:wikidata":"Q1566843"},"addTags":{"amenity":"atm","brand":"HBL Bank","brand:en":"HBL Bank","brand:ur":"ایچ بی ایل پاکستان","brand:wikidata":"Q1566843","name":"HBL Bank","name:en":"HBL Bank","name:ur":"ایچ بی ایل پاکستان","operator":"HBL Bank","operator:wikidata":"Q1566843"}},"amenity/atm/mcb-a8db09":{"name":"MCB (Pakistan)","locationSet":{"include":["ae","bh","lk","pk"]},"geometry":["point","vertex"],"matchScore":2,"terms":["mcb","mcb bank","ایم سی بی بینک"],"tags":{"amenity":"atm","brand:wikidata":"Q15982510"},"addTags":{"amenity":"atm","brand":"MCB","brand:en":"MCB","brand:ur":"ایم سی بی بینک","brand:wikidata":"Q15982510","name":"MCB","name:en":"MCB","name:ur":"ایم سی بی بینک","operator":"MCB","operator:wikidata":"Q15982510"}},"amenity/atm/meezanbank-ed31a6":{"name":"Meezan Bank (میزان بینک)","locationSet":{"include":["pk"]},"geometry":["point","vertex"],"matchScore":2,"terms":["meezan bank","میزان بینک"],"tags":{"amenity":"atm","brand:wikidata":"Q6807934"},"addTags":{"amenity":"atm","brand":"Meezan Bank","brand:en":"Meezan Bank","brand:ur":"میزان بینک","brand:wikidata":"Q6807934","name":"Meezan Bank","name:en":"Meezan Bank","name:ur":"میزان بینک","operator":"Meezan Bank","operator:wikidata":"Q6807934"}},"amenity/atm/summitbank-ed31a6":{"name":"Summit Bank","locationSet":{"include":["pk"]},"geometry":["point","vertex"],"matchScore":2,"terms":["summit bank"],"tags":{"amenity":"atm","brand:wikidata":"Q7637775"},"addTags":{"amenity":"atm","brand":"Summit Bank","brand:wikidata":"Q7637775","name":"Summit Bank","operator":"Summit Bank","operator:wikidata":"Q7637775"}},"amenity/atm/standardchartered-ed31a6":{"name":"اسٹینڈرڈ چارٹرڈ","locationSet":{"include":["pk"]},"geometry":["point","vertex"],"matchScore":2,"terms":["standard chartered","اسٹینڈرڈ چارٹرڈ","ایس سی بی"],"tags":{"amenity":"atm","brand:wikidata":"Q7598200"},"addTags":{"amenity":"atm","brand":"اسٹینڈرڈ چارٹرڈ","brand:en":"Standard Chartered","brand:ur":"اسٹینڈرڈ چارٹرڈ","brand:wikidata":"Q7598200","name":"اسٹینڈرڈ چارٹرڈ","name:en":"Standard Chartered","name:ur":"اسٹینڈرڈ چارٹرڈ","operator":"اسٹینڈرڈ چارٹرڈ","operator:wikidata":"Q7598200","short_name":"ایس سی بی"}},"amenity/atm/jsbank-ed31a6":{"name":"جے ایس بینک","locationSet":{"include":["pk"]},"geometry":["point","vertex"],"matchScore":2,"terms":["js bank","جے ایس بی","جے ایس بینک"],"tags":{"amenity":"atm","brand:wikidata":"Q6108986"},"addTags":{"amenity":"atm","brand":"جے ایس بینک","brand:wikidata":"Q6108986","name":"جے ایس بینک","name:en":"JS Bank","name:ks":"جے ایس بینک","name:ur":"جے ایس بینک","operator":"جے ایس بینک","operator:wikidata":"Q6108986","short_name":"جے ایس بی"}},"amenity/atm/nationalbankofpakistan-ed31a6":{"name":"نیشنل بینک آف پاکستان","locationSet":{"include":["pk"]},"geometry":["point","vertex"],"matchScore":2,"terms":["national bank of pakistan","البنك الوطني الباكستاني","بانک ملی پاکستان","نيشنل بينڪ آف پاڪستان","نیشنل بینک آف پاکستان"],"tags":{"amenity":"atm","brand:wikidata":"Q2883425"},"addTags":{"amenity":"atm","brand":"نیشنل بینک آف پاکستان","brand:ar":"البنك الوطني الباكستاني","brand:ur":"نیشنل بینک آف پاکستان","brand:wikidata":"Q2883425","name":"نیشنل بینک آف پاکستان","name:ar":"البنك الوطني الباكستاني","name:en":"National Bank of Pakistan","name:fa":"بانک ملی پاکستان","name:sd":"نيشنل بينڪ آف پاڪستان","name:ur":"نیشنل بینک آف پاکستان","operator":"نیشنل بینک آف پاکستان","operator:wikidata":"Q2883425"}},"amenity/atm/unitedbanklimited-ed31a6":{"name":"یونائیٹڈ بینک لمیٹڈ","locationSet":{"include":["pk"]},"geometry":["point","vertex"],"matchScore":2,"terms":["ubl","ubl bank","united bank limited","united bank limited pakistan","البنك المتحد المحدود الباكستاني","یو بی ایل","یونائیٹڈ بینک لمیٹڈ","یونایتد بنک"],"tags":{"amenity":"atm","brand:wikidata":"Q7887504"},"addTags":{"amenity":"atm","brand":"یونائیٹڈ بینک لمیٹڈ","brand:ar":"البنك المتحد المحدود الباكستاني","brand:ur":"یونائیٹڈ بینک لمیٹڈ","brand:wikidata":"Q7887504","name":"یونائیٹڈ بینک لمیٹڈ","name:ar":"البنك المتحد المحدود الباكستاني","name:en":"United Bank Limited","name:fa":"یونایتد بنک","name:pnb":"یونائیٹڈ بینک لمیٹڈ","name:ur":"یونائیٹڈ بینک لمیٹڈ","operator":"یونائیٹڈ بینک لمیٹڈ","operator:wikidata":"Q7887504","short_name":"یو بی ایل"}},"amenity/bank/alliedbank-da5806":{"name":"Allied Bank (Pakistan)","locationSet":{"include":["pk"]},"geometry":["point","area"],"matchScore":2,"terms":["allied bank","allied bank limited","الائیڈ بینک","الائیڈ بینک لمیٹڈ"],"tags":{"amenity":"bank","brand:wikidata":"Q4732553"},"addTags":{"amenity":"bank","brand":"Allied Bank","brand:ar":"الائیڈ بینک لمیٹڈ","brand:en":"Allied Bank","brand:ur":"الائیڈ بینک","brand:wikidata":"Q4732553","name":"Allied Bank","name:ar":"الائیڈ بینک لمیٹڈ","name:en":"Allied Bank","name:ur":"الائیڈ بینک"}},"amenity/bank/askaribank-da5806":{"name":"Askari Bank (عسکری بینک)","locationSet":{"include":["pk"]},"geometry":["point","area"],"matchScore":2,"terms":["askari bank","عسکری بینک"],"tags":{"amenity":"bank","brand:wikidata":"Q4807137"},"addTags":{"amenity":"bank","brand":"Askari Bank","brand:en":"Askari Bank","brand:ur":"عسکری بینک","brand:wikidata":"Q4807137","name":"Askari Bank","name:en":"Askari Bank","name:ur":"عسکری بینک"}},"amenity/bank/bankalhabib-da5806":{"name":"Bank Al Habib (بينک الحبيب)","locationSet":{"include":["pk"]},"geometry":["point","area"],"matchScore":2,"terms":["bank al habib","بينک الحبيب"],"tags":{"amenity":"bank","brand:wikidata":"Q4034833"},"addTags":{"amenity":"bank","brand":"Bank Al Habib","brand:en":"Bank Al Habib","brand:ur":"بينک الحبيب","brand:wikidata":"Q4034833","name":"Bank Al Habib","name:en":"Bank Al Habib","name:ur":"بينک الحبيب"}},"amenity/bank/bankalfalah-a78d37":{"name":"Bank Alfalah (بینک الفلاح)","locationSet":{"include":["ae","af","bd","bh","pk"]},"geometry":["point","area"],"matchScore":2,"terms":["bank alfalah","bank alfalah limited","habib credit and exchange bank","بینک الفلاح","بینک الفلاح لمیٹڈ"],"tags":{"amenity":"bank","brand:wikidata":"Q4855895"},"addTags":{"amenity":"bank","brand":"Bank Alfalah","brand:en":"Bank Alfalah","brand:ur":"بینک الفلاح","brand:wikidata":"Q4855895","name:en":"Bank Alfalah","name:ur":"بینک الفلاح"}},"amenity/bank/faysalbank-da5806":{"name":"Faysal Bank (فیصل بینک)","locationSet":{"include":["pk"]},"geometry":["point","area"],"matchScore":2,"terms":["faysal bank","بنك فيصل الباكستاني المحدود","فیصل بینک"],"tags":{"amenity":"bank","brand:wikidata":"Q5439099"},"addTags":{"amenity":"bank","brand":"Faysal Bank","brand:ar":"بنك فيصل الباكستاني المحدود","brand:en":"Faysal Bank","brand:ur":"فیصل بینک","brand:wikidata":"Q5439099","name":"Faysal Bank","name:ar":"بنك فيصل الباكستاني المحدود","name:en":"Faysal Bank","name:ur":"فیصل بینک"}},"amenity/bank/hblbank-da5806":{"name":"HBL Bank (ایچ بی ایل پاکستان)","locationSet":{"include":["pk"]},"geometry":["point","area"],"matchScore":2,"terms":["habib bank limited","hbl","hbl bank","ایچ بی ایل پاکستان"],"tags":{"amenity":"bank","brand:wikidata":"Q1566843"},"addTags":{"amenity":"bank","brand":"HBL Bank","brand:en":"HBL Bank","brand:ur":"ایچ بی ایل پاکستان","brand:wikidata":"Q1566843","name":"HBL Bank","name:en":"HBL Bank","name:ur":"ایچ بی ایل پاکستان"}},"amenity/bank/mcb-57526d":{"name":"MCB (Pakistan)","locationSet":{"include":["ae","bh","lk","pk"]},"geometry":["point","area"],"matchScore":2,"terms":["mcb","mcb bank","ایم سی بی بینک"],"tags":{"amenity":"bank","brand:wikidata":"Q15982510"},"addTags":{"amenity":"bank","brand":"MCB","brand:en":"MCB","brand:ur":"ایم سی بی بینک","brand:wikidata":"Q15982510","name":"MCB","name:en":"MCB","name:ur":"ایم سی بی بینک"}},"amenity/bank/meezanbank-da5806":{"name":"Meezan Bank (میزان بینک)","locationSet":{"include":["pk"]},"geometry":["point","area"],"matchScore":2,"terms":["meezan bank","میزان بینک"],"tags":{"amenity":"bank","brand:wikidata":"Q6807934"},"addTags":{"amenity":"bank","brand":"Meezan Bank","brand:en":"Meezan Bank","brand:ur":"میزان بینک","brand:wikidata":"Q6807934","name":"Meezan Bank","name:en":"Meezan Bank","name:ur":"میزان بینک"}},"amenity/bank/summitbank-da5806":{"name":"Summit Bank","locationSet":{"include":["pk"]},"geometry":["point","area"],"matchScore":2,"terms":["summit bank"],"tags":{"amenity":"bank","brand:wikidata":"Q7637775"},"addTags":{"amenity":"bank","brand":"Summit Bank","brand:wikidata":"Q7637775","name":"Summit Bank"}},"amenity/bank/standardchartered-da5806":{"name":"اسٹینڈرڈ چارٹرڈ","locationSet":{"include":["pk"]},"geometry":["point","area"],"matchScore":2,"terms":["standard chartered","اسٹینڈرڈ چارٹرڈ","ایس سی بی"],"tags":{"amenity":"bank","brand:wikidata":"Q7598200"},"addTags":{"amenity":"bank","brand":"اسٹینڈرڈ چارٹرڈ","brand:en":"Standard Chartered","brand:ur":"اسٹینڈرڈ چارٹرڈ","brand:wikidata":"Q7598200","name":"اسٹینڈرڈ چارٹرڈ","name:en":"Standard Chartered","name:ur":"اسٹینڈرڈ چارٹرڈ","short_name":"ایس سی بی"}},"amenity/bank/jsbank-da5806":{"name":"جے ایس بینک","locationSet":{"include":["pk"]},"geometry":["point","area"],"matchScore":2,"terms":["js bank","جے ایس بی","جے ایس بینک"],"tags":{"amenity":"bank","brand:wikidata":"Q6108986"},"addTags":{"amenity":"bank","brand":"جے ایس بینک","brand:wikidata":"Q6108986","name":"جے ایس بینک","name:en":"JS Bank","name:ks":"جے ایس بینک","name:ur":"جے ایس بینک","short_name":"جے ایس بی"}},"amenity/bank/nationalbankofpakistan-da5806":{"name":"نیشنل بینک آف پاکستان","locationSet":{"include":["pk"]},"geometry":["point","area"],"matchScore":2,"terms":["national bank of pakistan","البنك الوطني الباكستاني","بانک ملی پاکستان","نيشنل بينڪ آف پاڪستان","نیشنل بینک آف پاکستان"],"tags":{"amenity":"bank","brand:wikidata":"Q2883425"},"addTags":{"amenity":"bank","brand":"نیشنل بینک آف پاکستان","brand:ar":"البنك الوطني الباكستاني","brand:ur":"نیشنل بینک آف پاکستان","brand:wikidata":"Q2883425","name":"نیشنل بینک آف پاکستان","name:ar":"البنك الوطني الباكستاني","name:en":"National Bank of Pakistan","name:fa":"بانک ملی پاکستان","name:sd":"نيشنل بينڪ آف پاڪستان","name:ur":"نیشنل بینک آف پاکستان"}},"amenity/bank/unitedbanklimited-da5806":{"name":"یونائیٹڈ بینک لمیٹڈ","locationSet":{"include":["pk"]},"geometry":["point","area"],"matchScore":2,"terms":["ubl","ubl bank","united bank limited","united bank limited pakistan","البنك المتحد المحدود الباكستاني","یو بی ایل","یونائیٹڈ بینک لمیٹڈ","یونایتد بنک"],"tags":{"amenity":"bank","brand:wikidata":"Q7887504"},"addTags":{"amenity":"bank","brand":"یونائیٹڈ بینک لمیٹڈ","brand:ar":"البنك المتحد المحدود الباكستاني","brand:ur":"یونائیٹڈ بینک لمیٹڈ","brand:wikidata":"Q7887504","name":"یونائیٹڈ بینک لمیٹڈ","name:ar":"البنك المتحد المحدود الباكستاني","name:en":"United Bank Limited","name:fa":"یونایتد بنک","name:pnb":"یونائیٹڈ بینک لمیٹڈ","name:ur":"یونائیٹڈ بینک لمیٹڈ","short_name":"یو بی ایل"}},"amenity/fast_food/chicken/dixychicken-d5291b":{"name":"Dixy Chicken","locationSet":{"include":["bn","gb","in","no","nz","pk","sa","sy","us"]},"geometry":["point","area"],"matchScore":2,"terms":["dixy chicken"],"reference":{"key":"cuisine","value":"chicken"},"tags":{"amenity":"fast_food","brand:wikidata":"Q5285003","cuisine":"chicken"},"addTags":{"amenity":"fast_food","brand":"Dixy Chicken","brand:wikidata":"Q5285003","cuisine":"chicken","diet:halal":"yes","name":"Dixy Chicken","takeaway":"yes"}},"amenity/fuel/pakistanstateoil-47133a":{"name":"پاکستان اسٹیٹ آئل","locationSet":{"include":["pk"]},"geometry":["point","area"],"matchScore":2,"terms":["pakistan state oil","pso","pso petrol pump","پاکستان اسٹیٹ آئل"],"fields":["name","brand","{amenity/fuel}"],"tags":{"amenity":"fuel","brand:wikidata":"Q2741455"},"addTags":{"amenity":"fuel","brand":"پاکستان اسٹیٹ آئل","brand:ar":"پاکستان اسٹیٹ آئل","brand:en":"Pakistan State Oil","brand:wikidata":"Q2741455","name":"پاکستان اسٹیٹ آئل","name:ar":"پاکستان اسٹیٹ آئل","name:en":"Pakistan State Oil","short_name:en":"PSO"}},"amenity/fuel/shell-47133a":{"name":"شیل","locationSet":{"include":["pk"]},"geometry":["point","area"],"matchScore":2,"terms":["shell","شل","شیل"],"fields":["name","brand","{amenity/fuel}"],"tags":{"amenity":"fuel","brand:wikidata":"Q110716465"},"addTags":{"amenity":"fuel","brand":"شیل","brand:ar":"شل","brand:en":"Shell","brand:fa":"شل","brand:ur":"شیل","brand:wikidata":"Q110716465","name":"شیل","name:ar":"شل","name:en":"Shell","name:fa":"شل","name:ur":"شیل"}},"amenity/restaurant/nandos-32ebee":{"name":"Nando's","locationSet":{"include":["ae","au","bd","bh","bw","ca","fj","gb","ie","in","mu","my","nz","om","pk","qa","sa","sg","sz","us","za","zm","zw"]},"geometry":["point","area"],"matchScore":2,"terms":["nando's"],"tags":{"amenity":"restaurant","brand:wikidata":"Q3472954"},"addTags":{"amenity":"restaurant","brand":"Nando's","brand:wikidata":"Q3472954","cuisine":"chicken;portuguese","name":"Nando's"}},"leisure/trampoline_park/skyzone-746047":{"name":"Sky Zone","locationSet":{"include":["ae","ca","co","gb","gt","in","mx","no","om","pk","sa","us"]},"geometry":["point","area"],"matchScore":2,"terms":["sky zone"],"tags":{"brand:wikidata":"Q7537557","leisure":"trampoline_park"},"addTags":{"brand":"Sky Zone","brand:wikidata":"Q7537557","leisure":"trampoline_park","name":"Sky Zone"}},"amenity/police/jammuandkashmirpolice-0bc1d6":{"name":"Jammu and Kashmir Police","locationSet":{"include":["in","pk"]},"geometry":["point","area"],"matchScore":2,"terms":["jammu and kashmir police"],"tags":{"amenity":"police","operator:wikidata":"Q6148022"},"addTags":{"amenity":"police","operator":"Jammu and Kashmir Police","operator:wikidata":"Q6148022"}},"amenity/post_box/pakistanpost-26ebda":{"name":"Pakistan Post","locationSet":{"include":["pk"]},"geometry":["point","vertex"],"matchScore":2,"terms":["pakistan post"],"tags":{"amenity":"post_box","operator:wikidata":"Q4046330"},"addTags":{"amenity":"post_box","operator":"Pakistan Post","operator:wikidata":"Q4046330"}},"amenity/post_office/pakistanpost-87c3b9":{"name":"Pakistan Post","locationSet":{"include":["pk"]},"geometry":["point","area"],"matchScore":2,"terms":["pakistan post"],"fields":["name","operator","{amenity/post_office}"],"tags":{"amenity":"post_office","operator:wikidata":"Q4046330"},"addTags":{"amenity":"post_office","operator":"Pakistan Post","operator:wikidata":"Q4046330"}},"office/energy_supplier/naturgy-e15d8a":{"name":"Naturgy","locationSet":{"include":["ar","au","be","br","cl","cn","cr","de","do","dz","eg","es","fr","gb","ie","in","jm","jo","jp","lu","ma","mx","nl","om","pa","pe","pk","pr","pt","sg"]},"geometry":["point","area"],"matchScore":2,"terms":["naturgy"],"tags":{"office":"energy_supplier","operator:wikidata":"Q474690"},"addTags":{"name":"Naturgy","office":"energy_supplier","operator":"Naturgy","operator:wikidata":"Q474690"}},"power/substation/ntdc-8cd436":{"name":"NTDC","locationSet":{"include":["pk"]},"geometry":["area","point"],"matchScore":2,"terms":["ntdc"],"tags":{"operator:wikidata":"Q48732133","power":"substation"},"addTags":{"operator":"NTDC","operator:wikidata":"Q48732133","power":"substation"}},"power/transformer/ntdc-dc2950":{"name":"NTDC","locationSet":{"include":["pk"]},"geometry":["point","vertex"],"matchScore":2,"terms":["ntdc"],"tags":{"operator:wikidata":"Q48732133","power":"transformer"},"addTags":{"operator":"NTDC","operator:wikidata":"Q48732133","power":"transformer"}}}