{"amenity/atm/bankartosindonesia-16476e":{"name":"Bank Artos Indonesia","locationSet":{"include":["id"]},"geometry":["point","vertex"],"matchScore":2,"terms":["bank artos indonesia"],"tags":{"amenity":"atm","brand:wikidata":"Q12474471"},"addTags":{"amenity":"atm","brand":"Bank Artos Indonesia","brand:wikidata":"Q12474471","name":"Bank Artos Indonesia","operator":"Bank Artos Indonesia","operator:wikidata":"Q12474471"}},"amenity/atm/bankcentralasia-16476e":{"name":"Bank Central Asia","locationSet":{"include":["id"]},"geometry":["point","vertex"],"matchScore":2,"terms":["bank central asia"],"tags":{"amenity":"atm","brand:wikidata":"Q806626"},"addTags":{"amenity":"atm","brand":"Bank Central Asia","brand:wikidata":"Q806626","name":"Bank Central Asia","operator":"Bank Central Asia","operator:wikidata":"Q806626"}},"amenity/atm/bankdanamon-16476e":{"name":"Bank Danamon","locationSet":{"include":["id"]},"geometry":["point","vertex"],"matchScore":2,"terms":["bank danamon"],"tags":{"amenity":"atm","brand:wikidata":"Q4855913"},"addTags":{"amenity":"atm","brand":"Bank Danamon","brand:wikidata":"Q4855913","name":"Bank Danamon","operator":"Bank Danamon","operator:wikidata":"Q4855913"}},"amenity/atm/bankmandiri-16476e":{"name":"Bank Mandiri","locationSet":{"include":["id"]},"geometry":["point","vertex"],"matchScore":2,"terms":["bank mandiri"],"tags":{"amenity":"atm","brand:wikidata":"Q806639"},"addTags":{"amenity":"atm","brand":"Bank Mandiri","brand:wikidata":"Q806639","name":"Bank Mandiri","operator":"Bank Mandiri","operator:wikidata":"Q806639"}},"amenity/atm/bankmandirisyariah-16476e":{"name":"Bank Mandiri Syariah","locationSet":{"include":["id"]},"geometry":["point","vertex"],"matchScore":2,"terms":["bank mandiri syariah"],"tags":{"amenity":"atm","brand:wikidata":"Q12474533"},"addTags":{"amenity":"atm","brand":"Bank Mandiri Syariah","brand:wikidata":"Q12474533","name":"Bank Mandiri Syariah","operator":"Bank Mandiri Syariah","operator:wikidata":"Q12474533"}},"amenity/atm/bankmega-16476e":{"name":"Bank Mega","locationSet":{"include":["id"]},"geometry":["point","vertex"],"matchScore":2,"terms":["bank mega"],"tags":{"amenity":"atm","brand:wikidata":"Q12474504"},"addTags":{"amenity":"atm","brand":"Bank Mega","brand:wikidata":"Q12474504","name":"Bank Mega","operator":"Bank Mega","operator:wikidata":"Q12474504"}},"amenity/atm/bankmuamalat-465f88":{"name":"Bank Muamalat","locationSet":{"include":["id","my"]},"geometry":["point","vertex"],"matchScore":2,"terms":["bank muamalat"],"tags":{"amenity":"atm","brand:wikidata":"Q4855949"},"addTags":{"amenity":"atm","brand":"Bank Muamalat","brand:wikidata":"Q4855949","name":"Bank Muamalat","operator":"Bank Muamalat","operator:wikidata":"Q4855949"}},"amenity/atm/bankpermata-16476e":{"name":"Bank Permata","locationSet":{"include":["id"]},"geometry":["point","vertex"],"matchScore":2,"terms":["bank permata"],"tags":{"amenity":"atm","brand:wikidata":"Q4855963"},"addTags":{"amenity":"atm","brand":"Bank Permata","brand:wikidata":"Q4855963","name":"Bank Permata","operator":"Bank Permata","operator:wikidata":"Q4855963"}},"amenity/atm/bca-16476e":{"name":"BCA","locationSet":{"include":["id"]},"geometry":["point","vertex"],"matchScore":2,"terms":["bank bca","bank central asia","bca"],"tags":{"amenity":"atm","brand:wikidata":"Q806626"},"addTags":{"amenity":"atm","brand":"BCA","brand:wikidata":"Q806626","name":"BCA","official_name":"Bank Central Asia","operator":"BCA","operator:wikidata":"Q806626"}},"amenity/atm/bni-d4d2b6":{"name":"BNI","locationSet":{"include":["au","ca","gb","hk","id","jp","kr","mm","sg","us"]},"geometry":["point","vertex"],"matchScore":2,"terms":["bank bni","bank negara indonesia","bni"],"tags":{"amenity":"atm","brand:wikidata":"Q2882611"},"addTags":{"amenity":"atm","brand":"BNI","brand:wikidata":"Q2882611","name":"BNI","official_name":"Bank Negara Indonesia","operator":"BNI","operator:wikidata":"Q2882611"}},"amenity/atm/bri-16476e":{"name":"BRI","locationSet":{"include":["id"]},"geometry":["point","vertex"],"matchScore":2,"terms":["bank bri","bank rakyat indonesia","bri"],"tags":{"amenity":"atm","brand:wikidata":"Q623042"},"addTags":{"amenity":"atm","brand":"BRI","brand:wikidata":"Q623042","name":"BRI","official_name":"Bank Rakyat Indonesia","operator":"BRI","operator:wikidata":"Q623042"}},"amenity/atm/btn-16476e":{"name":"BTN","locationSet":{"include":["id"]},"geometry":["point","vertex"],"matchScore":2,"terms":["bank tabungan negara","btn"],"tags":{"amenity":"atm","brand:wikidata":"Q12474534"},"addTags":{"amenity":"atm","brand":"BTN","brand:en":"BTN","brand:id":"BTN","brand:wikidata":"Q12474534","name":"BTN","official_name":"Bank Tabungan Negara","operator":"BTN","operator:wikidata":"Q12474534"}},"amenity/atm/cimbniaga-16476e":{"name":"CIMB Niaga","locationSet":{"include":["id"]},"geometry":["point","vertex"],"matchScore":2,"terms":["cimb niaga"],"tags":{"amenity":"atm","brand:wikidata":"Q5011747"},"addTags":{"amenity":"atm","brand":"CIMB Niaga","brand:wikidata":"Q5011747","name":"CIMB Niaga","operator":"CIMB Niaga","operator:wikidata":"Q5011747"}},"amenity/atm/paninbank-16476e":{"name":"Panin Bank","locationSet":{"include":["id"]},"geometry":["point","vertex"],"matchScore":2,"terms":["panin bank"],"tags":{"amenity":"atm","brand:wikidata":"Q12502751"},"addTags":{"amenity":"atm","brand":"Panin Bank","brand:wikidata":"Q12502751","name":"Panin Bank","operator":"Panin Bank","operator:wikidata":"Q12502751"}},"amenity/atm/rabobank-f970f3":{"name":"Rabobank","locationSet":{"include":["au","id","nl","nz","us"]},"geometry":["point","vertex"],"matchScore":2,"terms":["rabobank"],"tags":{"amenity":"atm","brand:wikidata":"Q252004"},"addTags":{"amenity":"atm","brand":"Rabobank","brand:wikidata":"Q252004","name":"Rabobank","operator":"Rabobank","operator:wikidata":"Q252004"}},"amenity/atm/uob-441a96":{"name":"UOB","locationSet":{"include":["au","bn","ca","cn","gb","hk","id","in","jp","kr","mm","my","ph","sg","th","us","vn"]},"geometry":["point","vertex"],"matchScore":2,"terms":["united overseas bank","uob","大华银行"],"tags":{"amenity":"atm","brand:wikidata":"Q2064074"},"addTags":{"amenity":"atm","brand":"UOB","brand:wikidata":"Q2064074","brand:zh":"大华银行","name":"UOB","name:zh":"大华银行","operator":"UOB","operator:wikidata":"Q2064074"}},"amenity/bank/bankartosindonesia-aa7852":{"name":"Bank Artos Indonesia","locationSet":{"include":["id"]},"geometry":["point","area"],"matchScore":2,"terms":["bank artos indonesia"],"tags":{"amenity":"bank","brand:wikidata":"Q12474471"},"addTags":{"amenity":"bank","brand":"Bank Artos Indonesia","brand:wikidata":"Q12474471","name":"Bank Artos Indonesia"}},"amenity/bank/bankcentralasia-aa7852":{"name":"Bank Central Asia","locationSet":{"include":["id"]},"geometry":["point","area"],"matchScore":2,"terms":["bank central asia"],"tags":{"amenity":"bank","brand:wikidata":"Q806626"},"addTags":{"amenity":"bank","brand":"Bank Central Asia","brand:wikidata":"Q806626","name":"Bank Central Asia"}},"amenity/bank/bankdanamon-aa7852":{"name":"Bank Danamon","locationSet":{"include":["id"]},"geometry":["point","area"],"matchScore":2,"terms":["bank danamon"],"tags":{"amenity":"bank","brand:wikidata":"Q4855913"},"addTags":{"amenity":"bank","brand":"Bank Danamon","brand:wikidata":"Q4855913","name":"Bank Danamon"}},"amenity/bank/bankmandiri-aa7852":{"name":"Bank Mandiri","locationSet":{"include":["id"]},"geometry":["point","area"],"matchScore":2,"terms":["bank mandiri"],"tags":{"amenity":"bank","brand:wikidata":"Q806639"},"addTags":{"amenity":"bank","brand":"Bank Mandiri","brand:wikidata":"Q806639","name":"Bank Mandiri"}},"amenity/bank/bankmandirisyariah-aa7852":{"name":"Bank Mandiri Syariah","locationSet":{"include":["id"]},"geometry":["point","area"],"matchScore":2,"terms":["bank mandiri syariah"],"tags":{"amenity":"bank","brand:wikidata":"Q12474533"},"addTags":{"amenity":"bank","brand":"Bank Mandiri Syariah","brand:wikidata":"Q12474533","name":"Bank Mandiri Syariah"}},"amenity/bank/bankmega-aa7852":{"name":"Bank Mega","locationSet":{"include":["id"]},"geometry":["point","area"],"matchScore":2,"terms":["bank mega"],"tags":{"amenity":"bank","brand:wikidata":"Q12474504"},"addTags":{"amenity":"bank","brand":"Bank Mega","brand:wikidata":"Q12474504","name":"Bank Mega"}},"amenity/bank/bankmuamalat-74c287":{"name":"Bank Muamalat","locationSet":{"include":["id","my"]},"geometry":["point","area"],"matchScore":2,"terms":["bank muamalat"],"tags":{"amenity":"bank","brand:wikidata":"Q4855949"},"addTags":{"amenity":"bank","brand":"Bank Muamalat","brand:wikidata":"Q4855949","name":"Bank Muamalat"}},"amenity/bank/bankpermata-aa7852":{"name":"Bank Permata","locationSet":{"include":["id"]},"geometry":["point","area"],"matchScore":2,"terms":["bank permata"],"tags":{"amenity":"bank","brand:wikidata":"Q4855963"},"addTags":{"amenity":"bank","brand":"Bank Permata","brand:wikidata":"Q4855963","name":"Bank Permata"}},"amenity/bank/bca-aa7852":{"name":"BCA","locationSet":{"include":["id"]},"geometry":["point","area"],"matchScore":2,"terms":["bank bca","bank central asia","bca"],"tags":{"amenity":"bank","brand:wikidata":"Q806626"},"addTags":{"amenity":"bank","brand":"BCA","brand:wikidata":"Q806626","name":"BCA","official_name":"Bank Central Asia"}},"amenity/bank/bni-27dfb6":{"name":"BNI","locationSet":{"include":["au","ca","gb","hk","id","jp","kr","mm","sg","us"]},"geometry":["point","area"],"matchScore":2,"terms":["bank bni","bank negara indonesia","bni"],"tags":{"amenity":"bank","brand:wikidata":"Q2882611"},"addTags":{"amenity":"bank","brand":"BNI","brand:wikidata":"Q2882611","name":"BNI","official_name":"Bank Negara Indonesia"}},"amenity/bank/bri-aa7852":{"name":"BRI","locationSet":{"include":["id"]},"geometry":["point","area"],"matchScore":2,"terms":["bank bri","bank rakyat indonesia","bri"],"tags":{"amenity":"bank","brand:wikidata":"Q623042"},"addTags":{"amenity":"bank","brand":"BRI","brand:wikidata":"Q623042","name":"BRI","official_name":"Bank Rakyat Indonesia"}},"amenity/bank/btn-aa7852":{"name":"BTN","locationSet":{"include":["id"]},"geometry":["point","area"],"matchScore":2,"terms":["bank tabungan negara","btn"],"tags":{"amenity":"bank","brand:wikidata":"Q12474534"},"addTags":{"amenity":"bank","brand":"BTN","brand:en":"BTN","brand:id":"BTN","brand:wikidata":"Q12474534","name":"BTN","official_name":"Bank Tabungan Negara"}},"amenity/bank/cimbniaga-aa7852":{"name":"CIMB Niaga","locationSet":{"include":["id"]},"geometry":["point","area"],"matchScore":2,"terms":["cimb niaga"],"tags":{"amenity":"bank","brand:wikidata":"Q5011747"},"addTags":{"amenity":"bank","brand":"CIMB Niaga","brand:wikidata":"Q5011747","name":"CIMB Niaga"}},"amenity/bank/paninbank-aa7852":{"name":"Panin Bank","locationSet":{"include":["id"]},"geometry":["point","area"],"matchScore":2,"terms":["panin bank"],"tags":{"amenity":"bank","brand:wikidata":"Q12502751"},"addTags":{"amenity":"bank","brand":"Panin Bank","brand:wikidata":"Q12502751","name":"Panin Bank"}},"amenity/bank/rabobank-c61987":{"name":"Rabobank","locationSet":{"include":["au","id","nl","nz","us"]},"geometry":["point","area"],"matchScore":2,"terms":["rabobank"],"tags":{"amenity":"bank","brand:wikidata":"Q252004"},"addTags":{"amenity":"bank","brand":"Rabobank","brand:wikidata":"Q252004","name":"Rabobank"}},"amenity/bank/uob-dadccc":{"name":"UOB","locationSet":{"include":["au","bn","ca","cn","gb","hk","id","in","jp","kr","mm","my","ph","sg","th","us","vn"]},"geometry":["point","area"],"matchScore":2,"terms":["united overseas bank","uob","大华银行"],"tags":{"amenity":"bank","brand:wikidata":"Q2064074"},"addTags":{"amenity":"bank","brand":"UOB","brand:wikidata":"Q2064074","brand:zh":"大华银行","name":"UOB","name:zh":"大华银行"}},"amenity/bicycle_rental/boseh-2db6d2":{"name":"Boseh","locationSet":{"include":["id"]},"geometry":["point","vertex","area"],"matchScore":2,"terms":["boseh"],"fields":["name","brand","{amenity/bicycle_rental}"],"tags":{"amenity":"bicycle_rental","brand:wikidata":"Q56392276"},"addTags":{"amenity":"bicycle_rental","brand":"Boseh","brand:wikidata":"Q56392276","name":"Boseh","network":"Boseh","network:wikidata":"Q56392276","operator":"Boseh","operator:wikidata":"Q56392276"}},"amenity/cafe/coffee_shop/michelspatisserie-d7a541":{"name":"Michel's Patisserie","locationSet":{"include":["au","cn","id","nz"]},"geometry":["point","area"],"matchScore":2,"terms":["michel's patisserie"],"reference":{"key":"cuisine","value":"coffee_shop"},"tags":{"amenity":"cafe","brand:wikidata":"Q6836235","cuisine":"coffee_shop"},"addTags":{"amenity":"cafe","brand":"Michel's Patisserie","brand:wikidata":"Q6836235","cuisine":"coffee_shop","name":"Michel's Patisserie","takeaway":"yes"}},"amenity/cinema/cinemaxx-ee9238":{"name":"Cinemaxx (Indonesia)","locationSet":{"include":["id"]},"geometry":["point","area"],"matchScore":2,"terms":["cinemaxx"],"fields":["name","brand","{amenity/cinema}"],"tags":{"amenity":"cinema","brand:wikidata":"Q19942740"},"addTags":{"amenity":"cinema","brand":"Cinemaxx","brand:wikidata":"Q19942740","name":"Cinemaxx"}},"amenity/fast_food/hokben-034122":{"name":"HokBen","locationSet":{"include":["id"]},"geometry":["point","area"],"matchScore":2,"terms":["hoka hoka bento","hokben"],"tags":{"amenity":"fast_food","brand:wikidata":"Q5877948"},"addTags":{"alt_name":"Hoka Hoka Bento","amenity":"fast_food","brand":"HokBen","brand:wikidata":"Q5877948","cuisine":"japanese","name":"HokBen","takeaway":"yes"}},"amenity/fast_food/secretrecipe-541408":{"name":"Secret Recipe","locationSet":{"include":["bd","bn","cn","id","kh","mm","mv","my","sg","th"]},"geometry":["point","area"],"matchScore":2,"terms":["secret recipe"],"tags":{"amenity":"fast_food","brand:wikidata":"Q7444079"},"addTags":{"amenity":"fast_food","brand":"Secret Recipe","brand:wikidata":"Q7444079","cuisine":"cake;malaysian","name":"Secret Recipe","takeaway":"yes"}},"amenity/fast_food/yoshinoya-ffe475":{"name":"Yoshinoya","locationSet":{"include":["id","my","ph","sg","us"]},"geometry":["point","area"],"matchScore":2,"terms":["yoshinoya","吉野家"],"tags":{"amenity":"fast_food","brand:wikidata":"Q776272"},"addTags":{"amenity":"fast_food","brand":"Yoshinoya","brand:en":"Yoshinoya","brand:wikidata":"Q776272","cuisine":"beef_bowl","name":"Yoshinoya","name:en":"Yoshinoya","name:ja":"吉野家","takeaway":"yes"}},"amenity/fast_food/sakaesushi-1ef1da":{"name":"栄寿司","locationSet":{"include":["cn","id","my","pi","sg","th"]},"geometry":["point","area"],"matchScore":2,"terms":["sakae sushi","栄寿司"],"tags":{"amenity":"fast_food","brand:wikidata":"Q14955169"},"addTags":{"amenity":"fast_food","brand":"栄寿司","brand:en":"Sakae Sushi","brand:ja":"栄寿司","brand:wikidata":"Q14955169","cuisine":"japanese","name":"栄寿司","name:en":"Sakae Sushi","name:ja":"栄寿司","takeaway":"yes"}},"amenity/fast_food/oldchangkee-ff7eca":{"name":"老曾记","locationSet":{"include":["cn","gb","id","my","ph","sg"]},"geometry":["point","area"],"matchScore":2,"terms":["old chang kee","老曾记"],"tags":{"amenity":"fast_food","brand:wikidata":"Q17005286"},"addTags":{"amenity":"fast_food","brand":"老曾记","brand:en":"Old Chang Kee","brand:wikidata":"Q17005286","brand:zh":"老曾记","cuisine":"snacks","name":"老曾记","name:en":"Old Chang Kee","name:zh":"老曾记","takeaway":"yes"}},"amenity/fuel/pertamina-d2ad30":{"name":"Pertamina","locationSet":{"include":["id"]},"geometry":["point","area"],"matchScore":2,"terms":["pertamina"],"fields":["name","brand","{amenity/fuel}"],"tags":{"amenity":"fuel","brand:wikidata":"Q1641044"},"addTags":{"amenity":"fuel","brand":"Pertamina","brand:wikidata":"Q1641044","name":"Pertamina"}},"amenity/ice_cream/llaollao-dd9462":{"name":"Llaollao","locationSet":{"include":["au","ch","cl","co","ec","es","fr","gt","hr","id","iq","kw","ma","my","ph","pt","sa","sg","si","sv","us","vn"]},"geometry":["point","area"],"matchScore":2,"terms":["llaollao"],"tags":{"amenity":"ice_cream","brand:wikidata":"Q12163048"},"addTags":{"amenity":"ice_cream","brand":"Llaollao","brand:wikidata":"Q12163048","cuisine":"frozen_yogurt","name":"Llaollao"}},"amenity/language_school/shaneenglishschool-f8b177":{"name":"Shane English School","locationSet":{"include":["dz","gb","hk","id","kr","pl","th","vn"]},"geometry":["point","area"],"matchScore":2,"terms":["shane english school","シェーン英会話"],"fields":["name","brand","{amenity/language_school}"],"tags":{"amenity":"language_school","brand:wikidata":"Q17054332"},"addTags":{"amenity":"language_school","brand":"Shane English School","brand:en":"Shane English School","brand:ja":"シェーン英会話","brand:ja-Latn":"Shēn Eikaiwa","brand:wikidata":"Q17054332","language:en":"main","name":"Shane English School","name:en":"Shane English School","name:ja":"シェーン英会話","name:ja-Latn":"Shēn Eikaiwa"}},"amenity/pharmacy/guardian-c3738d":{"name":"Guardian (Asia)","locationSet":{"include":["bn","id","kh","my","sg","vn"]},"geometry":["point","area"],"matchScore":2,"terms":["guardian"],"reference":{"key":"amenity","value":"pharmacy"},"tags":{"amenity":"pharmacy","brand:wikidata":"Q63371124"},"addTags":{"amenity":"pharmacy","brand":"Guardian","brand:wikidata":"Q63371124","healthcare":"pharmacy","name":"Guardian"}},"amenity/pharmacy/kimiafarma-5c6039":{"name":"Kimia Farma","locationSet":{"include":["id"]},"geometry":["point","area"],"matchScore":2,"terms":["apotek kimia farma","kimia farma"],"reference":{"key":"amenity","value":"pharmacy"},"tags":{"amenity":"pharmacy","brand:wikidata":"Q11264892"},"addTags":{"amenity":"pharmacy","brand":"Kimia Farma","brand:wikidata":"Q11264892","healthcare":"pharmacy","name":"Kimia Farma"}},"amenity/restaurant/seafood/bubbagumpshrimpcompany-90d54f":{"name":"Bubba Gump Shrimp Company","locationSet":{"include":["ca","co","gb","hk","id","jp","mp","mx","ph","us"]},"geometry":["point","area"],"matchScore":2,"terms":["bubba gump shrimp company"],"reference":{"key":"cuisine","value":"seafood"},"tags":{"amenity":"restaurant","brand:wikidata":"Q50024","cuisine":"seafood"},"addTags":{"amenity":"restaurant","brand":"Bubba Gump Shrimp Company","brand:wikidata":"Q50024","cuisine":"seafood","name":"Bubba Gump Shrimp Company"}},"amenity/restaurant/cfc-25c4a5":{"name":"California Fried Chicken","locationSet":{"include":["id"]},"geometry":["point","area"],"matchScore":2,"terms":["california fried chicken"],"tags":{"amenity":"restaurant","brand:wikidata":"Q5020502"},"addTags":{"amenity":"restaurant","brand":"California Fried Chicken","brand:wikidata":"Q5020502","cuisine":"chicken","name":"CFC"}},"amenity/restaurant/dintaifung-4a64f1":{"name":"Din Tai Fung","locationSet":{"include":["ae","au","gb","id","jp","kr","mo","my","ph","sg","th","us"]},"geometry":["point","area"],"matchScore":2,"terms":["din tai fung","鼎泰豐"],"tags":{"amenity":"restaurant","brand:wikidata":"Q699142"},"addTags":{"amenity":"restaurant","brand":"Din Tai Fung","brand:en":"Din Tai Fung","brand:wikidata":"Q699142","brand:zh":"鼎泰豐","cuisine":"taiwanese","name":"Din Tai Fung","name:en":"Din Tai Fung","name:zh":"鼎泰豐"}},"amenity/restaurant/noodle/marugameudon-be1647":{"name":"Marugame Udon","locationSet":{"include":["gb","id","kh","ph","ru","us","vn"]},"geometry":["point","area"],"matchScore":2,"terms":["marugame seimen"],"reference":{"key":"cuisine","value":"noodle"},"tags":{"amenity":"restaurant","brand:wikidata":"Q10877253","cuisine":"noodle"},"addTags":{"alt_name":"Marugame Seimen","amenity":"restaurant","brand":"Marugame Seimen","brand:wikidata":"Q10877253","cuisine":"noodle","name":"Marugame Udon"}},"amenity/restaurant/vietnamese/phohoa-13c988":{"name":"Phở Hòa","locationSet":{"include":["ca","id","kr","ms","ph","us"]},"geometry":["point","area"],"matchScore":2,"terms":["pho hoa","phở hoà","phở hòa"],"reference":{"key":"cuisine","value":"vietnamese"},"tags":{"amenity":"restaurant","brand:wikidata":"Q55629932","cuisine":"vietnamese;noodle"},"addTags":{"alt_name":"Phở Hoà","alt_name:en":"Pho Hoa","alt_name:vi":"Phở Hoà","amenity":"restaurant","brand":"Phở Hòa","brand:wikidata":"Q55629932","cuisine":"vietnamese;noodle","name":"Phở Hòa","name:vi":"Phở Hòa"}},"leisure/amusement_arcade/timezone-bbc11e":{"name":"Timezone","locationSet":{"include":["au","id","in","nz","ph","sg","vn"]},"geometry":["point","area"],"matchScore":2,"terms":["timezone"],"tags":{"brand:wikidata":"Q12521502","leisure":"amusement_arcade"},"addTags":{"brand":"Timezone","brand:wikidata":"Q12521502","leisure":"amusement_arcade","name":"Timezone"}},"leisure/fitness_centre/celebrityfitness-412a8d":{"name":"Celebrity Fitness","locationSet":{"include":["id","my","ph","sg","th"]},"geometry":["point","area"],"matchScore":2,"terms":["celebrity fitness"],"tags":{"brand:wikidata":"Q5057734","leisure":"fitness_centre"},"addTags":{"brand":"Celebrity Fitness","brand:wikidata":"Q5057734","leisure":"fitness_centre","name":"Celebrity Fitness"}},"leisure/fitness_centre/snapfitness-551086":{"name":"Snap Fitness","locationSet":{"include":["ae","au","be","ca","es","gb","hk","id","ie","jp","mx","nl","nz","ph","tr","tw","us"]},"geometry":["point","area"],"matchScore":2,"terms":["snap fitness"],"tags":{"brand:wikidata":"Q7547254","leisure":"fitness_centre"},"addTags":{"brand":"Snap Fitness","brand:wikidata":"Q7547254","leisure":"fitness_centre","name":"Snap Fitness"}},"office/telecommunication/indosatooredoo-89d943":{"name":"Indosat Ooredoo","locationSet":{"include":["id"]},"geometry":["point","area"],"matchScore":2,"terms":["indosat","indosat ooredoo"],"tags":{"brand:wikidata":"Q2393592","office":"telecommunication"},"addTags":{"alt_name":"Indosat","brand":"Indosat Ooredoo","brand:wikidata":"Q2393592","name":"Indosat Ooredoo","office":"telecommunication"}},"office/telecommunication/telkomsel-89d943":{"name":"Telkomsel","locationSet":{"include":["id"]},"geometry":["point","area"],"matchScore":2,"terms":["telkomsel"],"tags":{"brand:wikidata":"Q1786124","office":"telecommunication"},"addTags":{"brand":"Telkomsel","brand:wikidata":"Q1786124","name":"Telkomsel","office":"telecommunication"}},"office/telecommunication/xlaxiata-89d943":{"name":"XL Axiata","locationSet":{"include":["id"]},"geometry":["point","area"],"matchScore":2,"terms":["xl","xl axiata"],"tags":{"brand:wikidata":"Q3482752","office":"telecommunication"},"addTags":{"alt_name":"XL","brand":"XL Axiata","brand:wikidata":"Q3482752","name":"XL Axiata","office":"telecommunication"}},"shop/bakery/paul-652955":{"name":"Paul","locationSet":{"include":["ae","az","be","bh","by","ci","cy","cz","eg","es","fr","ga","gb","ge","gr","id","in","jo","jp","kw","kz","lb","lu","ma","mu","my","om","pa","ph","pl","pt","qa","ro","ru","sa","sg","th","tn","tw","ua","us","uz","vn","za"]},"geometry":["point","area"],"matchScore":2,"terms":["paul"],"tags":{"brand:wikidata":"Q3370417","shop":"bakery"},"addTags":{"brand":"Paul","brand:wikidata":"Q3370417","name":"Paul","shop":"bakery"}},"shop/bakery/touslesjours-e39ddb":{"name":"Tous Les Jours","locationSet":{"include":["id","kh","my","ph","us","vn"]},"geometry":["point","area"],"matchScore":2,"terms":["tous les jours"],"tags":{"brand:wikidata":"Q3535609","shop":"bakery"},"addTags":{"brand":"Tous Les Jours","brand:wikidata":"Q3535609","name":"Tous Les Jours","shop":"bakery"}},"shop/books/gramedia-828c8f":{"name":"Gramedia","locationSet":{"include":["id"]},"geometry":["point","area"],"matchScore":2,"terms":["gramedia"],"tags":{"brand:wikidata":"Q19646130","shop":"books"},"addTags":{"brand":"Gramedia","brand:wikidata":"Q19646130","name":"Gramedia","shop":"books"}},"shop/car/proton-576082":{"name":"Proton","locationSet":{"include":["cl","eg","id","my","sg","th"]},"geometry":["point","area"],"matchScore":2,"terms":["proton"],"fields":["name","brand","{shop/car}"],"tags":{"brand:wikidata":"Q827306","shop":"car"},"addTags":{"brand":"Proton","brand:wikidata":"Q827306","name":"Proton","shop":"car"}},"shop/convenience/alfamart-28d321":{"name":"Alfamart","locationSet":{"include":["id","ph"]},"geometry":["point","area"],"matchScore":2,"terms":["alfamart"],"tags":{"brand:wikidata":"Q23745600","shop":"convenience"},"addTags":{"brand":"Alfamart","brand:wikidata":"Q23745600","name":"Alfamart","shop":"convenience"}},"shop/convenience/alfamidi-bb8a09":{"name":"Alfamidi","locationSet":{"include":["id"]},"geometry":["point","area"],"matchScore":2,"terms":["alfamidi"],"tags":{"brand:wikidata":"Q12471462","shop":"convenience"},"addTags":{"brand":"Alfamidi","brand:wikidata":"Q12471462","name":"Alfamidi","shop":"convenience"}},"shop/convenience/indomaret-bb8a09":{"name":"Indomaret","locationSet":{"include":["id"]},"geometry":["point","area"],"matchScore":2,"terms":["indomaret","indomart"],"tags":{"brand:wikidata":"Q4262825","shop":"convenience"},"addTags":{"brand":"Indomaret","brand:wikidata":"Q4262825","name":"Indomaret","shop":"convenience"}},"shop/department_store/centraldepartmentstore-10be9f":{"name":"Central Department Store","locationSet":{"include":["id","th"]},"geometry":["point","area"],"matchScore":2,"terms":["central department store","สรรพสินค้าเซ็นทรัล","尚泰"],"tags":{"brand:wikidata":"Q5060703","shop":"department_store"},"addTags":{"brand":"Central Department Store","brand:en":"Central Department Store","brand:th":"สรรพสินค้าเซ็นทรัล","brand:wikidata":"Q5060703","brand:zh":"尚泰","shop":"department_store"}},"shop/department_store/galerieslafayette-b7f45a":{"name":"Galeries Lafayette","locationSet":{"include":["ae","cn","de","fr","id","lu","qa","tr"]},"geometry":["point","area"],"matchScore":2,"terms":["galeries lafayette"],"tags":{"brand:wikidata":"Q3094686","shop":"department_store"},"addTags":{"brand":"Galeries Lafayette","brand:wikidata":"Q3094686","name":"Galeries Lafayette","shop":"department_store"}},"shop/department_store/lottedepartmentstore-256de8":{"name":"Lotte Department Store","locationSet":{"include":["cn","id","kr","ru","vn"]},"geometry":["point","area"],"matchScore":2,"terms":["lotte","lotte department store"],"tags":{"brand:wikidata":"Q489905","shop":"department_store"},"addTags":{"brand":"Lotte Department Store","brand:wikidata":"Q489905","name":"Lotte Department Store","shop":"department_store"}},"shop/department_store/parkson-6dcedc":{"name":"Parkson","locationSet":{"include":["id","la","mm","my","vn"]},"geometry":["point","area"],"matchScore":2,"terms":["parkson","百盛"],"tags":{"brand:wikidata":"Q835145","shop":"department_store"},"addTags":{"brand":"Parkson","brand:en":"Parkson","brand:wikidata":"Q835145","brand:zh":"百盛","name":"Parkson","name:en":"Parkson","name:zh":"百盛","shop":"department_store"}},"shop/doityourself/mrdiy-85e32f":{"name":"MR.DIY","locationSet":{"include":["bn","id","in","kn","my","ph","sg","th"]},"geometry":["point","area"],"matchScore":2,"terms":["mr.diy"],"tags":{"brand:wikidata":"Q105044323","shop":"doityourself"},"addTags":{"brand":"MR.DIY","brand:wikidata":"Q105044323","name":"MR.DIY","shop":"doityourself"}},"shop/outdoor/eiger-19c913":{"name":"Eiger","locationSet":{"include":["id"]},"geometry":["point","area"],"matchScore":2,"terms":["eiger"],"tags":{"brand:wikidata":"Q25471361","shop":"outdoor"},"addTags":{"brand":"Eiger","brand:wikidata":"Q25471361","name":"Eiger","shop":"outdoor"}},"shop/outdoor/rei-72e82e":{"name":"REI","locationSet":{"include":["id","us"]},"geometry":["point","area"],"matchScore":2,"terms":["recreational equipment, inc.","rei"],"tags":{"brand:wikidata":"Q3414933","shop":"outdoor"},"addTags":{"brand":"REI","brand:wikidata":"Q3414933","name":"REI","official_name":"Recreational Equipment, Inc.","shop":"outdoor"}},"shop/pawnbroker/pegadaian-cd799d":{"name":"Pegadaian","locationSet":{"include":["id"]},"geometry":["point","area"],"matchScore":2,"terms":["pegadaian"],"tags":{"brand:wikidata":"Q7160531","shop":"pawnbroker"},"addTags":{"brand":"Pegadaian","brand:wikidata":"Q7160531","name":"Pegadaian","shop":"pawnbroker"}},"shop/shoes/stuartweitzman-54b0d5":{"name":"Stuart Weitzman","locationSet":{"include":["ca","ch","de","fr","id","nl","uk","us"]},"geometry":["point","area"],"matchScore":2,"terms":["stuart weitzman"],"tags":{"brand:wikidata":"Q75244763","shop":"shoes"},"addTags":{"brand":"Stuart Weitzman","brand:wikidata":"Q75244763","name":"Stuart Weitzman","shop":"shoes"}},"shop/supermarket/gianthypermarket-e1160b":{"name":"Giant Hypermarket","locationSet":{"include":["id","my","sg","vn"]},"geometry":["point","area"],"matchScore":2,"terms":["giant hypermarket"],"tags":{"brand:wikidata":"Q4217013","shop":"supermarket"},"addTags":{"brand":"Giant Hypermarket","brand:wikidata":"Q4217013","name":"Giant Hypermarket","shop":"supermarket"}},"shop/supermarket/herosupermarket-9b33de":{"name":"Hero Supermarket","locationSet":{"include":["id"]},"geometry":["point","area"],"matchScore":2,"terms":["hero supermarket"],"tags":{"brand:wikidata":"Q12485604","shop":"supermarket"},"addTags":{"brand":"Hero Supermarket","brand:wikidata":"Q12485604","name":"Hero Supermarket","shop":"supermarket"}},"shop/supermarket/lottemart-1fa952":{"name":"Lotte Mart","locationSet":{"include":["id","kr"]},"geometry":["point","area"],"matchScore":2,"terms":["lotte mart"],"tags":{"brand:wikidata":"Q326715","shop":"supermarket"},"addTags":{"brand":"Lotte Mart","brand:wikidata":"Q326715","name":"Lotte Mart","shop":"supermarket"}},"shop/tyres/tyreplus-99cc81":{"name":"Tyreplus","locationSet":{"include":["ae","au","bh","cn","id","kh","kw","my","om","ph","qa","ru","sa","sg","th","tw"]},"geometry":["point","area"],"matchScore":2,"terms":["tyreplus"],"tags":{"brand:wikidata":"Q110959120","shop":"tyres"},"addTags":{"brand":"Tyreplus","brand:wikidata":"Q110959120","name":"Tyreplus","shop":"tyres"}},"tourism/hotel/bulgari-a1f85a":{"name":"Bulgari","locationSet":{"include":["ae","cn","fx","gb","id","it","jp","ru","us"]},"geometry":["point","area"],"matchScore":2,"terms":["bulgari"],"fields":["name","brand","{tourism/hotel}"],"tags":{"brand:wikidata":"Q752515","tourism":"hotel"},"addTags":{"brand":"Bulgari","brand:wikidata":"Q752515","name":"Bulgari","tourism":"hotel"}},"tourism/hotel/conrad-ee1a43":{"name":"Conrad Hotels & Resorts","locationSet":{"include":["ae","ca","cn","eg","gb","id","ie","in","jp","kr","mv","pf","ph","pt","sa","sg","th","tr","us"]},"geometry":["point","area"],"matchScore":2,"terms":["conrad"],"fields":["name","brand","{tourism/hotel}"],"tags":{"brand:wikidata":"Q855525","tourism":"hotel"},"addTags":{"brand":"Conrad","brand:wikidata":"Q855525","name":"Conrad","tourism":"hotel"}},"tourism/hotel/daysinn-a89235":{"name":"Days Inn","locationSet":{"include":["ca","ch","gb","id","in","kr","mx","my","ph","sg","sn","th","us"]},"geometry":["point","area"],"matchScore":2,"terms":["days inn"],"fields":["name","brand","{tourism/hotel}"],"tags":{"brand:wikidata":"Q1047239","tourism":"hotel"},"addTags":{"brand":"Days Inn","brand:wikidata":"Q1047239","name":"Days Inn","tourism":"hotel"}},"tourism/hotel/element-6dd642":{"name":"Element by Westin","locationSet":{"include":["ae","au","ca","cn","id","my","nl","tz","us"]},"geometry":["point","area"],"matchScore":2,"terms":["element"],"fields":["name","brand","{tourism/hotel}"],"tags":{"brand:wikidata":"Q91948072","tourism":"hotel"},"addTags":{"brand":"Element","brand:wikidata":"Q91948072","name":"Element","tourism":"hotel"}},"tourism/hotel/fairfieldinn-b80dae":{"name":"Fairfield Inn","locationSet":{"include":["ca","cn","id","in","jp","kr","mx","my","sv","us"]},"geometry":["point","area"],"matchScore":2,"terms":["fairfield by marriott","fairfield inn"],"fields":["name","brand","{tourism/hotel}"],"tags":{"brand:wikidata":"Q5430314","tourism":"hotel"},"addTags":{"brand":"Fairfield Inn","brand:wikidata":"Q5430314","name":"Fairfield Inn","official_name":"Fairfield by Marriott","tourism":"hotel"}},"tourism/hotel/marriottexecutiveapartments-b2f419":{"name":"Marriott Executive Apartments","locationSet":{"include":["ae","be","bh","br","cn","et","gb","hu","id","in","kr","kz","pa","sa","th","za"]},"geometry":["point","area"],"matchScore":2,"terms":["marriott executive apartments"],"fields":["name","brand","{tourism/hotel}"],"tags":{"brand:wikidata":"Q72636824","tourism":"hotel"},"addTags":{"brand":"Marriott Executive Apartments","brand:wikidata":"Q72636824","name":"Marriott Executive Apartments","tourism":"hotel"}},"tourism/hotel/raffles-771760":{"name":"Raffles","locationSet":{"include":["ae","bh","cn","fr","gb","id","in","kh","mv","ph","pl","qa","ru","sa","sc","sg","us"]},"geometry":["point","area"],"matchScore":2,"terms":["raffles"],"fields":["name","brand","{tourism/hotel}"],"tags":{"brand:wikidata":"Q4306661","tourism":"hotel"},"addTags":{"brand":"Raffles","brand:wikidata":"Q4306661","name":"Raffles","tourism":"hotel"}},"tourism/hotel/santikaindonesiahotelsandresorts-31e59e":{"name":"Santika Indonesia Hotels & Resorts","locationSet":{"include":["id"]},"geometry":["point","area"],"matchScore":2,"terms":["hotel santika","santika indonesia hotels & resorts"],"fields":["name","brand","{tourism/hotel}"],"tags":{"brand:wikidata":"Q7420423","tourism":"hotel"},"addTags":{"brand":"Santika Indonesia Hotels & Resorts","brand:id":"Hotel Santika","brand:wikidata":"Q7420423","name":"Santika Indonesia Hotels & Resorts","tourism":"hotel"}},"tourism/hotel/travelodge-2e0dc6":{"name":"Travelodge (Asia/Oceania)","locationSet":{"include":["au","hk","id","kr","my","nz","sg","th"]},"geometry":["point","area"],"matchScore":2,"terms":["travelodge"],"fields":["name","brand","{tourism/hotel}"],"tags":{"brand:wikidata":"Q24997583","tourism":"hotel"},"addTags":{"brand":"Travelodge","brand:wikidata":"Q24997583","name":"Travelodge","tourism":"hotel"}},"amenity/clinic/ministryofhealth-1dcb84":{"name":"Ministry of Health (Indonesia)","locationSet":{"include":["id"]},"geometry":["point","area"],"matchScore":2,"terms":["kementerian kesehatan","ministry of health","pusat kesehatan masyarakat","puskesmas","puskesmas pembantu","pustu"],"fields":["name","operator","{amenity/clinic}"],"reference":{"key":"amenity","value":"clinic"},"tags":{"amenity":"clinic","operator:wikidata":"Q12490745"},"addTags":{"amenity":"clinic","healthcare":"clinic","operator":"Ministry of Health","operator:en":"Ministry of Health","operator:id":"Kementerian Kesehatan","operator:wikidata":"Q12490745"}},"amenity/clinic/posyandu-1dcb84":{"name":"Posyandu","locationSet":{"include":["id"]},"geometry":["point","area"],"matchScore":2,"terms":["posyandu"],"fields":["name","operator","{amenity/clinic}"],"reference":{"key":"amenity","value":"clinic"},"tags":{"amenity":"clinic","operator:wikidata":"Q12506263"},"addTags":{"amenity":"clinic","healthcare":"clinic","name":"Posyandu","operator":"Posyandu","operator:wikidata":"Q12506263"}},"amenity/hospital/columbiaasiahospital-fcf381":{"name":"Columbia Asia Hospital","locationSet":{"include":["id","my","vn"]},"geometry":["area","point"],"matchScore":2,"terms":["columbia asia"],"fields":["name","operator","{amenity/hospital}"],"reference":{"key":"amenity","value":"hospital"},"tags":{"amenity":"hospital","operator:wikidata":"Q5149612"},"addTags":{"amenity":"hospital","healthcare":"hospital","name":"Columbia Asia Hospital","operator":"Columbia Asia","operator:wikidata":"Q5149612"}},"amenity/police/kepolisiannegararepublikindonesia-d8ba39":{"name":"Indonesian National Police","locationSet":{"include":["id"]},"geometry":["point","area"],"matchScore":2,"terms":["indonesian national police","kepolisian negara republik indonesia","polri"],"tags":{"amenity":"police","operator:wikidata":"Q3103954"},"addTags":{"amenity":"police","operator":"Kepolisian Negara Republik Indonesia","operator:en":"Indonesian National Police","operator:short":"POLRI","operator:wikidata":"Q3103954"}},"amenity/post_box/jandtexpress-21508a":{"name":"J&T Express","locationSet":{"include":["id","my","ph"]},"geometry":["point","vertex"],"matchScore":2,"terms":["j&t express"],"tags":{"amenity":"post_box","operator:wikidata":"Q95690344"},"addTags":{"amenity":"post_box","operator":"J&T Express","operator:wikidata":"Q95690344"}},"amenity/post_box/posindonesia-fdefd5":{"name":"Pos Indonesia","locationSet":{"include":["id"]},"geometry":["point","vertex"],"matchScore":2,"terms":["kantor pos","pos indonesia","pt pos indonesia"],"tags":{"amenity":"post_box","operator:wikidata":"Q4273095"},"addTags":{"alt_name":"Kantor Pos","amenity":"post_box","operator":"Pos Indonesia","operator:wikidata":"Q4273095"}},"amenity/post_office/jandtexpress-b78fda":{"name":"J&T Express","locationSet":{"include":["id","my","ph"]},"geometry":["point","area"],"matchScore":2,"terms":["j&t express"],"fields":["name","operator","{amenity/post_office}"],"tags":{"amenity":"post_office","operator:wikidata":"Q95690344"},"addTags":{"amenity":"post_office","operator":"J&T Express","operator:wikidata":"Q95690344"}},"amenity/post_office/posindonesia-ab1265":{"name":"Pos Indonesia","locationSet":{"include":["id"]},"geometry":["point","area"],"matchScore":2,"terms":["kantor pos","pos indonesia","pt pos indonesia"],"fields":["name","operator","{amenity/post_office}"],"tags":{"amenity":"post_office","operator:wikidata":"Q4273095"},"addTags":{"alt_name":"Kantor Pos","amenity":"post_office","operator":"Pos Indonesia","operator:wikidata":"Q4273095"}},"leisure/nature_reserve/dinaskotasurabaya-4e42ef":{"name":"Dinas Kota Surabaya","locationSet":{"include":["id"]},"geometry":["area","point"],"matchScore":2,"terms":["dinas kota surabaya"],"tags":{"leisure":"nature_reserve","operator:wikidata":"Q11462"},"addTags":{"leisure":"nature_reserve","operator":"Dinas Kota Surabaya","operator:type":"government","operator:wikidata":"Q11462"}},"leisure/park/dinaskotasurabaya-eab1bf":{"name":"Dinas Kota Surabaya","locationSet":{"include":["id"]},"geometry":["area","point"],"matchScore":2,"terms":["dinas kota surabaya"],"tags":{"leisure":"park","operator:wikidata":"Q11462"},"addTags":{"leisure":"park","operator":"Dinas Kota Surabaya","operator:type":"government","operator:wikidata":"Q11462"}},"power/generator/indonesiapower-e605d3":{"name":"Indonesia Power","locationSet":{"include":["id"]},"geometry":["point","vertex","area"],"matchScore":2,"terms":["indonesia power"],"tags":{"operator:wikidata":"Q12486500","power":"generator"},"addTags":{"operator":"Indonesia Power","operator:wikidata":"Q12486500","power":"generator"}},"power/generator/pln-e605d3":{"name":"PLN","locationSet":{"include":["id"]},"geometry":["point","vertex","area"],"matchScore":2,"terms":["pln"],"tags":{"operator:wikidata":"Q4201636","power":"generator"},"addTags":{"operator":"PLN","operator:wikidata":"Q4201636","power":"generator"}},"power/line/perusahaanlistriknegara-f1e749":{"name":"Perusahaan Listrik Negara","locationSet":{"include":["id"]},"geometry":["line"],"matchScore":2,"terms":["perusahaan listrik negara","pln","pt perusahaan listrik negara","pt pln (persero)"],"tags":{"operator:wikidata":"Q4201636","power":"line"},"addTags":{"operator":"Perusahaan Listrik Negara","operator:short":"PLN","operator:wikidata":"Q4201636","power":"line"}},"power/line/pln-f1e749":{"name":"PLN","locationSet":{"include":["id"]},"geometry":["line"],"matchScore":2,"terms":["pln"],"tags":{"operator:wikidata":"Q4201636","power":"line"},"addTags":{"operator":"PLN","operator:wikidata":"Q4201636","power":"line"}},"power/minor_line/perusahaanlistriknegara-756643":{"name":"Perusahaan Listrik Negara","locationSet":{"include":["id"]},"geometry":["line"],"matchScore":2,"terms":["perusahaan listrik negara","pln","pt perusahaan listrik negara","pt pln (persero)"],"tags":{"operator:wikidata":"Q4201636","power":"minor_line"},"addTags":{"operator":"Perusahaan Listrik Negara","operator:short":"PLN","operator:wikidata":"Q4201636","power":"minor_line"}},"power/minor_line/pln-756643":{"name":"PLN","locationSet":{"include":["id"]},"geometry":["line"],"matchScore":2,"terms":["pln"],"tags":{"operator:wikidata":"Q4201636","power":"minor_line"},"addTags":{"operator":"PLN","operator:wikidata":"Q4201636","power":"minor_line"}},"power/plant/indonesiapower-db9f5e":{"name":"Indonesia Power","locationSet":{"include":["id"]},"geometry":["area"],"matchScore":2,"terms":["indonesia power"],"tags":{"operator:wikidata":"Q12486500","power":"plant"},"addTags":{"operator":"Indonesia Power","operator:wikidata":"Q12486500","power":"plant"}},"power/plant/pln-db9f5e":{"name":"PLN","locationSet":{"include":["id"]},"geometry":["area"],"matchScore":2,"terms":["pln"],"tags":{"operator:wikidata":"Q4201636","power":"plant"},"addTags":{"operator":"PLN","operator:wikidata":"Q4201636","power":"plant"}},"power/plant/ptpembangkitanjawabali-db9f5e":{"name":"PT Pembangkitan Jawa Bali","locationSet":{"include":["id"]},"geometry":["area"],"matchScore":2,"terms":["pembangkitan jawa bali","pjb","pt pembangkitan jawa bali","pt pjb"],"tags":{"operator:wikidata":"Q12504353","power":"plant"},"addTags":{"operator":"PT Pembangkitan Jawa Bali","operator:short":"PJB","operator:wikidata":"Q12504353","power":"plant"}},"power/pole/perusahaanlistriknegara-605f64":{"name":"Perusahaan Listrik Negara","locationSet":{"include":["id"]},"geometry":["point","vertex"],"matchScore":2,"terms":["perusahaan listrik negara","pln","pt perusahaan listrik negara","pt pln (persero)"],"tags":{"operator:wikidata":"Q4201636","power":"pole"},"addTags":{"operator":"Perusahaan Listrik Negara","operator:short":"PLN","operator:wikidata":"Q4201636","power":"pole"}},"power/pole/pln-605f64":{"name":"PLN","locationSet":{"include":["id"]},"geometry":["point","vertex"],"matchScore":2,"terms":["pln"],"tags":{"operator:wikidata":"Q4201636","power":"pole"},"addTags":{"operator":"PLN","operator:wikidata":"Q4201636","power":"pole"}},"power/substation/perusahaanlistriknegara-7eaee2":{"name":"Perusahaan Listrik Negara","locationSet":{"include":["id"]},"geometry":["area","point"],"matchScore":2,"terms":["perusahaan listrik negara","pln","pt perusahaan listrik negara","pt pln (persero)"],"tags":{"operator:wikidata":"Q4201636","power":"substation"},"addTags":{"operator":"Perusahaan Listrik Negara","operator:short":"PLN","operator:wikidata":"Q4201636","power":"substation"}},"power/tower/perusahaanlistriknegara-1697d1":{"name":"Perusahaan Listrik Negara","locationSet":{"include":["id"]},"geometry":["point","vertex"],"matchScore":2,"terms":["perusahaan listrik negara","pln","pt perusahaan listrik negara","pt pln (persero)"],"tags":{"operator:wikidata":"Q4201636","power":"tower"},"addTags":{"operator":"Perusahaan Listrik Negara","operator:short":"PLN","operator:wikidata":"Q4201636","power":"tower"}},"power/tower/pln-1697d1":{"name":"PLN","locationSet":{"include":["id"]},"geometry":["point","vertex"],"matchScore":2,"terms":["pln"],"tags":{"operator:wikidata":"Q4201636","power":"tower"},"addTags":{"operator":"PLN","operator:wikidata":"Q4201636","power":"tower"}},"power/transformer/perusahaanlistriknegara-798eb2":{"name":"Perusahaan Listrik Negara","locationSet":{"include":["id"]},"geometry":["point","vertex"],"matchScore":2,"terms":["perusahaan listrik negara","pln","pt perusahaan listrik negara","pt pln (persero)"],"tags":{"operator:wikidata":"Q4201636","power":"transformer"},"addTags":{"operator":"Perusahaan Listrik Negara","operator:short":"PLN","operator:wikidata":"Q4201636","power":"transformer"}}}