{"amenity/atm/bni-d4d2b6":{"name":"BNI","locationSet":{"include":["au","ca","gb","hk","id","jp","kr","mm","sg","us"]},"geometry":["point","vertex"],"matchScore":2,"terms":["bank bni","bank negara indonesia","bni"],"tags":{"amenity":"atm","brand:wikidata":"Q2882611"},"addTags":{"amenity":"atm","brand":"BNI","brand:wikidata":"Q2882611","brand:wikipedia":"id:Bank Negara Indonesia","name":"BNI","official_name":"Bank Negara Indonesia","operator":"BNI","operator:wikidata":"Q2882611","operator:wikipedia":"id:Bank Negara Indonesia"}},"amenity/atm/eastwestbank-c14adf":{"name":"East West Bank","locationSet":{"include":["cn","hk","us"]},"geometry":["point","vertex"],"matchScore":2,"terms":["east west bank","華美銀行"],"tags":{"amenity":"atm","brand:wikidata":"Q3046549"},"addTags":{"amenity":"atm","brand":"East West Bank","brand:wikidata":"Q3046549","brand:wikipedia":"en:East West Bank","name":"East West Bank","name:en":"East West Bank","name:zh":"華美銀行","name:zh-Hans":"华美银行","name:zh-Hant":"華美銀行","operator":"East West Bank","operator:wikidata":"Q3046549","operator:wikipedia":"en:East West Bank"}},"amenity/atm/uob-441a96":{"name":"UOB","locationSet":{"include":["au","bn","ca","cn","gb","hk","id","in","jp","kr","mm","my","ph","sg","th","us","vn"]},"geometry":["point","vertex"],"matchScore":2,"terms":["united overseas bank","uob","大华银行"],"tags":{"amenity":"atm","brand:wikidata":"Q2064074"},"addTags":{"amenity":"atm","brand":"UOB","brand:wikidata":"Q2064074","brand:wikipedia":"en:United Overseas Bank","brand:zh":"大华银行","name":"UOB","name:zh":"大华银行","operator":"UOB","operator:wikidata":"Q2064074","operator:wikipedia":"en:United Overseas Bank"}},"amenity/atm/chinaciticbankinternational-e57d9a":{"name":"中信銀行（國際） China CITIC Bank International","locationSet":{"include":["hk"]},"geometry":["point","vertex"],"matchScore":2,"terms":["china citic bank","china citic bank international","中信銀行","中信銀行 china citic bank","中信銀行（國際）"],"tags":{"amenity":"atm","brand:wikidata":"Q38960"},"addTags":{"amenity":"atm","brand":"中信銀行 China CITIC Bank","brand:en":"China CITIC Bank","brand:wikidata":"Q38960","brand:wikipedia":"zh:中信银行","brand:zh":"中信銀行","brand:zh-Hans":"中信银行","brand:zh-Hant":"中信銀行","name":"中信銀行（國際） China CITIC Bank International","name:en":"China CITIC Bank International","name:zh":"中信銀行（國際）","name:zh-Hans":"中信银行（国际）","name:zh-Hant":"中信銀行（國際）","operator":"中信銀行 China CITIC Bank","operator:wikidata":"Q38960","operator:wikipedia":"zh:中信银行"}},"amenity/atm/icbcasia-e57d9a":{"name":"中國工商銀行（亞洲） Industrial and Commercial Bank of China (Asia)","locationSet":{"include":["hk"]},"geometry":["point","vertex"],"matchScore":2,"terms":["icbc","icbc (asia)","industrial and commercial bank of china","中國工商銀行","中國工商銀行（亞洲）","工商銀行","工行","工銀","工銀（亞洲）","工銀亞洲"],"tags":{"amenity":"atm","brand:wikidata":"Q26463"},"addTags":{"amenity":"atm","brand":"中國工商銀行","brand:en":"Industrial and Commercial Bank of China","brand:wikidata":"Q26463","brand:wikipedia":"zh:中国工商银行","brand:zh":"中國工商銀行","brand:zh-Hans":"中国工商银行","brand:zh-Hant":"中國工商銀行","name":"中國工商銀行（亞洲） ICBC (Asia)","name:en":"ICBC (Asia)","name:zh":"中國工商銀行（亞洲）","name:zh-Hans":"中國工商銀行（亞洲）","name:zh-Hant":"中國工商銀行（亞洲）","operator":"中國工商銀行","operator:wikidata":"Q26463","operator:wikipedia":"zh:中国工商银行"}},"amenity/atm/ccbasia-e57d9a":{"name":"中國建設銀行（亞洲） China Construction Bank (Asia)","locationSet":{"include":["hk"]},"geometry":["point","vertex"],"matchScore":2,"terms":["ccb","ccb (asia)","china construction bank","中國建設銀行","中國建設銀行 china construction bank","中國建設銀行（亞洲）","建行","建行（亞洲）","建行亞洲","建設銀行"],"tags":{"amenity":"atm","brand:wikidata":"Q26299"},"addTags":{"amenity":"atm","brand":"中國建設銀行 China Construction Bank","brand:en":"China Construction Bank","brand:wikidata":"Q26299","brand:wikipedia":"zh:中国建设银行","brand:zh":"中國建設銀行","brand:zh-Hans":"中国建设银行","brand:zh-Hant":"中國建設銀行","name":"中國建設銀行（亞洲） CCB (Asia)","name:en":"CCB (Asia)","name:zh":"中國建設銀行（亞洲）","name:zh-Hans":"中国建设银行（亚洲）","name:zh-Hant":"中國建設銀行（亞洲）","operator":"中國建設銀行 China Construction Bank","operator:wikidata":"Q26299","operator:wikipedia":"zh:中国建设银行"}},"amenity/atm/bankofchinahongkong-e57d9a":{"name":"中國銀行（香港） Bank of China (Hong Kong)","locationSet":{"include":["hk"]},"geometry":["point","vertex"],"matchScore":2,"terms":["bank of china","bank of china (hong kong)","boc","bochk","中國銀行 bank of china","中國銀行（香港）","中行","中銀","中銀香港"],"tags":{"amenity":"atm","brand:wikidata":"Q790068"},"addTags":{"amenity":"atm","brand":"中國銀行 Bank of China","brand:en":"Bank of China","brand:wikidata":"Q790068","brand:wikipedia":"en:Bank of China","brand:zh":"中國銀行（香港）","brand:zh-Hans":"中国银行（香港）","brand:zh-Hant":"中國銀行（香港）","name":"中國銀行（香港） Bank of China (Hong Kong)","name:en":"Bank of China (Hong Kong)","name:zh":"中國銀行（香港）","name:zh-Hans":"中国银行（香港）","name:zh-Hant":"中國銀行（香港）","operator":"中國銀行 Bank of China","operator:wikidata":"Q790068","operator:wikipedia":"en:Bank of China"}},"amenity/atm/bankofcommunications-e57d9a":{"name":"交通銀行 Bank of Communications","locationSet":{"include":["hk"]},"geometry":["point","vertex"],"matchScore":2,"terms":["bank of communications","交行","交通銀行","交通銀行 bank of communications"],"tags":{"amenity":"atm","brand:wikidata":"Q806680"},"addTags":{"amenity":"atm","brand":"交通銀行 Bank of Communications","brand:en":"Bank of Communications","brand:wikidata":"Q806680","brand:wikipedia":"zh:交通銀行","brand:zh-Hans":"交通银行","brand:zh-Hant":"交通銀行","name":"交通銀行 Bank of Communications","name:en":"Bank of Communications","name:zh":"交通銀行","name:zh-Hans":"交通银行","name:zh-Hant":"交通銀行","operator":"交通銀行 Bank of Communications","operator:wikidata":"Q806680","operator:wikipedia":"zh:交通銀行"}},"amenity/atm/chonghingbank-aa3d3d":{"name":"創興銀行 Chong Hing Bank","locationSet":{"include":["hk","mo"]},"geometry":["point","vertex"],"matchScore":2,"terms":["chong hing bank","創興","創興銀行","創興銀行 chong hing bank"],"tags":{"amenity":"atm","brand:wikidata":"Q5104600"},"addTags":{"amenity":"atm","brand":"創興銀行 Chong Hing Bank","brand:en":"Chong Hing Bank","brand:wikidata":"Q5104600","brand:wikipedia":"en:Chong Hing Bank","brand:zh":"創興銀行","brand:zh-Hans":"创兴银行","brand:zh-Hant":"創興銀行","name":"創興銀行 Chong Hing Bank","name:en":"Chong Hing Bank","name:zh":"創興銀行","name:zh-Hans":"创兴银行","name:zh-Hant":"創興銀行","operator":"創興銀行 Chong Hing Bank","operator:wikidata":"Q5104600","operator:wikipedia":"en:Chong Hing Bank"}},"amenity/atm/nanyangcommercialbank-e57d9a":{"name":"南洋商業銀行 Nanyang Commercial Bank","locationSet":{"include":["hk"]},"geometry":["point","vertex"],"matchScore":2,"terms":["nanyang commercial bank","ncb","南洋商業","南洋商業銀行","南洋商業銀行 nanyang commercial bank"],"tags":{"amenity":"atm","brand:wikidata":"Q3335816"},"addTags":{"amenity":"atm","brand":"南洋商業銀行 Nanyang Commercial Bank","brand:en":"Nanyang Commercial Bank","brand:wikidata":"Q3335816","brand:wikipedia":"zh:南洋商業銀行","brand:zh":"南洋商業銀行","brand:zh-Hans":"南洋商业银行","brand:zh-Hant":"南洋商業銀行","name":"南洋商業銀行 NCB","name:en":"Nanyang Commercial Bank","name:zh":"南洋商業銀行","name:zh-Hans":"南洋商业银行","name:zh-Hant":"南洋商業銀行","operator":"南洋商業銀行 Nanyang Commercial Bank","operator:wikidata":"Q3335816","operator:wikipedia":"zh:南洋商業銀行","short_name":"NCB"}},"amenity/atm/nantobank-3b4db7":{"name":"南都銀行","locationSet":{"include":["cn","hk","jp"]},"geometry":["point","vertex"],"matchScore":2,"terms":["nanto bank","南都銀行"],"tags":{"amenity":"atm","brand:wikidata":"Q4045062"},"addTags":{"amenity":"atm","brand":"南都銀行","brand:en":"Nanto Bank","brand:ja":"南都銀行","brand:wikidata":"Q4045062","brand:wikipedia":"en:Nanto Bank","name":"南都銀行","name:en":"Nanto Bank","name:ja":"南都銀行","operator":"南都銀行","operator:wikidata":"Q4045062","operator:wikipedia":"en:Nanto Bank"}},"amenity/atm/dahsingbank-e57d9a":{"name":"大新銀行 Dah Sing Bank","locationSet":{"include":["hk"]},"geometry":["point","vertex"],"matchScore":2,"terms":["dah sing bank","大新","大新銀行","大新銀行 dah sing bank"],"tags":{"amenity":"atm","brand:wikidata":"Q5208707"},"addTags":{"amenity":"atm","brand":"大新銀行 Dah Sing Bank","brand:en":"Dah Sing Bank","brand:wikidata":"Q5208707","brand:wikipedia":"en:Dah Sing Bank","brand:zh":"大新銀行","brand:zh-Hans":"大新银行","brand:zh-Hant":"大新銀行","name":"大新銀行 Dah Sing Bank","name:en":"Dah Sing Bank","name:zh":"大新銀行","name:zh-Hans":"大新银行","name:zh-Hant":"大新銀行","operator":"大新銀行 Dah Sing Bank","operator:wikidata":"Q5208707","operator:wikipedia":"en:Dah Sing Bank"}},"amenity/atm/hangsengbank-aa3d3d":{"name":"恒生銀行 Hang Seng Bank","locationSet":{"include":["hk","mo"]},"geometry":["point","vertex"],"matchScore":2,"terms":["hang seng bank","恒生","恒生銀行","恒生銀行 hang seng bank"],"tags":{"amenity":"atm","brand:wikidata":"Q1575470"},"addTags":{"amenity":"atm","brand":"恒生銀行 Hang Seng Bank","brand:en":"Hang Seng Bank","brand:wikidata":"Q1575470","brand:wikipedia":"en:Hang Seng Bank","brand:zh":"恒生銀行","brand:zh-Hans":"恒生银行","brand:zh-Hant":"恒生銀行","name":"恒生銀行 Hang Seng Bank","name:en":"Hang Seng Bank","name:zh":"恒生銀行","name:zh-Hans":"恒生银行","name:zh-Hant":"恒生銀行","operator":"恒生銀行 Hang Seng Bank","operator:wikidata":"Q1575470","operator:wikipedia":"en:Hang Seng Bank"}},"amenity/atm/cmbwinglungbank-e57d9a":{"name":"招商永隆銀行 CMB Wing Lung Bank","locationSet":{"include":["hk"]},"geometry":["point","vertex"],"matchScore":2,"terms":["cmb wing lung bank","招商永隆銀行","招商永隆銀行 cmb wing lung bank","永隆","永隆銀行"],"tags":{"amenity":"atm","brand:wikidata":"Q8025114"},"addTags":{"amenity":"atm","brand":"招商永隆銀行 CMB Wing Lung Bank","brand:en":"CMB Wing Lung Bank","brand:wikidata":"Q8025114","brand:wikipedia":"en:Wing Lung Bank","brand:zh":"招商永隆銀行","brand:zh-Hans":"招商永隆银行","brand:zh-Hant":"招商永隆銀行","name":"招商永隆銀行 CMB Wing Lung Bank","name:en":"CMB Wing Lung Bank","name:zh":"招商永隆銀行","name:zh-Hans":"招商永隆银行","name:zh-Hant":"招商永隆銀行","operator":"招商永隆銀行 CMB Wing Lung Bank","operator:wikidata":"Q8025114","operator:wikipedia":"en:Wing Lung Bank"}},"amenity/atm/bankofeastasia-e57d9a":{"name":"東亞銀行 Bank of East Asia","locationSet":{"include":["hk"]},"geometry":["point","vertex"],"matchScore":2,"terms":["bank of east asia","bea","東亞","東亞銀行 bank of east asia"],"tags":{"amenity":"atm","brand:wikidata":"Q806679"},"addTags":{"amenity":"atm","brand":"東亞銀行 Bank of East Asia","brand:en":"Bank of East Asia","brand:wikidata":"Q806679","brand:wikipedia":"zh:東亞銀行","brand:zh-Hans":"东亚银行","brand:zh-Hant":"東亞銀行","name":"東亞銀行 BEA","name:en":"Bank of East Asia","name:zh-Hans":"东亚银行","name:zh-Hant":"東亞銀行","operator":"東亞銀行 Bank of East Asia","operator:wikidata":"Q806679","operator:wikipedia":"zh:東亞銀行","short_name":"BEA"}},"amenity/atm/standardchartered-e57d9a":{"name":"渣打銀行 Standard Chartered","locationSet":{"include":["hk"]},"geometry":["point","vertex"],"matchScore":2,"terms":["sc","standard chartered","渣打","渣打銀行","渣打銀行 standard chartered"],"tags":{"amenity":"atm","brand:wikidata":"Q548278"},"addTags":{"amenity":"atm","brand":"渣打銀行 Standard Chartered","brand:en":"Standard Chartered","brand:wikidata":"Q548278","brand:wikipedia":"en:Standard Chartered","brand:zh":"渣打銀行","brand:zh-Hans":"渣打银行","brand:zh-Hant":"渣打銀行","name":"渣打銀行 Standard Chartered","name:en":"Standard Chartered","name:zh":"渣打銀行","name:zh-Hans":"渣打银行","name:zh-Hant":"渣打銀行","operator":"渣打銀行 Standard Chartered","operator:wikidata":"Q548278","operator:wikipedia":"en:Standard Chartered"}},"amenity/atm/bangkokbank-e57d9a":{"name":"盤谷銀行 Bangkok Bank","locationSet":{"include":["hk"]},"geometry":["point","vertex"],"matchScore":2,"terms":["bangkok bank","盤谷銀行","盤谷銀行 bangkok bank"],"tags":{"amenity":"atm","brand:wikidata":"Q806483"},"addTags":{"amenity":"atm","brand":"盤谷銀行 Bangkok Bank","brand:en":"Bangkok Bank","brand:wikidata":"Q806483","brand:wikipedia":"en:Bangkok Bank","brand:zh":"盤谷銀行","brand:zh-Hans":"盘谷银行","brand:zh-Hant":"盤谷銀行","name":"盤谷銀行 Bangkok Bank","name:en":"Bangkok Bank","name:zh":"盤谷銀行","name:zh-Hans":"盘谷银行","name:zh-Hant":"盤谷銀行","operator":"盤谷銀行 Bangkok Bank","operator:wikidata":"Q806483","operator:wikipedia":"en:Bangkok Bank"}},"amenity/atm/citibank-e57d9a":{"name":"花旗銀行 Citibank","locationSet":{"include":["hk"]},"geometry":["point","vertex"],"matchScore":2,"terms":["citi","citibank","花旗","花旗銀行","花旗銀行 citibank"],"tags":{"amenity":"atm","brand:wikidata":"Q857063"},"addTags":{"amenity":"atm","brand":"花旗銀行 Citibank","brand:en":"Citibank","brand:wikidata":"Q857063","brand:wikipedia":"en:Citibank","brand:zh":"花旗銀行","brand:zh-Hans":"花旗银行","brand:zh-Hant":"花旗銀行","name":"花旗銀行 Citibank","name:en":"Citibank","name:zh":"花旗銀行","name:zh-Hans":"花旗银行","name:zh-Hant":"花旗銀行","operator":"花旗銀行 Citibank","operator:wikidata":"Q857063","operator:wikipedia":"en:Citibank","short_name":"Citi"}},"amenity/atm/ocbcwinghangbank-e57d9a":{"name":"華僑永亨銀行 OCBC Wing Hang Bank","locationSet":{"include":["hk"]},"geometry":["point","vertex"],"matchScore":2,"terms":["ocbc","ocbc wing hang bank","wing hang bank","永亨","永亨銀行","華僑","華僑永亨銀行","華僑永亨銀行 ocbc wing hang bank","華僑銀行"],"tags":{"amenity":"atm","brand:wikidata":"Q837147"},"addTags":{"amenity":"atm","brand":"華僑永亨銀行 OCBC Wing Hang Bank","brand:en":"OCBC Wing Hang Bank","brand:wikidata":"Q837147","brand:wikipedia":"zh:華僑永亨銀行 (香港)","brand:zh":"華僑永亨銀行","brand:zh-Hans":"华侨永亨银行","brand:zh-Hant":"華僑永亨銀行","name":"華僑永亨銀行 OCBC Wing Hang Bank","name:en":"OCBC Wing Hang Bank","name:zh":"華僑永亨銀行","name:zh-Hans":"华侨永亨银行","name:zh-Hant":"華僑永亨銀行","operator":"華僑永亨銀行 OCBC Wing Hang Bank","operator:wikidata":"Q837147","operator:wikipedia":"zh:華僑永亨銀行 (香港)"}},"amenity/atm/hsbc-aa3d3d":{"name":"香港上海滙豐銀行 HSBC","locationSet":{"include":["hk","mo"]},"geometry":["point","vertex"],"matchScore":2,"terms":["hsbc","滙豐","滙豐銀行","香港上海滙豐銀行","香港上海滙豐銀行 hsbc"],"tags":{"amenity":"atm","brand:wikidata":"Q190464"},"addTags":{"amenity":"atm","brand":"香港上海滙豐銀行 HSBC","brand:en":"HSBC","brand:wikidata":"Q190464","brand:wikipedia":"en:HSBC","brand:zh":"香港上海滙豐銀行","brand:zh-Hans":"香港上海汇丰银行","brand:zh-Hant":"香港上海滙豐銀行","name":"滙豐銀行 HSBC","name:en":"HSBC","name:zh":"滙豐銀行","name:zh-Hans":"汇丰银行","name:zh-Hant":"滙豐銀行","operator":"香港上海滙豐銀行 HSBC","operator:wikidata":"Q190464","operator:wikipedia":"en:HSBC"}},"amenity/bank/bni-27dfb6":{"name":"BNI","locationSet":{"include":["au","ca","gb","hk","id","jp","kr","mm","sg","us"]},"geometry":["point","area"],"matchScore":2,"terms":["bank bni","bank negara indonesia","bni"],"tags":{"amenity":"bank","brand:wikidata":"Q2882611"},"addTags":{"amenity":"bank","brand":"BNI","brand:wikidata":"Q2882611","brand:wikipedia":"id:Bank Negara Indonesia","name":"BNI","official_name":"Bank Negara Indonesia"}},"amenity/bank/eastwestbank-a566ac":{"name":"East West Bank","locationSet":{"include":["cn","hk","us"]},"geometry":["point","area"],"matchScore":2,"terms":["east west bank","華美銀行"],"tags":{"amenity":"bank","brand:wikidata":"Q3046549"},"addTags":{"amenity":"bank","brand":"East West Bank","brand:wikidata":"Q3046549","brand:wikipedia":"en:East West Bank","name":"East West Bank","name:en":"East West Bank","name:zh":"華美銀行","name:zh-Hans":"华美银行","name:zh-Hant":"華美銀行"}},"amenity/bank/uob-dadccc":{"name":"UOB","locationSet":{"include":["au","bn","ca","cn","gb","hk","id","in","jp","kr","mm","my","ph","sg","th","us","vn"]},"geometry":["point","area"],"matchScore":2,"terms":["united overseas bank","uob","大华银行"],"tags":{"amenity":"bank","brand:wikidata":"Q2064074"},"addTags":{"amenity":"bank","brand":"UOB","brand:wikidata":"Q2064074","brand:wikipedia":"en:United Overseas Bank","brand:zh":"大华银行","name":"UOB","name:zh":"大华银行"}},"amenity/bank/chinaciticbankinternational-442838":{"name":"中信銀行（國際） China CITIC Bank International","locationSet":{"include":["hk"]},"geometry":["point","area"],"matchScore":2,"terms":["china citic bank","china citic bank international","中信銀行","中信銀行 china citic bank","中信銀行（國際）"],"tags":{"amenity":"bank","brand:wikidata":"Q38960"},"addTags":{"amenity":"bank","brand":"中信銀行 China CITIC Bank","brand:en":"China CITIC Bank","brand:wikidata":"Q38960","brand:wikipedia":"zh:中信银行","brand:zh":"中信銀行","brand:zh-Hans":"中信银行","brand:zh-Hant":"中信銀行","name":"中信銀行（國際） China CITIC Bank International","name:en":"China CITIC Bank International","name:zh":"中信銀行（國際）","name:zh-Hans":"中信银行（国际）","name:zh-Hant":"中信銀行（國際）"}},"amenity/bank/icbcasia-442838":{"name":"中國工商銀行（亞洲） Industrial and Commercial Bank of China (Asia)","locationSet":{"include":["hk"]},"geometry":["point","area"],"matchScore":2,"terms":["icbc","icbc (asia)","industrial and commercial bank of china","中國工商銀行","中國工商銀行（亞洲）","工商銀行","工行","工銀","工銀（亞洲）","工銀亞洲"],"tags":{"amenity":"bank","brand:wikidata":"Q26463"},"addTags":{"amenity":"bank","brand":"中國工商銀行","brand:en":"Industrial and Commercial Bank of China","brand:wikidata":"Q26463","brand:wikipedia":"zh:中国工商银行","brand:zh":"中國工商銀行","brand:zh-Hans":"中国工商银行","brand:zh-Hant":"中國工商銀行","name":"中國工商銀行（亞洲） ICBC (Asia)","name:en":"ICBC (Asia)","name:zh":"中國工商銀行（亞洲）","name:zh-Hans":"中國工商銀行（亞洲）","name:zh-Hant":"中國工商銀行（亞洲）"}},"amenity/bank/ccbasia-442838":{"name":"中國建設銀行（亞洲） China Construction Bank (Asia)","locationSet":{"include":["hk"]},"geometry":["point","area"],"matchScore":2,"terms":["ccb","ccb (asia)","china construction bank","中國建設銀行","中國建設銀行 china construction bank","中國建設銀行（亞洲）","建行","建行（亞洲）","建行亞洲","建設銀行"],"tags":{"amenity":"bank","brand:wikidata":"Q26299"},"addTags":{"amenity":"bank","brand":"中國建設銀行 China Construction Bank","brand:en":"China Construction Bank","brand:wikidata":"Q26299","brand:wikipedia":"zh:中国建设银行","brand:zh":"中國建設銀行","brand:zh-Hans":"中国建设银行","brand:zh-Hant":"中國建設銀行","name":"中國建設銀行（亞洲） CCB (Asia)","name:en":"CCB (Asia)","name:zh":"中國建設銀行（亞洲）","name:zh-Hans":"中国建设银行（亚洲）","name:zh-Hant":"中國建設銀行（亞洲）"}},"amenity/bank/bankofchinahongkong-442838":{"name":"中國銀行（香港） Bank of China (Hong Kong)","locationSet":{"include":["hk"]},"geometry":["point","area"],"matchScore":2,"terms":["bank of china","bank of china (hong kong)","boc","bochk","中國銀行 bank of china","中國銀行（香港）","中行","中銀","中銀香港"],"tags":{"amenity":"bank","brand:wikidata":"Q790068"},"addTags":{"amenity":"bank","brand":"中國銀行 Bank of China","brand:en":"Bank of China","brand:wikidata":"Q790068","brand:wikipedia":"en:Bank of China","brand:zh":"中國銀行（香港）","brand:zh-Hans":"中国银行（香港）","brand:zh-Hant":"中國銀行（香港）","name":"中國銀行（香港） Bank of China (Hong Kong)","name:en":"Bank of China (Hong Kong)","name:zh":"中國銀行（香港）","name:zh-Hans":"中国银行（香港）","name:zh-Hant":"中國銀行（香港）"}},"amenity/bank/bankofcommunications-442838":{"name":"交通銀行 Bank of Communications","locationSet":{"include":["hk"]},"geometry":["point","area"],"matchScore":2,"terms":["bank of communications","交行","交通銀行","交通銀行 bank of communications"],"tags":{"amenity":"bank","brand:wikidata":"Q806680"},"addTags":{"amenity":"bank","brand":"交通銀行 Bank of Communications","brand:en":"Bank of Communications","brand:wikidata":"Q806680","brand:wikipedia":"zh:交通銀行","brand:zh-Hans":"交通银行","brand:zh-Hant":"交通銀行","name":"交通銀行 Bank of Communications","name:en":"Bank of Communications","name:zh":"交通銀行","name:zh-Hans":"交通银行","name:zh-Hant":"交通銀行"}},"amenity/bank/chonghingbank-075cf6":{"name":"創興銀行 Chong Hing Bank","locationSet":{"include":["hk","mo"]},"geometry":["point","area"],"matchScore":2,"terms":["chong hing bank","創興","創興銀行","創興銀行 chong hing bank"],"tags":{"amenity":"bank","brand:wikidata":"Q5104600"},"addTags":{"amenity":"bank","brand":"創興銀行 Chong Hing Bank","brand:en":"Chong Hing Bank","brand:wikidata":"Q5104600","brand:wikipedia":"en:Chong Hing Bank","brand:zh":"創興銀行","brand:zh-Hans":"创兴银行","brand:zh-Hant":"創興銀行","name":"創興銀行 Chong Hing Bank","name:en":"Chong Hing Bank","name:zh":"創興銀行","name:zh-Hans":"创兴银行","name:zh-Hant":"創興銀行"}},"amenity/bank/nanyangcommercialbank-442838":{"name":"南洋商業銀行 Nanyang Commercial Bank","locationSet":{"include":["hk"]},"geometry":["point","area"],"matchScore":2,"terms":["nanyang commercial bank","ncb","南洋商業","南洋商業銀行","南洋商業銀行 nanyang commercial bank"],"tags":{"amenity":"bank","brand:wikidata":"Q3335816"},"addTags":{"amenity":"bank","brand":"南洋商業銀行 Nanyang Commercial Bank","brand:en":"Nanyang Commercial Bank","brand:wikidata":"Q3335816","brand:wikipedia":"zh:南洋商業銀行","brand:zh":"南洋商業銀行","brand:zh-Hans":"南洋商业银行","brand:zh-Hant":"南洋商業銀行","name":"南洋商業銀行 NCB","name:en":"Nanyang Commercial Bank","name:zh":"南洋商業銀行","name:zh-Hans":"南洋商业银行","name:zh-Hant":"南洋商業銀行","short_name":"NCB"}},"amenity/bank/nantobank-e30a8e":{"name":"南都銀行","locationSet":{"include":["cn","hk","jp"]},"geometry":["point","area"],"matchScore":2,"terms":["nanto bank","南都銀行"],"tags":{"amenity":"bank","brand:wikidata":"Q4045062"},"addTags":{"amenity":"bank","brand":"南都銀行","brand:en":"Nanto Bank","brand:ja":"南都銀行","brand:wikidata":"Q4045062","brand:wikipedia":"en:Nanto Bank","name":"南都銀行","name:en":"Nanto Bank","name:ja":"南都銀行"}},"amenity/bank/dahsingbank-442838":{"name":"大新銀行 Dah Sing Bank","locationSet":{"include":["hk"]},"geometry":["point","area"],"matchScore":2,"terms":["dah sing bank","大新","大新銀行","大新銀行 dah sing bank"],"tags":{"amenity":"bank","brand:wikidata":"Q5208707"},"addTags":{"amenity":"bank","brand":"大新銀行 Dah Sing Bank","brand:en":"Dah Sing Bank","brand:wikidata":"Q5208707","brand:wikipedia":"en:Dah Sing Bank","brand:zh":"大新銀行","brand:zh-Hans":"大新银行","brand:zh-Hant":"大新銀行","name":"大新銀行 Dah Sing Bank","name:en":"Dah Sing Bank","name:zh":"大新銀行","name:zh-Hans":"大新银行","name:zh-Hant":"大新銀行"}},"amenity/bank/hangsengbank-075cf6":{"name":"恒生銀行 Hang Seng Bank","locationSet":{"include":["hk","mo"]},"geometry":["point","area"],"matchScore":2,"terms":["hang seng bank","恒生","恒生銀行","恒生銀行 hang seng bank"],"tags":{"amenity":"bank","brand:wikidata":"Q1575470"},"addTags":{"amenity":"bank","brand":"恒生銀行 Hang Seng Bank","brand:en":"Hang Seng Bank","brand:wikidata":"Q1575470","brand:wikipedia":"en:Hang Seng Bank","brand:zh":"恒生銀行","brand:zh-Hans":"恒生银行","brand:zh-Hant":"恒生銀行","name":"恒生銀行 Hang Seng Bank","name:en":"Hang Seng Bank","name:zh":"恒生銀行","name:zh-Hans":"恒生银行","name:zh-Hant":"恒生銀行"}},"amenity/bank/cmbwinglungbank-442838":{"name":"招商永隆銀行 CMB Wing Lung Bank","locationSet":{"include":["hk"]},"geometry":["point","area"],"matchScore":2,"terms":["cmb wing lung bank","招商永隆銀行","招商永隆銀行 cmb wing lung bank","永隆","永隆銀行"],"tags":{"amenity":"bank","brand:wikidata":"Q8025114"},"addTags":{"amenity":"bank","brand":"招商永隆銀行 CMB Wing Lung Bank","brand:en":"CMB Wing Lung Bank","brand:wikidata":"Q8025114","brand:wikipedia":"en:Wing Lung Bank","brand:zh":"招商永隆銀行","brand:zh-Hans":"招商永隆银行","brand:zh-Hant":"招商永隆銀行","name":"招商永隆銀行 CMB Wing Lung Bank","name:en":"CMB Wing Lung Bank","name:zh":"招商永隆銀行","name:zh-Hans":"招商永隆银行","name:zh-Hant":"招商永隆銀行"}},"amenity/bank/bankofeastasia-442838":{"name":"東亞銀行 Bank of East Asia","locationSet":{"include":["hk"]},"geometry":["point","area"],"matchScore":2,"terms":["bank of east asia","bea","東亞","東亞銀行 bank of east asia"],"tags":{"amenity":"bank","brand:wikidata":"Q806679"},"addTags":{"amenity":"bank","brand":"東亞銀行 Bank of East Asia","brand:en":"Bank of East Asia","brand:wikidata":"Q806679","brand:wikipedia":"zh:東亞銀行","brand:zh-Hans":"东亚银行","brand:zh-Hant":"東亞銀行","name":"東亞銀行 BEA","name:en":"Bank of East Asia","name:zh-Hans":"东亚银行","name:zh-Hant":"東亞銀行","short_name":"BEA"}},"amenity/bank/standardchartered-442838":{"name":"渣打銀行 Standard Chartered","locationSet":{"include":["hk"]},"geometry":["point","area"],"matchScore":2,"terms":["sc","standard chartered","渣打","渣打銀行","渣打銀行 standard chartered"],"tags":{"amenity":"bank","brand:wikidata":"Q548278"},"addTags":{"amenity":"bank","brand":"渣打銀行 Standard Chartered","brand:en":"Standard Chartered","brand:wikidata":"Q548278","brand:wikipedia":"en:Standard Chartered","brand:zh":"渣打銀行","brand:zh-Hans":"渣打银行","brand:zh-Hant":"渣打銀行","name":"渣打銀行 Standard Chartered","name:en":"Standard Chartered","name:zh":"渣打銀行","name:zh-Hans":"渣打银行","name:zh-Hant":"渣打銀行"}},"amenity/bank/bangkokbank-442838":{"name":"盤谷銀行 Bangkok Bank","locationSet":{"include":["hk"]},"geometry":["point","area"],"matchScore":2,"terms":["bangkok bank","盤谷銀行","盤谷銀行 bangkok bank"],"tags":{"amenity":"bank","brand:wikidata":"Q806483"},"addTags":{"amenity":"bank","brand":"盤谷銀行 Bangkok Bank","brand:en":"Bangkok Bank","brand:wikidata":"Q806483","brand:wikipedia":"en:Bangkok Bank","brand:zh":"盤谷銀行","brand:zh-Hans":"盘谷银行","brand:zh-Hant":"盤谷銀行","name":"盤谷銀行 Bangkok Bank","name:en":"Bangkok Bank","name:zh":"盤谷銀行","name:zh-Hans":"盘谷银行","name:zh-Hant":"盤谷銀行"}},"amenity/bank/citibank-442838":{"name":"花旗銀行 Citibank","locationSet":{"include":["hk"]},"geometry":["point","area"],"matchScore":2,"terms":["citi","citibank","花旗","花旗銀行","花旗銀行 citibank"],"tags":{"amenity":"bank","brand:wikidata":"Q857063"},"addTags":{"amenity":"bank","brand":"花旗銀行 Citibank","brand:en":"Citibank","brand:wikidata":"Q857063","brand:wikipedia":"en:Citibank","brand:zh":"花旗銀行","brand:zh-Hans":"花旗银行","brand:zh-Hant":"花旗銀行","name":"花旗銀行 Citibank","name:en":"Citibank","name:zh":"花旗銀行","name:zh-Hans":"花旗银行","name:zh-Hant":"花旗銀行","short_name":"Citi"}},"amenity/bank/ocbcwinghangbank-442838":{"name":"華僑永亨銀行 OCBC Wing Hang Bank","locationSet":{"include":["hk"]},"geometry":["point","area"],"matchScore":2,"terms":["ocbc","ocbc wing hang bank","wing hang bank","永亨","永亨銀行","華僑","華僑永亨銀行","華僑永亨銀行 ocbc wing hang bank","華僑銀行"],"tags":{"amenity":"bank","brand:wikidata":"Q837147"},"addTags":{"amenity":"bank","brand":"華僑永亨銀行 OCBC Wing Hang Bank","brand:en":"OCBC Wing Hang Bank","brand:wikidata":"Q837147","brand:wikipedia":"zh:華僑永亨銀行 (香港)","brand:zh":"華僑永亨銀行","brand:zh-Hans":"华侨永亨银行","brand:zh-Hant":"華僑永亨銀行","name":"華僑永亨銀行 OCBC Wing Hang Bank","name:en":"OCBC Wing Hang Bank","name:zh":"華僑永亨銀行","name:zh-Hans":"华侨永亨银行","name:zh-Hant":"華僑永亨銀行"}},"amenity/bank/hsbc-075cf6":{"name":"香港上海滙豐銀行 HSBC","locationSet":{"include":["hk","mo"]},"geometry":["point","area"],"matchScore":2,"terms":["hsbc","滙豐","滙豐銀行","香港上海滙豐銀行","香港上海滙豐銀行 hsbc"],"tags":{"amenity":"bank","brand:wikidata":"Q190464"},"addTags":{"amenity":"bank","brand":"香港上海滙豐銀行 HSBC","brand:en":"HSBC","brand:wikidata":"Q190464","brand:wikipedia":"en:HSBC","brand:zh":"香港上海滙豐銀行","brand:zh-Hans":"香港上海汇丰银行","brand:zh-Hant":"香港上海滙豐銀行","name":"滙豐銀行 HSBC","name:en":"HSBC","name:zh":"滙豐銀行","name:zh-Hans":"汇丰银行","name:zh-Hant":"滙豐銀行"}},"amenity/cafe/bubble_tea/cocofreshteaandjuice-60211c":{"name":"CoCo都可","locationSet":{"include":["cn","hk","tw"]},"geometry":["point","area"],"matchScore":2,"terms":["coco fresh tea & juice","coco奶茶","coco都可","都可茶飲","都可茶饮"],"reference":{"key":"cuisine","value":"bubble_tea"},"tags":{"amenity":"cafe","brand:wikidata":"Q65084369","cuisine":"bubble_tea"},"addTags":{"amenity":"cafe","brand":"CoCo都可","brand:en":"CoCo Fresh Tea & Juice","brand:wikidata":"Q65084369","brand:wikipedia":"zh:CoCo都可","brand:zh":"CoCo都可","cuisine":"bubble_tea","name":"CoCo都可","name:en":"CoCo Fresh Tea & Juice","name:zh":"CoCo都可","takeaway":"yes"}},"amenity/cafe/coffee_shop/tomntoms-16c022":{"name":"Tom N Toms","locationSet":{"include":["au","ch","hk","kr","mn","mo","my","ph","sg","th","us"]},"geometry":["point","area"],"matchScore":2,"terms":["tom n toms","탐앤탐스"],"reference":{"key":"cuisine","value":"coffee_shop"},"tags":{"amenity":"cafe","brand:wikidata":"Q18142418","cuisine":"coffee_shop;pretzel;smoothie;tea;bread"},"addTags":{"amenity":"cafe","brand":"Tom N Toms","brand:en":"Tom N Toms","brand:ko":"탐앤탐스","brand:wikidata":"Q18142418","brand:wikipedia":"en:Tom N Toms","cuisine":"coffee_shop;pretzel;smoothie;tea;bread","name":"Tom N Toms","takeaway":"yes"}},"amenity/cafe/bubble_tea/yifangtea-7ccd18":{"name":"一芳水果茶","locationSet":{"include":["cn","hk"]},"geometry":["point","area"],"matchScore":2,"terms":["yi fang tea","一芳","一芳台湾水果茶","一芳水果茶"],"reference":{"key":"cuisine","value":"bubble_tea"},"tags":{"amenity":"cafe","brand:wikidata":"Q66196395","cuisine":"bubble_tea"},"addTags":{"amenity":"cafe","brand":"一芳水果茶","brand:en":"Yi Fang Tea","brand:wikidata":"Q66196395","brand:wikipedia":"zh:一芳水果茶","brand:zh":"一芳水果茶","cuisine":"bubble_tea","name":"一芳水果茶","name:en":"Yi Fang Tea","name:zh":"一芳水果茶","takeaway":"yes"}},"amenity/cafe/nuttea-b3d618":{"name":"堅果奶茶 NUTTEA","locationSet":{"include":["hk","mo"]},"geometry":["point","area"],"matchScore":2,"terms":["nuttea","堅果奶茶","堅果奶茶 nuttea"],"tags":{"amenity":"cafe","brand:wikidata":"Q111313216"},"addTags":{"amenity":"cafe","brand":"堅果奶茶 NUTTEA","brand:en":"NUTTEA","brand:wikidata":"Q111313216","brand:zh":"堅果奶茶","brand:zh-Hans":"坚果奶茶","brand:zh-Hant":"堅果奶茶","cuisine":"tea","name":"堅果奶茶 NUTTEA","name:en":"NUTTEA","name:zh":"堅果奶茶","name:zh-Hans":"坚果奶茶","name:zh-Hant":"堅果奶茶","takeaway":"yes"}},"amenity/cafe/coffee_shop/pacificcoffee-b3d618":{"name":"太平洋咖啡 Pacific Coffee","locationSet":{"include":["hk","mo"]},"geometry":["point","area"],"matchScore":2,"terms":["pacific coffee","太平洋咖啡","太平洋咖啡 pacific coffee"],"reference":{"key":"cuisine","value":"coffee_shop"},"tags":{"amenity":"cafe","brand:wikidata":"Q7122398","cuisine":"coffee_shop"},"addTags":{"amenity":"cafe","brand":"太平洋咖啡 Pacific Coffee","brand:en":"Pacific Coffee","brand:wikidata":"Q7122398","brand:wikipedia":"en:Pacific Coffee","brand:zh":"太平洋咖啡","cuisine":"coffee_shop","name":"太平洋咖啡 Pacific Coffee","name:en":"Pacific Coffee","name:zh":"太平洋咖啡","takeaway":"yes"}},"amenity/cafe/coffee_shop/starbucks-b3d618":{"name":"星巴克 Starbucks","locationSet":{"include":["hk","mo"]},"geometry":["point","area"],"matchScore":2,"terms":["starbucks","星巴克","星巴克 starbucks"],"reference":{"key":"cuisine","value":"coffee_shop"},"tags":{"amenity":"cafe","brand:wikidata":"Q37158","cuisine":"coffee_shop"},"addTags":{"amenity":"cafe","brand":"星巴克 Starbucks","brand:en":"Starbucks","brand:wikidata":"Q37158","brand:wikipedia":"zh:星巴克","brand:zh":"星巴克","cuisine":"coffee_shop","name":"星巴克 Starbucks","name:en":"Starbucks","name:zh":"星巴克","takeaway":"yes"}},"amenity/cafe/bubble_tea/tptea-59dcf2":{"name":"茶湯會 TP Tea","locationSet":{"include":["hk"]},"geometry":["point","area"],"matchScore":2,"terms":["tp tea","茶湯會","茶湯會 tp tea"],"reference":{"key":"cuisine","value":"bubble_tea"},"tags":{"amenity":"cafe","brand:wikidata":"Q108166023","cuisine":"bubble_tea"},"addTags":{"amenity":"cafe","brand":"茶湯會 TP Tea","brand:en":"TP Tea","brand:wikidata":"Q108166023","brand:zh":"茶湯會","brand:zh-Hans":"茶汤会","brand:zh-Hant":"茶湯會","cuisine":"bubble_tea","name":"茶湯會 TP Tea","name:en":"TP Tea","name:zh":"茶湯會","name:zh-Hans":"茶汤会","name:zh-Hant":"茶湯會","takeaway":"yes"}},"amenity/cafe/bubble_tea/gongcha-b3d618":{"name":"貢茶 Gong Cha","locationSet":{"include":["hk","mo"]},"geometry":["point","area"],"matchScore":2,"terms":["gong cha","貢茶","貢茶 gong cha"],"reference":{"key":"cuisine","value":"bubble_tea"},"tags":{"amenity":"cafe","brand:wikidata":"Q5581670","cuisine":"bubble_tea"},"addTags":{"amenity":"cafe","brand":"貢茶 Gong Cha","brand:en":"Gong Cha","brand:wikidata":"Q5581670","brand:wikipedia":"zh:貢茶 (連鎖店)","brand:zh":"貢茶","cuisine":"bubble_tea","name":"貢茶 Gong Cha","name:en":"Gong Cha","name:zh":"貢茶","takeaway":"yes"}},"amenity/fast_food/burger/fiveguys-200282":{"name":"Five Guys","locationSet":{"include":["ae","be","ca","de","es","fr","gb","hk","ie","it","kw","lu","nl","qa","sa","sg","us"]},"geometry":["point","area"],"matchScore":2,"terms":["five guys","five guys burgers and fries"],"reference":{"key":"cuisine","value":"burger"},"tags":{"amenity":"fast_food","brand:wikidata":"Q1131810","cuisine":"burger"},"addTags":{"amenity":"fast_food","brand":"Five Guys","brand:wikidata":"Q1131810","brand:wikipedia":"en:Five Guys","cuisine":"burger","name":"Five Guys","official_name":"Five Guys Burgers and Fries","takeaway":"yes"}},"amenity/fast_food/sandwich/pretamanger-4aea2b":{"name":"Pret A Manger","locationSet":{"include":["ae","cn","de","dk","fr","gb","hk","nl","sg","us"]},"geometry":["point","area"],"matchScore":2,"terms":["pret","pret a manger"],"reference":{"key":"cuisine","value":"sandwich"},"tags":{"amenity":"fast_food","brand:wikidata":"Q2109109","cuisine":"sandwich"},"addTags":{"amenity":"fast_food","brand":"Pret A Manger","brand:wikidata":"Q2109109","brand:wikipedia":"en:Pret a Manger","cuisine":"sandwich","name":"Pret A Manger","short_name":"Pret","takeaway":"yes"}},"amenity/fast_food/yoshinoya-9f9722":{"name":"吉野家 Yoshinoya","locationSet":{"include":["hk"]},"geometry":["point","area"],"matchScore":2,"terms":["yoshinoya","吉野家","吉野家 yoshinoya"],"tags":{"amenity":"fast_food","brand:wikidata":"Q776272"},"addTags":{"amenity":"fast_food","brand":"吉野家 Yoshinoya","brand:en":"Yoshinoya","brand:ja":"吉野家","brand:wikidata":"Q776272","brand:wikipedia":"ja:吉野家","brand:zh":"吉野家","brand:zh-Hans":"吉野家","brand:zh-Hant":"吉野家","cuisine":"beef_bowl","name":"吉野家 Yoshinoya","name:en":"Yoshinoya","name:ja":"吉野家","name:zh":"吉野家","name:zh-Hans":"吉野家","name:zh-Hant":"吉野家","takeaway":"yes"}},"amenity/fast_food/cafedecoral-9f9722":{"name":"大家樂 Café de Coral","locationSet":{"include":["hk"]},"geometry":["point","area"],"matchScore":2,"terms":["café de coral","大家樂","大家樂 café de coral"],"tags":{"amenity":"fast_food","brand:wikidata":"Q16241484"},"addTags":{"amenity":"fast_food","brand":"大家樂 Café de Coral","brand:en":"Café de Coral","brand:wikidata":"Q16241484","brand:wikipedia":"en:Café de Coral (restaurant)","brand:zh":"大家樂","brand:zh-Hans":"大家乐","brand:zh-Hant":"大家樂","cuisine":"chinese","name":"大家樂 Café de Coral","name:en":"Café de Coral","name:zh":"大家樂","name:zh-Hans":"大家乐","name:zh-Hant":"大家樂","takeaway":"yes"}},"amenity/fast_food/fairwood-9f9722":{"name":"大快活 Fairwood","locationSet":{"include":["hk"]},"geometry":["point","area"],"matchScore":2,"terms":["fairwood","大快活","大快活 fairwood"],"tags":{"amenity":"fast_food","brand:wikidata":"Q5430935"},"addTags":{"amenity":"fast_food","brand":"大快活 Fairwood","brand:en":"Fairwood","brand:wikidata":"Q5430935","brand:wikipedia":"zh:大快活","brand:zh":"大快活","brand:zh-Hans":"大快活","brand:zh-Hant":"大快活","cuisine":"chinese","name":"大快活 Fairwood","name:en":"Fairwood","name:zh":"大快活","name:zh-Hans":"大快活","name:zh-Hant":"大快活","takeaway":"yes"}},"amenity/fast_food/burger/mosburger-17dd9a":{"name":"摩斯漢堡 MOS Burger","locationSet":{"include":["hk","mo"]},"geometry":["point","area"],"matchScore":2,"terms":["mos burger","摩斯漢堡","摩斯漢堡 mos burger"],"reference":{"key":"cuisine","value":"burger"},"tags":{"amenity":"fast_food","brand:wikidata":"Q1204169","cuisine":"burger"},"addTags":{"amenity":"fast_food","brand":"摩斯漢堡 MOS Burger","brand:en":"MOS Burger","brand:wikidata":"Q1204169","brand:wikipedia":"zh:摩斯漢堡","brand:zh":"摩斯漢堡","brand:zh-Hans":"摩斯汉堡","brand:zh-Hant":"摩斯漢堡","cuisine":"burger","name":"摩斯漢堡 MOS Burger","name:en":"MOS Burger","name:zh":"摩斯漢堡","name:zh-Hans":"摩斯汉堡","name:zh-Hant":"摩斯漢堡","takeaway":"yes"}},"amenity/fast_food/matsuya-2e6562":{"name":"松屋","locationSet":{"include":["cn","hk","jp","mo","sg","tw"]},"geometry":["point","area"],"matchScore":2,"terms":["matsuya","matsuya foods","松屋","松屋フーズ"],"tags":{"amenity":"fast_food","brand:wikidata":"Q848773"},"addTags":{"amenity":"fast_food","brand":"松屋","brand:en":"Matsuya","brand:ja":"松屋","brand:wikidata":"Q848773","brand:wikipedia":"ja:松屋フーズ","cuisine":"japanese","name":"松屋","name:en":"Matsuya","name:ja":"松屋","name:zh":"松屋","official_name":"松屋フーズ","official_name:en":"Matsuya Foods","official_name:ja":"松屋フーズ","takeaway":"yes"}},"amenity/fast_food/chicken/kfc-17dd9a":{"name":"肯德基 KFC","locationSet":{"include":["hk","mo"]},"geometry":["point","area"],"matchScore":2,"terms":["kfc","肯德基","肯德基 kfc"],"reference":{"key":"cuisine","value":"chicken"},"tags":{"amenity":"fast_food","brand:wikidata":"Q524757","cuisine":"chicken"},"addTags":{"amenity":"fast_food","brand":"肯德基 KFC","brand:en":"KFC","brand:wikidata":"Q524757","brand:wikipedia":"zh:肯德基","brand:zh":"肯德基","brand:zh-Hans":"肯德基","brand:zh-Hant":"肯德基","cuisine":"chicken","name":"肯德基 KFC","name:en":"KFC","name:zh":"肯德基","name:zh-Hans":"肯德基","name:zh-Hant":"肯德基","takeaway":"yes"}},"amenity/fast_food/burger/mcdonalds-17dd9a":{"name":"麥當勞 McDonald's","locationSet":{"include":["hk","mo"]},"geometry":["point","area"],"matchScore":2,"terms":["mcdonald's","m記","麥當勞","麥當勞 mcdonald's","麥記"],"reference":{"key":"cuisine","value":"burger"},"tags":{"amenity":"fast_food","brand:wikidata":"Q38076","cuisine":"burger"},"addTags":{"amenity":"fast_food","brand":"麥當勞 McDonald's","brand:en":"McDonald's","brand:wikidata":"Q38076","brand:wikipedia":"zh:麦当劳","brand:zh":"麥當勞","brand:zh-Hans":"麦当劳","brand:zh-Hant":"麥當勞","cuisine":"burger","name":"麥當勞 McDonald's","name:en":"McDonald's","name:zh":"麥當勞","name:zh-Hans":"麦当劳","name:zh-Hant":"麥當勞","takeaway":"yes"}},"amenity/kindergarten/kido-0883b2":{"name":"Kïdo","locationSet":{"include":["ae","gb","hk","in","us"]},"geometry":["area","point"],"matchScore":2,"terms":["kido","kïdo","kïdo international preschool"],"fields":["name","brand","{amenity/kindergarten}"],"tags":{"amenity":"kindergarten","brand:wikidata":"Q104849185"},"addTags":{"alt_name":"Kido","amenity":"kindergarten","brand":"Kïdo","brand:wikidata":"Q104849185","fee":"yes","isced:level":"0","name":"Kïdo","nursery":"yes","official_name":"Kïdo International Preschool","preschool":"yes"}},"amenity/language_school/shaneenglishschool-f8b177":{"name":"Shane English School","locationSet":{"include":["dz","gb","hk","id","kr","pl","th","vn"]},"geometry":["point","area"],"matchScore":2,"terms":["shane english school","シェーン英会話"],"fields":["name","brand","{amenity/language_school}"],"tags":{"amenity":"language_school","brand:wikidata":"Q17054332"},"addTags":{"amenity":"language_school","brand":"Shane English School","brand:en":"Shane English School","brand:ja":"シェーン英会話","brand:ja-Latn":"Shēn Eikaiwa","brand:wikidata":"Q17054332","brand:wikipedia":"en:Shane English School","language:en":"main","name":"Shane English School","name:en":"Shane English School","name:ja":"シェーン英会話","name:ja-Latn":"Shēn Eikaiwa"}},"amenity/pharmacy/tintindrugstore-53e0d8":{"name":"丁丁藥局","locationSet":{"include":["cn","hk","tw"]},"geometry":["point","area"],"matchScore":2,"terms":["tin tin drugstore","丁丁藥局"],"reference":{"key":"amenity","value":"pharmacy"},"tags":{"amenity":"pharmacy","brand:wikidata":"Q108166589"},"addTags":{"amenity":"pharmacy","brand":"丁丁藥局","brand:en":"Tin Tin Drugstore","brand:wikidata":"Q108166589","brand:zh":"丁丁藥局","healthcare":"pharmacy","name":"丁丁藥局","name:en":"Tin Tin Drugstore","name:zh":"丁丁藥局","shop":"chemist"}},"amenity/pharmacy/beijingtongrentang-ccc53f":{"name":"北京同仁堂 Beijing Tong Ren Tang","locationSet":{"include":["hk","mo"]},"geometry":["point","area"],"matchScore":2,"terms":["beijing tong ren tang","北京同仁堂","北京同仁堂 beijing tong ren tang"],"reference":{"key":"amenity","value":"pharmacy"},"tags":{"amenity":"pharmacy","brand:wikidata":"Q842099"},"addTags":{"amenity":"pharmacy","brand":"北京同仁堂 Beijing Tong Ren Tang","brand:en":"Beijing Tong Ren Tang","brand:wikidata":"Q842099","brand:wikipedia":"zh:同仁堂","brand:zh":"北京同仁堂","brand:zh-Hans":"北京同仁堂","brand:zh-Hant":"北京同仁堂","healthcare":"pharmacy","name":"北京同仁堂 Beijing Tong Ren Tang","name:en":"Beijing Tong Ren Tang","name:zh":"北京同仁堂","name:zh-Hans":"北京同仁堂","name:zh-Hant":"北京同仁堂"}},"amenity/post_office/sfexpress-5291fc":{"name":"順豐速運 SF Express","locationSet":{"include":["hk"]},"geometry":["point","area"],"matchScore":2,"terms":["sf express","順豐快遞","順豐速運","順豐速運 sf express","順豐速遞"],"fields":["name","brand","{amenity/post_office}"],"tags":{"amenity":"post_office","brand:wikidata":"Q7390019"},"addTags":{"amenity":"post_office","brand":"順豐速運 SF Express","brand:en":"SF Express","brand:wikidata":"Q7390019","brand:wikipedia":"zh:顺丰速运","brand:zh":"順豐速運","brand:zh-Hans":"顺丰速运","brand:zh-Hant":"順豐速運","name":"順豐速運 SF Express","name:en":"SF Express","name:zh":"順豐速運","name:zh-Hans":"顺丰速运","name:zh-Hant":"順豐速運"}},"amenity/recycling/greencommunity-f66c52":{"name":"綠在區區","locationSet":{"include":["hk"]},"geometry":["point","area"],"matchScore":2,"terms":["environmental protection department","green@community","環境保護署","環境保護署 environmental protection department","綠在區區","綠在區區 green@community"],"tags":{"amenity":"recycling","brand:wikidata":"Q111079364"},"addTags":{"amenity":"recycling","amentity":"recycling","brand":"綠在區區 GREEN@COMMUNITY","brand:en":"GREEN@COMMUNITY","brand:wikidata":"Q111079364","brand:zh":"綠在區區","brand:zh-Hans":"绿在区区","brand:zh-Hant":"綠在區區","operator":"環境保護署 Environmental Protection Department","operator:en":"Environmental Protection Department","operator:wikidata":"Q841892","operator:wikipedia":"zh:環境保護署 (香港)","operator:zh":"環境保護署","operator:zh-Hans":"环境保护署","operator:zh-Hant":"環境保護署","recycling_type":"container"}},"amenity/restaurant/afuri-9b358b":{"name":"AFURI","locationSet":{"include":["ca","hk","jp","pt","sg","us"]},"geometry":["point","area"],"matchScore":2,"terms":["afuri"],"fields":["name","brand","{amenity/restaurant}"],"tags":{"amenity":"restaurant","brand:wikidata":"Q109237427"},"addTags":{"amenity":"restaurant","brand":"AFURI","brand:wikidata":"Q109237427","brand:wikipedia":"en:Afuri","cuisine":"ramen","name":"AFURI"}},"amenity/restaurant/seafood/bubbagumpshrimpcompany-90d54f":{"name":"Bubba Gump Shrimp Company","locationSet":{"include":["ca","co","gb","hk","id","jp","mp","mx","ph","us"]},"geometry":["point","area"],"matchScore":2,"terms":["bubba gump shrimp company"],"reference":{"key":"cuisine","value":"seafood"},"tags":{"amenity":"restaurant","brand:wikidata":"Q50024","cuisine":"seafood"},"addTags":{"amenity":"restaurant","brand":"Bubba Gump Shrimp Company","brand:wikidata":"Q50024","brand:wikipedia":"en:Bubba Gump Shrimp Company","cuisine":"seafood","name":"Bubba Gump Shrimp Company"}},"amenity/restaurant/noodle/marugameseimen-3a752f":{"name":"丸亀製麺","locationSet":{"include":["hk","jp","tw"]},"geometry":["point","area"],"matchScore":2,"terms":["marugame seimen","丸亀製麵","丸亀製麺"],"reference":{"key":"cuisine","value":"noodle"},"tags":{"amenity":"restaurant","brand:wikidata":"Q10877253","cuisine":"noodle"},"addTags":{"amenity":"restaurant","brand":"丸亀製麺","brand:en":"Marugame Seimen","brand:ja":"丸亀製麺","brand:wikidata":"Q10877253","brand:wikipedia":"ja:丸亀製麺","brand:zh":"丸亀製麵","cuisine":"noodle","name":"丸亀製麺","name:en":"Marugame Seimen","name:ja":"丸亀製麺","name:zh":"丸亀製麵"}},"amenity/restaurant/sushi/genkisushi-8b6c9a":{"name":"元氣壽司 Genki Sushi","locationSet":{"include":["hk"]},"geometry":["point","area"],"matchScore":2,"terms":["genki sushi","元気寿司","元氣壽司","元氣壽司 genki sushi"],"reference":{"key":"cuisine","value":"sushi"},"tags":{"amenity":"restaurant","brand:wikidata":"Q5533323","cuisine":"sushi"},"addTags":{"amenity":"restaurant","brand":"元氣壽司 Genki Sushi","brand:en":"Genki Sushi","brand:ja":"元気寿司","brand:wikidata":"Q5533323","brand:wikipedia":"ja:元気寿司","brand:zh":"元氣壽司","brand:zh-Hans":"元气寿司","brand:zh-Hant":"元氣壽司","cuisine":"sushi","name":"元気寿司 Genki Sushi","name:en":"Genki Sushi","name:ja":"元気寿司","name:zh":"元氣壽司","name:zh-Hans":"元气寿司","name:zh-Hant":"元氣壽司"}},"amenity/restaurant/chinese/bafangdumpling-8b6c9a":{"name":"八方雲集 Bafang Dumpling","locationSet":{"include":["hk"]},"geometry":["point","area"],"matchScore":2,"terms":["bafang dumpling","八方雲集","八方雲集 bafang dumpling"],"reference":{"key":"cuisine","value":"chinese"},"tags":{"amenity":"restaurant","brand:wikidata":"Q28417381","cuisine":"chinese"},"addTags":{"amenity":"restaurant","brand":"八方雲集 Bafang Dumpling","brand:en":"Bafang Dumpling","brand:wikidata":"Q28417381","brand:wikipedia":"zh:八方雲集","brand:zh":"八方雲集","brand:zh-Hans":"八方云集","brand:zh-Hant":"八方雲集","cuisine":"chinese","name":"八方雲集","name:en":"Bafang Dumpling","name:zh":"八方雲集","name:zh-Hans":"八方云集","name:zh-Hant":"八方雲集"}},"amenity/restaurant/ajisenramen-8b6c9a":{"name":"味千拉麵 Ajisen Ramen","locationSet":{"include":["hk"]},"geometry":["point","area"],"matchScore":2,"terms":["ajisen ramen","味千ラーメン","味千拉麵","味千拉麵 ajisen ramen"],"tags":{"amenity":"restaurant","brand:wikidata":"Q4699761"},"addTags":{"amenity":"restaurant","brand":"味千拉麵 Ajisen Ramen","brand:en":"Ajisen Ramen","brand:ja":"味千ラーメン","brand:wikidata":"Q4699761","brand:wikipedia":"zh:味千拉麵","brand:zh":"味千拉麵","brand:zh-Hans":"味千拉面","brand:zh-Hant":"味千拉麵","cuisine":"ramen","name":"味千拉麵 Ajisen Ramen","name:en":"Ajisen Ramen","name:ja":"味千ラーメン","name:zh":"味千拉麵","name:zh-Hans":"味千拉面","name:zh-Hant":"味千拉麵"}},"amenity/restaurant/pizza/pizzahut-edf541":{"name":"必勝客 Pizza Hut","locationSet":{"include":["hk","mo"]},"geometry":["point","area"],"matchScore":2,"terms":["pizza hut","必勝客","必勝客 pizza hut"],"reference":{"key":"cuisine","value":"pizza"},"tags":{"amenity":"restaurant","brand:wikidata":"Q191615","cuisine":"pizza"},"addTags":{"amenity":"restaurant","brand":"必勝客 Pizza Hut","brand:en":"Pizza Hut","brand:wikidata":"Q191615","brand:wikipedia":"zh:必胜客","brand:zh":"必勝客","brand:zh-Hans":"必胜客","brand:zh-Hant":"必勝客","cuisine":"pizza","name":"必勝客 Pizza Hut","name:en":"Pizza Hut","name:zh":"必勝客","name:zh-Hans":"必胜客","name:zh-Hant":"必勝客"}},"amenity/restaurant/italian/saizeriya-8b6c9a":{"name":"薩莉亞 Saizeriya","locationSet":{"include":["hk"]},"geometry":["point","area"],"matchScore":2,"terms":["saizeriya","サイゼリヤ","薩莉亞","薩莉亞 saizeriya"],"reference":{"key":"cuisine","value":"italian"},"tags":{"amenity":"restaurant","brand:wikidata":"Q886564","cuisine":"italian"},"addTags":{"amenity":"restaurant","brand":"薩莉亞 Saizeriya","brand:en":"Saizeriya","brand:it":"Saizeriya","brand:ja":"サイゼリヤ","brand:wikidata":"Q886564","brand:wikipedia":"zh:萨莉亚","brand:zh":"薩莉亞","brand:zh-Hans":"萨莉亚","brand:zh-Hant":"薩莉亞","cuisine":"italian","name":"薩莉亞 Saizeriya","name:en":"Saizeriya","name:it":"Saizeriya","name:ja":"サイゼリヤ","name:zh":"薩莉亞","name:zh-Hans":"萨莉亚","name:zh-Hant":"薩莉亞"}},"amenity/restaurant/noodle/tamjaisamgor-8b6c9a":{"name":"譚仔三哥 TamJai SamGor","locationSet":{"include":["hk"]},"geometry":["point","area"],"matchScore":2,"terms":["tamjai samgor","譚仔三哥","譚仔三哥 tamjai samgor"],"reference":{"key":"cuisine","value":"noodle"},"tags":{"amenity":"restaurant","brand:wikidata":"Q13164532","cuisine":"noodle"},"addTags":{"amenity":"restaurant","brand":"譚仔三哥 TamJai SamGor","brand:en":"TamJai SamGor","brand:wikidata":"Q13164532","brand:wikipedia":"zh:譚仔雲南米線","brand:zh":"譚仔三哥","brand:zh-Hans":"谭仔三哥","brand:zh-Hant":"譚仔三哥","cuisine":"noodle","name":"譚仔三哥 TamJai SamGor","name:en":"譚仔三哥 TamJai SamGor","name:zh":"譚仔三哥","name:zh-Hans":"谭仔三哥","name:zh-Hant":"譚仔三哥"}},"amenity/restaurant/noodle/tamjaiyunnanmixian-8b6c9a":{"name":"譚仔雲南米線 TamJai Yunnan Mixian","locationSet":{"include":["hk"]},"geometry":["point","area"],"matchScore":2,"terms":["tamjai yunnan mixian","譚仔","譚仔雲南米線","譚仔雲南米線 tamjai yunnan mixian"],"reference":{"key":"cuisine","value":"noodle"},"tags":{"amenity":"restaurant","brand:wikidata":"Q13164532","cuisine":"noodle"},"addTags":{"amenity":"restaurant","brand":"譚仔雲南米線 TamJai Yunnan Mixian","brand:wikidata":"Q13164532","brand:wikipedia":"zh:譚仔雲南米線","brand:zh":"譚仔雲南米線","brand:zh-Hans":"谭仔云南米线","brand:zh-Hant":"譚仔雲南米線","cuisine":"noodle","name":"譚仔雲南米線 TamJai Yunnan Mixian","name:en":"TamJai Yunnan Mixian","name:zh":"譚仔雲南米線","name:zh-Hans":"谭仔云南米线","name:zh-Hant":"譚仔雲南米線"}},"amenity/restaurant/dintaifung-8b6c9a":{"name":"鼎泰豐 Din Tai Fung","locationSet":{"include":["hk"]},"geometry":["point","area"],"matchScore":2,"terms":["din tai fung","鼎泰豐","鼎泰豐 din tai fung"],"tags":{"amenity":"restaurant","brand:wikidata":"Q699142"},"addTags":{"amenity":"restaurant","brand":"鼎泰豐 Din Tai Fung","brand:en":"Din Tai Fung","brand:wikidata":"Q699142","brand:wikipedia":"zh:鼎泰豐","brand:zh":"鼎泰豐","brand:zh-Hans":"鼎泰丰","brand:zh-Hant":"鼎泰豐","cuisine":"taiwanese","name":"鼎泰豐 Din Tai Fung","name:en":"Din Tai Fung","name:zh":"鼎泰豐","name:zh-Hans":"鼎泰丰","name:zh-Hant":"鼎泰豐"}},"amenity/school/maplebear-89c128":{"name":"Maple Bear","locationSet":{"include":["ae","al","ar","au","bd","bg","br","ca","cn","gt","hk","hr","in","ke","kr","lk","ma","mx","my","np","om","pe","ph","py","ro","rs","sg","th","tk","ua","us","vn"]},"geometry":["area","point"],"matchScore":2,"terms":["maple bear"],"fields":["name","brand","{amenity/school}"],"tags":{"amenity":"school","brand:wikidata":"Q10324823"},"addTags":{"amenity":"school","brand":"Maple Bear","brand:wikidata":"Q10324823","brand:wikipedia":"pt:Maple Bear","name":"Maple Bear","operator:type":"private"}},"club/scoutassociationofhongkong-d7bac8":{"name":"香港童軍總會","locationSet":{"include":["hk"]},"geometry":["point","area"],"matchScore":2,"terms":["scout association of hong kong","scouts","童軍","香港童軍總會"],"fields":["name","brand","{club}"],"tags":{"brand:wikidata":"Q1883585","club":"scout"},"addTags":{"brand":"香港童軍總會","brand:en":"Scout Association of Hong Kong","brand:wikidata":"Q1883585","brand:wikipedia":"zh:香港童軍總會","brand:zh":"香港童軍總會","brand:zh-Hans":"香港童军总会","brand:zh-Hant":"香港童軍總會","club":"scout","name":"香港童軍總會 Scout Association of Hong Kong","name:en":"Scout Association of Hong Kong","name:zh":"香港童軍總會","name:zh-Hant":"香港童军总会"}},"healthcare/blood_donation/hongkongredcross-d0af39":{"name":"香港紅十字會 Hong Kong Red Cross","locationSet":{"include":["hk"]},"geometry":["point","area"],"matchScore":2,"terms":["hong kong red cross","紅十字","紅十字會","香港紅十字會","香港紅十字會 hong kong red cross"],"tags":{"brand:wikidata":"Q840469","healthcare":"blood_donation"},"addTags":{"brand":"香港紅十字會 Hong Kong Red Cross","brand:en":"Hong Kong Red Cross","brand:wikidata":"Q840469","brand:wikipedia":"zh:香港紅十字會","brand:zh":"香港紅十字會","brand:zh-Hans":"香港红十字会","brand:zh-Hant":"香港紅十字會","healthcare":"blood_donation","name":"香港紅十字會 Hong Kong Red Cross","name:en":"Hong Kong Red Cross","name:zh":"香港紅十字會","name:zh-Hans":"香港红十字会","name:zh-Hant":"香港紅十字會"}},"leisure/fitness_centre/snapfitness-551086":{"name":"Snap Fitness","locationSet":{"include":["ae","au","be","ca","es","gb","hk","id","ie","jp","mx","nl","nz","ph","tr","tw","us"]},"geometry":["point","area"],"matchScore":2,"terms":["snap fitness"],"tags":{"brand:wikidata":"Q7547254","leisure":"fitness_centre"},"addTags":{"brand":"Snap Fitness","brand:wikidata":"Q7547254","brand:wikipedia":"en:Snap Fitness","leisure":"fitness_centre","name":"Snap Fitness"}},"office/coworking/ucommune-a8f329":{"name":"Ucommune (Hong Kong)","locationSet":{"include":["hk"]},"geometry":["point","area"],"matchScore":2,"terms":["ucommune","優客工場","優客工場 ucommune"],"reference":{"key":"amenity","value":"coworking_space"},"tags":{"brand:wikidata":"Q60785187","office":"coworking"},"addTags":{"brand":"優客工場 Ucommune","brand:en":"Ucommune","brand:wikidata":"Q60785187","brand:wikipedia":"en:Ucommune","brand:zh":"優客工場","brand:zh-Hans":"优客工场","brand:zh-Hant":"優客工場","fee":"yes","name":"優客工場 Ucommune","name:en":"Ucommune","name:zh":"優客工場","name:zh-Hans":"优客工场","name:zh-Hant":"優客工場","office":"coworking"}},"office/telecommunication/three-ad533f":{"name":"3","locationSet":{"include":["hk","mo"]},"geometry":["point","area"],"matchScore":2,"terms":["3","three."],"tags":{"brand:wikidata":"Q407009","office":"telecommunication"},"addTags":{"brand":"3","brand:en":"3","brand:wikidata":"Q407009","brand:wikipedia":"en:3 (company)","name":"Three.","name:en":"Three.","office":"telecommunication"}},"office/telecommunication/chinamobile-d8d44b":{"name":"中國移動 China Mobile","locationSet":{"include":["hk"]},"geometry":["point","area"],"matchScore":2,"terms":["china mobile","cmhk","中國移動","中國移動 china mobile","中移動","萬眾"],"tags":{"brand:wikidata":"Q741618","office":"telecommunication"},"addTags":{"brand":"中國移動 China Mobile","brand:en":"China Mobile","brand:wikidata":"Q741618","brand:wikipedia":"zh:中国移动","brand:zh":"中國移動","brand:zh-Hans":"中国移动","brand:zh-Hant":"中國移動","name":"中國移動 China Mobile","name:en":"China Mobile","name:zh":"中國移動","name:zh-Hans":"中国移动","name:zh-Hant":"中國移動","office":"telecommunication"}},"office/telecommunication/chinaunicom-d8d44b":{"name":"中國聯通 China Unicom","locationSet":{"include":["hk"]},"geometry":["point","area"],"matchScore":2,"terms":["china unicom","中國聯通","中國聯通 china unicom"],"tags":{"brand:wikidata":"Q1068485","office":"telecommunication"},"addTags":{"brand":"中國聯通 China Unicom","brand:en":"China Unicom","brand:wikidata":"Q1068485","brand:wikipedia":"zh:中国联通","brand:zh":"中國聯通","brand:zh-Hans":"中国联通","brand:zh-Hant":"中國聯通","name":"中國聯通 China Unicom","name:en":"China Unicom","name:zh":"中國聯通","name:zh-Hans":"中国联通","name:zh-Hant":"中國聯通","office":"telecommunication"}},"office/telecommunication/smartone-ad533f":{"name":"數碼通 SmarTone","locationSet":{"include":["hk","mo"]},"geometry":["point","area"],"matchScore":2,"terms":["smartone","數碼通","數碼通 smartone"],"tags":{"brand:wikidata":"Q11079498","office":"telecommunication"},"addTags":{"brand":"數碼通 SmarTone","brand:en":"SmarTone","brand:wikidata":"Q11079498","brand:wikipedia":"zh:數碼通","brand:zh":"數碼通","brand:zh-Hans":"数码通","brand:zh-Hant":"數碼通","name":"數碼通 SmarTone","name:en":"SmarTone","name:zh":"數碼通","name:zh-Hans":"数码通","name:zh-Hant":"數碼通","office":"telecommunication"}},"office/telecommunication/sunmobile-d8d44b":{"name":"新移動通訊 SUN Mobile","locationSet":{"include":["hk"]},"geometry":["point","area"],"matchScore":2,"terms":["sun mobile","新移動通訊","新移動通訊 sun mobile"],"tags":{"brand:wikidata":"Q11080923","office":"telecommunication"},"addTags":{"brand":"新移動通訊 SUN Mobile","brand:en":"SUN Mobile","brand:wikidata":"Q11080923","brand:wikipedia":"zh:新移動通訊","brand:zh":"新移動通訊","brand:zh-Hans":"新移动通讯","brand:zh-Hant":"新移動通訊","name":"新移動通訊 SUN Mobile","name:en":"SUN Mobile","name:zh":"新移動通訊","name:zh-Hans":"新移动通讯","name:zh-Hant":"新移動通訊","office":"telecommunication"}},"shop/bakery/aromebakery-ebd86c":{"name":"Arome Bakery","locationSet":{"include":["hk"]},"geometry":["point","area"],"matchScore":2,"terms":["arome bakery"],"tags":{"brand:wikidata":"Q1305627","shop":"bakery"},"addTags":{"brand":"Arome Bakery","brand:wikidata":"Q1305627","brand:wikipedia":"zh:東海堂","name":"Arome Bakery","shop":"bakery"}},"shop/bakery/milliescookies-376142":{"name":"Millie's Cookies","locationSet":{"include":["de","eg","fr","gb","hk","in","mt"]},"geometry":["point","area"],"matchScore":2,"terms":["millie's cookies"],"tags":{"brand:wikidata":"Q1935533","shop":"bakery"},"addTags":{"brand":"Millie's Cookies","brand:wikidata":"Q1935533","brand:wikipedia":"en:Millie's Cookies","name":"Millie's Cookies","shop":"bakery"}},"shop/bakery/yamazakibaking-ebd86c":{"name":"山崎麵包 Yamazaki Bakery","locationSet":{"include":["hk"]},"geometry":["point","area"],"matchScore":2,"terms":["yamazaki bakery","yamazaki baking","山崎製パン","山崎麵包","山崎麵包 yamazaki bakery"],"tags":{"brand:wikidata":"Q3138937","shop":"bakery"},"addTags":{"brand":"山崎麵包 Yamazaki Bakery","brand:en":"Yamazaki Bakery","brand:ja":"山崎製パン","brand:wikidata":"Q3138937","brand:wikipedia":"zh:山崎麵包","brand:zh":"山崎麵包","brand:zh-Hans":"山崎面包","brand:zh-Hant":"山崎麵包","name":"山崎麵包","name:en":"Yamazaki Baking","name:ja":"山崎製パン","name:zh":"山崎麵包","name:zh-Hans":"山崎面包","name:zh-Hant":"山崎麵包","shop":"bakery"}},"shop/beauty/yvesrocher-9f1489":{"name":"葉露芝","locationSet":{"include":["hk","tw"]},"geometry":["point","area"],"matchScore":2,"terms":["yves rocher","葉露芝"],"tags":{"brand:wikidata":"Q28496595","shop":"beauty"},"addTags":{"beauty":"cosmetics","brand":"葉露芝","brand:en":"Yves Rocher","brand:wikidata":"Q28496595","brand:wikipedia":"zh:葉露芝","brand:zh":"葉露芝","name":"葉露芝","name:en":"Yves Rocher","name:zh":"葉露芝","shop":"beauty"}},"shop/books/popular-0df755":{"name":"Popular","locationSet":{"include":["hk","my","sg"]},"geometry":["point","area"],"matchScore":2,"terms":["popular","大众书局"],"tags":{"brand:wikidata":"Q4167785","shop":"books"},"addTags":{"brand":"Popular","brand:wikidata":"Q4167785","brand:wikipedia":"en:Popular Holdings","brand:zh":"大众书局","name":"Popular","name:zh":"大众书局","shop":"books"}},"shop/books/jointpublishing-199399":{"name":"三聯書店 Joint Publishing","locationSet":{"include":["hk"]},"geometry":["point","area"],"matchScore":2,"terms":["joint publishing","三聯書店","三聯書店 joint publishing"],"tags":{"brand:wikidata":"Q17012917","shop":"books"},"addTags":{"brand":"三聯書店 Joint Publishing","brand:en":"Joint Publishing","brand:wikidata":"Q17012917","brand:wikipedia":"zh:三聯書店（香港）","brand:zh":"三聯書店","brand:zh-Hans":"三联书店","brand:zh-Hant":"三聯書店","name":"三聯書店 Joint Publishing","name:en":"Joint Publishing","name:zh":"三聯書店","name:zh-Hans":"三联书店","name:zh-Hant":"三聯書店","owner":"聯合出版（集團）有限公司 Sino United Publishing (Holdings) Limited","owner:en":"Sino United Publishing (Holdings) Limited","owner:wikidata":"Q15912494","owner:wikipedia":"zh:聯合出版集團","owner:zh":"聯合出版（集團）有限公司","owner:zh-Hans":"联合出版（集团）有限公司","owner:zh-Hant":"聯合出版（集團）有限公司","shop":"books"}},"shop/books/chunghwabookcompany-199399":{"name":"中華書局 Chung Hwa Book Company","locationSet":{"include":["hk"]},"geometry":["point","area"],"matchScore":2,"terms":["chung hwa book company","中華書局","中華書局 chung hwa book company"],"tags":{"brand:wikidata":"Q10876287","shop":"books"},"addTags":{"brand":"中華書局 Chung Hwa Book Company","brand:en":"Chung Hwa Book Company","brand:wikidata":"Q10876287","brand:wikipedia":"zh:中華書局（香港）","brand:zh":"中華書局","brand:zh-Hans":"中华书局","brand:zh-Hant":"中華書局","name":"中華書局 Chung Hwa Book Company","name:en":"Chung Hwa Book Company","name:zh":"中華書局","name:zh-Hans":"中华书局","name:zh-Hant":"中華書局","owner":"聯合出版（集團）有限公司 Sino United Publishing (Holdings) Limited","owner:en":"Sino United Publishing (Holdings) Limited","owner:wikidata":"Q15912494","owner:wikipedia":"zh:聯合出版集團","owner:zh":"聯合出版（集團）有限公司","owner:zh-Hans":"联合出版（集团）有限公司","owner:zh-Hant":"聯合出版（集團）有限公司","shop":"books"}},"shop/books/thecommercialpress-199399":{"name":"商務印書館 The Commercial Press","locationSet":{"include":["hk"]},"geometry":["point","area"],"matchScore":2,"terms":["the commercial press","商務印書館","商務印書館 the commercial press"],"tags":{"brand:wikidata":"Q10923130","shop":"books"},"addTags":{"brand":"商務印書館 The Commercial Press","brand:en":"The Commercial Press","brand:wikidata":"Q10923130","brand:wikipedia":"zh:商務印書館（香港）","brand:zh":"商務印書館","brand:zh-Hans":"商务印书馆","brand:zh-Hant":"商務印書館","name":"商務印書館 The Commercial Press","name:en":"The Commercial Press","name:zh":"商務印書館","name:zh-Hans":"商务印书馆","name:zh-Hant":"商務印書館","owner":"聯合出版（集團）有限公司 Sino United Publishing (Holdings) Limited","owner:en":"Sino United Publishing (Holdings) Limited","owner:wikidata":"Q15912494","owner:wikipedia":"zh:聯合出版集團","owner:zh":"聯合出版（集團）有限公司","owner:zh-Hans":"联合出版（集团）有限公司","owner:zh-Hant":"聯合出版（集團）有限公司","shop":"books"}},"shop/books/eslitebookstore-e5bda4":{"name":"誠品書店 Eslite Bookstore","locationSet":{"include":["hk","mo"]},"geometry":["point","area"],"matchScore":2,"terms":["eslite bookstore","誠品書店","誠品書店 eslite bookstore"],"tags":{"brand:wikidata":"Q391988","shop":"books"},"addTags":{"brand":"誠品書店 Eslite Bookstore","brand:en":"Eslite Bookstore","brand:wikidata":"Q391988","brand:wikipedia":"zh:誠品書店","brand:zh":"誠品書店","brand:zh-Hans":"诚品书店","brand:zh-Hant":"誠品書店","name":"誠品書店 Eslite Bookstore","name:en":"Eslite Bookstore","name:zh":"誠品書店","name:zh-Hans":"诚品书店","name:zh-Hant":"誠品書店","shop":"books"}},"shop/chemist/watsons-d89f96":{"name":"屈臣氏 Watsons","locationSet":{"include":["hk","mo"]},"geometry":["point","area"],"matchScore":2,"terms":["watsons","屈臣氏","屈臣氏 watsons"],"tags":{"brand:wikidata":"Q7974785","shop":"chemist"},"addTags":{"brand":"屈臣氏 Watsons","brand:en":"Watsons","brand:wikidata":"Q7974785","brand:wikipedia":"zh:屈臣氏個人護理店","brand:zh":"屈臣氏","brand:zh-Hans":"屈臣氏","brand:zh-Hant":"屈臣氏","name":"屈臣氏 Watsons","name:en":"Watsons","name:zh":"屈臣氏","name:zh-Hans":"屈臣氏","name:zh-Hant":"屈臣氏","shop":"chemist"}},"shop/chemist/mannings-d89f96":{"name":"萬寧 Mannings","locationSet":{"include":["hk","mo"]},"geometry":["point","area"],"matchScore":2,"terms":["mannings","萬寧","萬寧 mannings"],"tags":{"brand:wikidata":"Q13646560","shop":"chemist"},"addTags":{"amenity":"pharmacy","brand":"萬寧 Mannings","brand:en":"Mannings","brand:wikidata":"Q13646560","brand:wikipedia":"zh:萬寧 (零售商)","brand:zh":"萬寧","brand:zh-Hans":"万宁","brand:zh-Hant":"萬寧","healthcare":"pharmacy","name":"萬寧 Mannings","name:en":"Mannings","name:zh":"萬寧","name:zh-Hans":"万宁","name:zh-Hant":"萬寧","shop":"chemist"}},"shop/clothes/abercrombieandfitch-c69677":{"name":"Abercrombie & Fitch","locationSet":{"include":["ae","be","ca","cn","de","es","fr","gb","hk","ie","it","jp","kw","mx","nl","qa","sa","sg","us"]},"geometry":["point","area"],"matchScore":2,"terms":["abercrombie & fitch"],"tags":{"brand:wikidata":"Q319344","shop":"clothes"},"addTags":{"brand":"Abercrombie & Fitch","brand:wikidata":"Q319344","brand:wikipedia":"en:Abercrombie & Fitch","clothes":"men;women","name":"Abercrombie & Fitch","shop":"clothes"}},"shop/clothes/jackwills-75e7ba":{"name":"Jack Wills","locationSet":{"include":["ae","gb","hk","ie","kw","lb","mo","sg","us"]},"geometry":["point","area"],"matchScore":2,"terms":["jack wills"],"tags":{"brand:wikidata":"Q6115814","shop":"clothes"},"addTags":{"brand":"Jack Wills","brand:wikidata":"Q6115814","brand:wikipedia":"en:Jack Wills","name":"Jack Wills","shop":"clothes"}},"shop/clothes/maje-99ba8f":{"name":"Maje","locationSet":{"include":["by","bg","cz","hu","pl","md","ro","ru","sk","ua","ax","gg","je","cq","dk","ee","fo","fi","is","ie","im","lv","lt","no","sj","se","gb","al","ad","ba","hr","gi","gr","va","it","mt","me","mk","pt","sm","rs","si","es","xk","at","be","fr","de","li","lu","mc","nl","ch","cn","hk","sg","tw","uk","us"]},"geometry":["point","area"],"matchScore":2,"terms":["maje"],"tags":{"brand:wikidata":"Q3280458","shop":"clothes"},"addTags":{"brand":"Maje","brand:wikidata":"Q3280458","brand:wikipedia":"fr:Maje","clothes":"women","name":"Maje","shop":"clothes"}},"shop/clothes/patagonia-7718c5":{"name":"Patagonia","locationSet":{"include":["ar","at","au","ca","cl","cn","cz","de","fx","gb","hk","ie","it","jp","kr","pe","tw","us"]},"geometry":["point","area"],"matchScore":2,"terms":["patagonia"],"tags":{"brand:wikidata":"Q1660552","shop":"clothes"},"addTags":{"brand":"Patagonia","brand:wikidata":"Q1660552","brand:wikipedia":"en:Patagonia, Inc.","clothes":"outdoor","name":"Patagonia","shop":"clothes"}},"shop/computer/wellent-e0237d":{"name":"偉倫電腦 Wellent","locationSet":{"include":["hk"]},"geometry":["point","area"],"matchScore":2,"terms":["wellent","偉倫","偉倫電腦","偉倫電腦 wellent"],"tags":{"brand:wikidata":"Q111103504","shop":"computer"},"addTags":{"brand":"偉倫電腦 Wellent","brand:en":"Wellent","brand:wikidata":"Q111103504","brand:zh":"偉倫電腦","brand:zh-Hans":"伟伦电脑","brand:zh-Hant":"偉倫電腦","name":"偉倫電腦 Wellent","name:en":"Wellent","name:zh":"偉倫電腦","name:zh-Hans":"伟伦电脑","name:zh-Hant":"偉倫電腦","shop":"computer"}},"shop/confectionery/bearsandfriends-e5aed3":{"name":"Bears & Friends","locationSet":{"include":["at","cz","de","hk","hr","hu"]},"geometry":["point","area"],"matchScore":2,"terms":["bears & friends"],"tags":{"brand:wikidata":"Q99510345","shop":"confectionery"},"addTags":{"brand":"Bears & Friends","brand:wikidata":"Q99510345","name":"Bears & Friends","shop":"confectionery"}},"shop/convenience/759store-298a73":{"name":"759阿信屋 759 Store","locationSet":{"include":["hk"]},"geometry":["point","area"],"matchScore":2,"terms":["759 store","759阿信屋","759阿信屋 759 store"],"tags":{"brand:wikidata":"Q10846179","shop":"convenience"},"addTags":{"brand":"759阿信屋 759 Store","brand:wikidata":"Q10846179","brand:wikipedia":"en:759 Store","brand:zh":"759阿信屋","brand:zh-Hans":"759阿信屋","brand:zh-Hant":"759阿信屋","name":"759阿信屋 759 Store","name:en":"759 Store","name:zh":"759阿信屋","name:zh-Hans":"759阿信屋","name:zh-Hant":"759阿信屋","shop":"convenience"}},"shop/convenience/circlek-132595":{"name":"OK便利店 Circle K","locationSet":{"include":["hk","mo"]},"geometry":["point","area"],"matchScore":2,"terms":["circle k","ok便利商店","ok便利店","ok便利店 circle k"],"tags":{"brand:wikidata":"Q3268010","shop":"convenience"},"addTags":{"brand":"OK便利店 Circle K","brand:en":"Circle K","brand:wikidata":"Q3268010","brand:wikipedia":"zh:OK便利店","brand:zh":"OK便利店","brand:zh-Hans":"OK便利店","brand:zh-Hant":"OK便利店","name":"OK便利店 Circle K","name:en":"Circle K","name:zh":"OK便利店","name:zh-Hans":"OK便利店","name:zh-Hant":"OK便利店","shop":"convenience"}},"shop/convenience/vango-298a73":{"name":"VanGO","locationSet":{"include":["hk"]},"geometry":["point","area"],"matchScore":2,"terms":["vango"],"tags":{"brand:wikidata":"Q10853203","shop":"convenience"},"addTags":{"brand":"VanGO","brand:en":"VanGO","brand:wikidata":"Q10853203","brand:wikipedia":"zh:VanGO","name":"VanGO","name:en":"VanGO","shop":"convenience"}},"shop/cosmetics/merlenorman-f96c07":{"name":"Merle Norman Cosmetics","locationSet":{"include":["ae","bh","ca","gt","hk","tw","us"]},"geometry":["point","area"],"matchScore":2,"terms":["merle norman cosmetic studio","merle norman cosmetics"],"tags":{"brand:wikidata":"Q104844059","shop":"cosmetics"},"addTags":{"brand":"Merle Norman Cosmetics","brand:wikidata":"Q104844059","brand:wikipedia":"en:Merle Norman Cosmetics","full_name":"Merle Norman Cosmetic Studio","name":"Merle Norman","shop":"cosmetics"}},"shop/deli/vomfass-a3c745":{"name":"vomFASS","locationSet":{"include":["at","be","br","ca","ch","cz","de","dk","es","fr","gb","hk","hr","hu","il","it","jp","lv","mx","my","ph","sg","th","us"]},"geometry":["point","area"],"matchScore":2,"terms":["vomfass"],"tags":{"brand:wikidata":"Q2533008","shop":"deli"},"addTags":{"brand":"vomFASS","brand:wikidata":"Q2533008","brand:wikipedia":"de:Vom Fass","name":"vomFASS","shop":"deli"}},"shop/furniture/chateaudax-c96b56":{"name":"Chateau d'Ax","locationSet":{"include":["ao","be","ca","ch","cn","de","es","fx","gp","hk","hr","it","ma","mq","mt","mu","mz","pt","re","sg","si","tn","tw","us","vn"]},"geometry":["point","area"],"matchScore":2,"terms":["chateau d'ax"],"tags":{"brand:wikidata":"Q100249791","shop":"furniture"},"addTags":{"brand":"Chateau d'Ax","brand:wikidata":"Q100249791","name":"Chateau d'Ax","shop":"furniture"}},"shop/herbalist/euyanseng-7fb5c8":{"name":"Eu Yan Seng","locationSet":{"include":["au","cn","hk","my","sg"]},"geometry":["point","area"],"matchScore":2,"terms":["eu yan seng","余仁生"],"tags":{"brand:wikidata":"Q4207246","shop":"herbalist"},"addTags":{"brand":"Eu Yan Seng","brand:en":"Eu Yan Seng","brand:wikidata":"Q4207246","brand:wikipedia":"en:Eu Yan Sang","brand:zh":"余仁生","name":"Eu Yan Seng","name:en":"Eu Yan Seng","name:zh":"余仁生","shop":"herbalist"}},"shop/jewelry/lukfookjewellery-2f2ea0":{"name":"六福珠寶 LukFook Jewellery","locationSet":{"include":["hk","mo"]},"geometry":["point","area"],"matchScore":2,"terms":["lukfook jewellery","六福","六福珠寶","六福珠寶 lukfook jewellery"],"tags":{"brand:wikidata":"Q10893397","shop":"jewelry"},"addTags":{"brand":"六福珠寶 LukFook Jewellery","brand:en":"LukFook Jewellery","brand:wikidata":"Q10893397","brand:wikipedia":"en:Lukfook","brand:zh":"六福珠寶","brand:zh-Hans":"六福珠宝","brand:zh-Hant":"六福珠寶","name":"六福珠寶 LukFook Jewellery","name:en":"LukFook Jewellery","name:zh":"六福珠寶","name:zh-Hans":"六福珠宝","name:zh-Hant":"六福珠寶","shop":"jewelry"}},"shop/jewelry/chowtaifook-2f2ea0":{"name":"周大福 Chow Tai Fook","locationSet":{"include":["hk","mo"]},"geometry":["point","area"],"matchScore":2,"terms":["chow tai fook","周大福","周大福 chow tai fook"],"tags":{"brand:wikidata":"Q48880993","shop":"jewelry"},"addTags":{"brand":"周大福 Chow Tai Fook","brand:en":"Chow Tai Fook","brand:wikidata":"Q48880993","brand:wikipedia":"en:Chow Tai Fook Jewellery Group","brand:zh":"周大福","brand:zh-Hans":"周大福","brand:zh-Hant":"周大福","name":"周大福 Chow Tai Fook","name:en":"Chow Tai Fook","name:zh":"周大福","name:zh-Hans":"周大福","name:zh-Hant":"周大福","shop":"jewelry"}},"shop/jewelry/chowsangsang-2f2ea0":{"name":"周生生 Chow Sang Sang","locationSet":{"include":["hk","mo"]},"geometry":["point","area"],"matchScore":2,"terms":["chow sang sang","周生生","周生生 chow sang sang"],"tags":{"brand:wikidata":"Q10920877","shop":"jewelry"},"addTags":{"brand":"周生生 Chow Sang Sang","brand:en":"Chow Sang Sang","brand:wikidata":"Q10920877","brand:wikipedia":"en:Chow Sang Sang","brand:zh":"周生生","brand:zh-Hans":"周生生","brand:zh-Hant":"周生生","name":"周生生 Chow Sang Sang","name:en":"Chow Sang Sang","name:zh":"周生生","name:zh-Hans":"周生生","name:zh-Hant":"周生生","shop":"jewelry"}},"shop/jewelry/laofengxiang-2f2ea0":{"name":"老鳳祥銀樓 Lao Feng Xiang Jewellery","locationSet":{"include":["hk","mo"]},"geometry":["point","area"],"matchScore":2,"terms":["lao feng xiang","lao feng xiang jewellery","老鳳祥","老鳳祥銀樓","老鳳祥銀樓 lao feng xiang jewellery"],"tags":{"brand:wikidata":"Q15910313","shop":"jewelry"},"addTags":{"brand":"老鳳祥銀樓 Lao Feng Xiang Jewellery","brand:en":"Lao Feng Xiang Jewellery","brand:wikidata":"Q15910313","brand:wikipedia":"en:Lao Feng Xiang","brand:zh":"老鳳祥銀樓","brand:zh-Hans":"老凤祥银楼","brand:zh-Hant":"老鳳祥銀樓","name":"老鳳祥銀樓 Lao Feng Xiang Jewellery","name:en":"Lao Feng Xiang","name:zh":"老鳳祥銀樓","name:zh-Hans":"老凤祥银楼","name:zh-Hant":"老鳳祥銀樓","shop":"jewelry"}},"shop/jewelry/tsl-2f2ea0":{"name":"謝瑞麟珠寶 TSL Jewellery","locationSet":{"include":["hk","mo"]},"geometry":["point","area"],"matchScore":2,"terms":["tsl","謝瑞麟","謝瑞麟珠寶","謝瑞麟珠寶 tsl jewellery"],"tags":{"brand:wikidata":"Q13164530","shop":"jewelry"},"addTags":{"brand":"謝瑞麟珠寶 TSL Jewellery","brand:en":"TSL","brand:wikidata":"Q13164530","brand:wikipedia":"zh:謝瑞麟珠寶","brand:zh":"謝瑞麟珠寶","brand:zh-Hans":"谢瑞麟珠宝","brand:zh-Hant":"謝瑞麟珠寶","name":"謝瑞麟 TSL","name:en":"TSL","name:zh-Hans":"谢瑞麟","name:zh-Hant":"謝瑞麟","shop":"jewelry"}},"shop/mobile_phone/mi-5c8743":{"name":"小米 Xiaomi","locationSet":{"include":["hk","mo"]},"geometry":["point","area"],"matchScore":2,"terms":["mi","xiaomi","小米","小米 xiaomi","小米之家"],"tags":{"brand:wikidata":"Q1636958","shop":"mobile_phone"},"addTags":{"brand":"小米 Xiaomi","brand:en":"Xiaomi","brand:wikidata":"Q1636958","brand:wikipedia":"zh:小米集團","brand:zh":"小米","name":"小米之家 Mi","name:en":"Mi","name:zh":"小米之家","shop":"mobile_phone"}},"shop/mobile_phone/wilson-55ee4b":{"name":"衛訊 Wilson","locationSet":{"include":["hk"]},"geometry":["point","area"],"matchScore":2,"terms":["wilson","wilson communications","衛訊","衛訊 wilson","衛訊電訊","衛訊電訊 wilson communications"],"tags":{"brand:wikidata":"Q15904465","shop":"mobile_phone"},"addTags":{"brand":"衛訊 Wilson","brand:en":"Wilson","brand:wikidata":"Q15904465","brand:wikipedia":"zh:衛訊電訊","brand:zh":"衛訊","brand:zh-Hans":"卫讯","brand:zh-Hant":"衛訊","name":"衛訊 Wilson","name:en":"Wilson","name:zh":"衛訊","name:zh-Hans":"卫讯","name:zh-Hant":"衛訊","official_name":"衛訊電訊 Wilson Communications","official_name:en":"Wilson Communications","official_name:zh":"衛訊電訊","official_name:zh-Hans":"卫讯电讯","official_name:zh-Hant":"衛訊電訊","shop":"mobile_phone"}},"shop/mobile_phone/citylink-55ee4b":{"name":"領域 CityLink","locationSet":{"include":["hk"]},"geometry":["point","area"],"matchScore":2,"terms":["citylink","citylink electronics","領域","領域 citylink","領域電訊","領域電訊 citylink electronics"],"tags":{"brand:wikidata":"Q15904465","shop":"mobile_phone"},"addTags":{"brand":"領域 CityLink","brand:en":"CityLink","brand:wikidata":"Q15904465","brand:wikipedia":"zh:衛訊電訊","brand:zh":"領域","brand:zh-Hans":"领域","brand:zh-Hant":"領域","name":"領域 CityLink","name:en":"CityLink","name:zh":"領域","name:zh-Hans":"领域","name:zh-Hant":"領域","official_name":"領域電訊 CityLink Electronics","official_name:en":"CityLink Electronics","official_name:zh":"領域電訊","official_name:zh-Hans":"领域电讯","official_name:zh-Hant":"領域電訊","shop":"mobile_phone"}},"shop/musical_instrument/tomlee-77cd7c":{"name":"通利琴行 Tom Lee Music","locationSet":{"include":["hk"]},"geometry":["point","area"],"matchScore":2,"terms":["tom lee","tom lee music","通利","通利琴行","通利琴行 tom lee music"],"tags":{"brand:wikidata":"Q43487","shop":"musical_instrument"},"addTags":{"brand":"通利琴行 Tom Lee Music","brand:en":"Tom Lee Music","brand:wikidata":"Q43487","brand:wikipedia":"zh:通利琴行","brand:zh":"通利琴行","brand:zh-Hans":"通利琴行","brand:zh-Hant":"通利琴行","name":"通利琴行 Tom Lee","name:en":"Tom Lee","name:zh":"通利琴行","name:zh-Hans":"通利琴行","name:zh-Hant":"通利琴行","shop":"musical_instrument"}},"shop/optician/optical88-a3f0f9":{"name":"眼鏡88 Optical 88","locationSet":{"include":["hk"]},"geometry":["point","area"],"matchScore":2,"terms":["optical 88","眼鏡88","眼鏡88 optical 88"],"tags":{"brand:wikidata":"Q7098807","shop":"optician"},"addTags":{"brand":"眼鏡88 Optical 88","brand:en":"Optical 88","brand:wikidata":"Q7098807","brand:wikipedia":"zh:眼鏡88","brand:zh":"眼鏡88","brand:zh-Hans":"眼镜88","brand:zh-Hant":"眼鏡88","name":"眼鏡88 Optical 88","name:en":"Optical 88","name:zh":"眼鏡88","name:zh-Hans":"眼鏡88","name:zh-Hant":"眼鏡88","shop":"optician"}},"shop/sports/gigasports-968672":{"name":"GigaSports","locationSet":{"include":["hk"]},"geometry":["point","area"],"matchScore":2,"terms":["gigasports"],"tags":{"brand:wikidata":"Q111077434","shop":"sports"},"addTags":{"brand":"GigaSports","brand:en":"GigaSports","brand:wikidata":"Q111077434","name":"GigaSports","name:en":"GigaSports","shop":"sports"}},"shop/sports/marathonsports-968672":{"name":"Marathon Sports (Hong Kong)","locationSet":{"include":["hk"]},"geometry":["point","area"],"matchScore":2,"terms":["marathon sports","馬拉松"],"tags":{"brand:wikidata":"Q106798056","shop":"sports"},"addTags":{"brand":"Marathon Sports","brand:en":"Marathon Sports","brand:wikidata":"Q106798056","brand:zh":"馬拉松","brand:zh-Hans":"马拉松","brand:zh-Hant":"馬拉松","name":"馬拉松 Marathon Sports","name:en":"Marathon Sports","name:zh":"馬拉松","name:zh-Hans":"马拉松","name:zh-Hant":"馬拉松","shop":"sports"}},"shop/sports/rapha-e13309":{"name":"Rapha","locationSet":{"include":["au","de","dk","es","gb","hk","jp","kr","nl","tw","us"]},"geometry":["point","area"],"matchScore":2,"terms":["rapha","ラファ"],"tags":{"brand:wikidata":"Q7293931","shop":"sports"},"addTags":{"brand":"Rapha","brand:en":"Rapha","brand:ja":"ラファ","brand:wikidata":"Q7293931","brand:wikipedia":"en:Rapha (sportswear)","name":"Rapha","name:en":"Rapha","name:ja":"ラファ","shop":"sports","sport":"cycling"}},"shop/stationery/smiggle-d7e848":{"name":"Smiggle","locationSet":{"include":["at","gb","hk","ie","my","nz","sg"]},"geometry":["point","area"],"matchScore":2,"terms":["smiggle"],"tags":{"brand:wikidata":"Q7544536","shop":"stationery"},"addTags":{"brand":"Smiggle","brand:wikidata":"Q7544536","brand:wikipedia":"en:Smiggle","name":"Smiggle","shop":"stationery"}},"shop/supermarket/uselect-745f9c":{"name":"U購Select U Select","locationSet":{"include":["hk"]},"geometry":["point","area"],"matchScore":2,"terms":["u select","u購select","u購select u select"],"tags":{"brand:wikidata":"Q22098822","shop":"supermarket"},"addTags":{"brand":"U購Select U Select","brand-zh":"U購Select","brand-zh-Hans":"U购Select","brand-zh-Hant":"U購Select","brand:en":"U Select","brand:wikidata":"Q22098822","brand:wikipedia":"zh:U購Select","name":"U購Select U Select","name:en":"U Select","name:zh":"U購Select","name:zh-Hans":"U购Select","name:zh-Hant":"U購Select","shop":"supermarket"}},"shop/supermarket/wellcome-745f9c":{"name":"惠康 Wellcome","locationSet":{"include":["hk"]},"geometry":["point","area"],"matchScore":2,"terms":["wellcome","惠康","惠康 wellcome"],"tags":{"brand:wikidata":"Q706247","shop":"supermarket"},"addTags":{"brand":"惠康 Wellcome","brand-zh":"惠康","brand-zh-Hans":"惠康","brand-zh-Hant":"惠康","brand:en":"Wellcome","brand:wikidata":"Q706247","brand:wikipedia":"zh:惠康","name":"惠康 Wellcome","name:en":"Wellcome","name:zh":"惠康","name:zh-Hans":"惠康","name:zh-Hant":"惠康","shop":"supermarket"}},"shop/supermarket/parknshop-3601ab":{"name":"百佳超級市場 PARKnSHOP","locationSet":{"include":["hk","mo"]},"geometry":["point","area"],"matchScore":2,"terms":["parknshop","百佳","百佳超級市場 parknshop"],"tags":{"brand:wikidata":"Q7138619","shop":"supermarket"},"addTags":{"brand":"百佳超級市場 PARKnSHOP","brand-zh":"百佳超級市場","brand-zh-Hans":"百佳超級市場","brand-zh-Hant":"百佳超级市场","brand:en":"PARKnSHOP","brand:wikidata":"Q7138619","brand:wikipedia":"zh:百佳超級市場","name":"百佳 PARKnSHOP","name:en":"PARKnSHOP","name:zh":"百佳","name:zh-Hans":"百佳","name:zh-Hant":"百佳","shop":"supermarket"}},"shop/variety_store/dondondonki-717fd7":{"name":"Don Don Donki","locationSet":{"include":["hk","my","sg","th","tw","us-hi"]},"geometry":["point","area"],"matchScore":2,"terms":["don don donki"],"tags":{"brand:wikidata":"Q1185381","shop":"variety_store"},"addTags":{"brand":"Don Don Donki","brand:wikidata":"Q1185381","brand:wikipedia":"en:Don Quijote (store)","name":"Don Don Donki","shop":"variety_store"}},"shop/variety_store/miniso-9d66d0":{"name":"名創優品","locationSet":{"include":["hk","tw"]},"geometry":["point","area"],"matchScore":2,"terms":["miniso","名創優品"],"tags":{"brand:wikidata":"Q20732498","shop":"variety_store"},"addTags":{"brand":"名創優品","brand:en":"Miniso","brand:wikidata":"Q20732498","brand:wikipedia":"zh:名創優品","brand:zh":"名創優品","brand:zh-Hans":"名创优品","brand:zh-Hant":"名創優品","name":"名創優品","name:en":"Miniso","name:zh":"名創優品","name:zh-Hans":"名创优品","name:zh-Hant":"名創優品","shop":"variety_store"}},"tourism/hotel/travelodge-2e0dc6":{"name":"Travelodge (Asia/Oceania)","locationSet":{"include":["au","hk","id","kr","my","nz","sg","th"]},"geometry":["point","area"],"matchScore":2,"terms":["travelodge"],"fields":["name","brand","{tourism/hotel}"],"tags":{"brand:wikidata":"Q24997583","tourism":"hotel"},"addTags":{"brand":"Travelodge","brand:wikidata":"Q24997583","brand:wikipedia":"en:Travelodge Australia","name":"Travelodge","tourism":"hotel"}},"tourism/hotel/mandarinorientalhotel-e68345":{"name":"文華東方酒店集團","locationSet":{"include":["hk","mo","tw"]},"geometry":["point","area"],"matchScore":2,"terms":["mandarin oriental hotel","文華東方酒店集團"],"fields":["name","brand","{tourism/hotel}"],"tags":{"brand:wikidata":"Q1236521","tourism":"hotel"},"addTags":{"brand":"文華東方酒店集團","brand:en":"Mandarin Oriental Hotel","brand:wikidata":"Q1236521","brand:wikipedia":"zh:文華東方酒店集團","brand:zh":"文華東方酒店集團","tourism":"hotel"}},"amenity/hospital/3e5a23-fafb13":{"name":"醫院管理局 Hospital Authority","locationSet":{"include":["hk"]},"geometry":["area","point"],"matchScore":2,"terms":["醫院管理局 hospital authority"],"fields":["name","operator","{amenity/hospital}"],"reference":{"key":"amenity","value":"hospital"},"tags":{"amenity":"hospital","operator:wikidata":"Q5908350"},"addTags":{"amenity":"hospital","healthcare":"hospital","operator":"醫院管理局 Hospital Authority","operator:wikidata":"Q5908350","operator:wikipedia":"zh:醫院管理局"}},"amenity/parking/wilsonparking-1f7225":{"name":"威信停車場","locationSet":{"include":["hk"]},"geometry":["area","point","vertex"],"matchScore":2,"terms":["wilson parking","威信","威信停車場"],"fields":["name","operator","{amenity/parking}"],"tags":{"amenity":"parking","operator:wikidata":"Q28448427"},"addTags":{"amenity":"parking","brand":"威信停車場","brand:en":"Wilson Parking","brand:wikidata":"Q28448427","brand:wikipedia":"zh:威信停車場","brand:zh":"威信停車場","fee":"yes","name":"威信停車場 Wilson Parking","operator":"威信停車場","operator:en":"Wilson Parking","operator:wikidata":"Q28448427","operator:wikipedia":"zh:威信停車場","operator:zh":"威信停車場"}},"amenity/post_box/sfexpress-8ff70a":{"name":"順豐速運 SF Express","locationSet":{"include":["hk"]},"geometry":["point","vertex"],"matchScore":2,"terms":["sf express","順豐快遞","順豐速運","順豐速運 sf express","順豐速遞"],"tags":{"amenity":"post_box","operator:wikidata":"Q7390019"},"addTags":{"amenity":"post_box","brand":"順豐速運 SF Express","brand:en":"SF Express","brand:wikidata":"Q7390019","brand:wikipedia":"zh:顺丰速运","brand:zh":"順豐速運","brand:zh-Hans":"顺丰速运","brand:zh-Hant":"順豐速運","name:en":"SF Express","name:zh":"順豐速運","name:zh-Hans":"顺丰速运","name:zh-Hant":"順豐速運","operator":"順豐速運 SF Express","operator:wikidata":"Q7390019","operator:wikipedia":"zh:顺丰速运"}},"amenity/post_box/hongkongpost-8ff70a":{"name":"香港郵政 Hongkong Post","locationSet":{"include":["hk"]},"geometry":["point","vertex"],"matchScore":2,"terms":["hongkong post","香港郵政","香港郵政 hongkong post"],"tags":{"amenity":"post_box","operator:wikidata":"Q196631"},"addTags":{"amenity":"post_box","operator":"香港郵政 Hongkong Post","operator:en":"Hongkong Post","operator:wikidata":"Q196631","operator:wikipedia":"zh:香港郵政","operator:zh":"香港郵政"}},"amenity/post_office/hongkongpost-c4c3b4":{"name":"香港郵政 Hongkong Post","locationSet":{"include":["hk"]},"geometry":["point","area"],"matchScore":2,"terms":["hongkong post","香港郵政","香港郵政 hongkong post"],"fields":["name","operator","{amenity/post_office}"],"tags":{"amenity":"post_office","operator:wikidata":"Q196631"},"addTags":{"amenity":"post_office","operator":"香港郵政 Hongkong Post","operator:en":"Hongkong Post","operator:wikidata":"Q196631","operator:wikipedia":"zh:香港郵政","operator:zh":"香港郵政"}},"power/generator/chinaresourcespower-413242":{"name":"华润电力控股","locationSet":{"include":["cn","hk"]},"geometry":["point","vertex","area"],"matchScore":2,"terms":["china resources power","华润","华润电力","华润电力控股","华润电力控股集团","润电"],"tags":{"operator:wikidata":"Q748693","power":"generator"},"addTags":{"operator":"华润电力控股","operator:en":"China Resources Power","operator:wikidata":"Q748693","operator:wikipedia":"zh:華潤電力控股","operator:zh":"华润电力控股","power":"generator"}},"power/substation/clp-5df361":{"name":"CLP","locationSet":{"include":["hk"]},"geometry":["area","point"],"matchScore":2,"terms":["clp"],"tags":{"operator:wikidata":"Q977959","power":"substation"},"addTags":{"operator":"CLP","operator:wikidata":"Q977959","operator:wikipedia":"zh:中華電力","power":"substation"}},"power/transformer/clp-25f50a":{"name":"CLP","locationSet":{"include":["hk"]},"geometry":["point","vertex"],"matchScore":2,"terms":["clp"],"tags":{"operator:wikidata":"Q977959","power":"transformer"},"addTags":{"operator":"CLP","operator:wikidata":"Q977959","operator:wikipedia":"zh:中華電力","power":"transformer"}},"public_transport/platform/bus_point/kmb-98750e":{"name":"KMB","locationSet":{"include":["hk"]},"geometry":["point","vertex"],"matchScore":2,"terms":["kmb"],"reference":{"key":"public_transport","value":"platform"},"tags":{"bus":"yes","network:wikidata":"Q312243","public_transport":"platform"},"addTags":{"bus":"yes","highway":"bus_stop","network":"KMB","network:wikidata":"Q312243","network:wikipedia":"zh-yue:九龍巴士","public_transport":"platform"}},"public_transport/platform/bus_point/longwinbus-98750e":{"name":"龍運機場巴士 Long Win Bus","locationSet":{"include":["hk"]},"geometry":["point","vertex"],"matchScore":2,"terms":["lbw","long win bus","龍運機場巴士 long win airport bus","龍運機場巴士 long win bus"],"reference":{"key":"public_transport","value":"platform"},"tags":{"bus":"yes","network:wikidata":"Q6673423","public_transport":"platform"},"addTags":{"bus":"yes","highway":"bus_stop","network":"龍運機場巴士 Long Win Bus","network:en":"Long Win Bus","network:short":"LBW","network:wikidata":"Q6673423","network:wikipedia":"zh-yue:龍運巴士","network:zh-yue":"龍運機場巴士","public_transport":"platform"}},"type/route/bus/kmb-5398e8":{"name":"KMB","locationSet":{"include":["hk"]},"geometry":["relation"],"matchScore":2,"terms":["kmb"],"reference":{"key":"route","value":"bus"},"tags":{"network:wikidata":"Q312243","route":"bus","type":"route"},"addTags":{"network":"KMB","network:wikidata":"Q312243","network:wikipedia":"zh-yue:九龍巴士","route":"bus","type":"route"}},"type/route/bus/longwinbus-5398e8":{"name":"龍運機場巴士 Long Win Bus","locationSet":{"include":["hk"]},"geometry":["relation"],"matchScore":2,"terms":["lbw","long win bus","龍運機場巴士 long win airport bus","龍運機場巴士 long win bus"],"reference":{"key":"route","value":"bus"},"tags":{"network:wikidata":"Q6673423","route":"bus","type":"route"},"addTags":{"network":"龍運機場巴士 Long Win Bus","network:en":"Long Win Bus","network:short":"LBW","network:wikidata":"Q6673423","network:wikipedia":"zh-yue:龍運巴士","network:zh-yue":"龍運機場巴士","route":"bus","type":"route"}},"type/route/light_rail/lightrail-2cb03a":{"name":"輕鐵 Light Rail","locationSet":{"include":["hk"]},"geometry":["relation"],"matchScore":2,"terms":["light rail","mtr corporation","輕鐵","輕鐵 light rail","香港鐵路有限公司","香港鐵路有限公司 mtr corporation"],"reference":{"key":"route","value":"light_rail"},"tags":{"network:wikidata":"Q3083033","route":"light_rail","type":"route"},"addTags":{"network":"輕鐵 Light Rail","network:en":"Light Rail","network:wikidata":"Q3083033","network:wikipedia":"en:Light Rail (MTR)","network:zh":"輕鐵","network:zh-Hans":"轻铁","network:zh-Hant":"輕鐵","operator":"香港鐵路有限公司 MTR Corporation","operator:en":"MTR Corporation","operator:wikidata":"Q1479375","operator:wikipedia":"en:MTR Corporation","operator:zh":"香港鐵路有限公司","operator:zh-Hans":"香港铁路有限公司","operator:zh-Hant":"香港鐵路有限公司","route":"light_rail","type":"route"}},"type/route/subway/mtr-02373c":{"name":"港鐵 MTR","locationSet":{"include":["hk"]},"geometry":["relation"],"matchScore":2,"terms":["mtr","mtr corporation","港鐵","港鐵 mtr","香港鐵路有限公司","香港鐵路有限公司 mtr corporation"],"reference":{"key":"route","value":"subway"},"tags":{"network:wikidata":"Q14751","route":"subway","type":"route"},"addTags":{"network":"港鐵 MTR","network:en":"MTR","network:wikidata":"Q14751","network:wikipedia":"zh:港鐵","network:zh":"港鐵","network:zh-Hans":"港铁","network:zh-Hant":"港鐵","operator":"香港鐵路有限公司 MTR Corporation","operator:en":"MTR Corporation","operator:wikidata":"Q1479375","operator:wikipedia":"zh:港鐵公司","operator:zh":"香港鐵路有限公司","operator:zh-Hans":"香港铁路有限公司","operator:zh-Hant":"香港鐵路有限公司","route":"subway","type":"route"}},"type/route/tram/hongkongtramways-7d5011":{"name":"香港電車 Hong Kong Tramways","locationSet":{"include":["hk"]},"geometry":["relation"],"matchScore":2,"terms":["hong kong tramways","ratp dev transdev asia","香港電車","香港電車 hong kong tramways"],"reference":{"key":"route","value":"tram"},"tags":{"network:wikidata":"Q385245","route":"tram","type":"route"},"addTags":{"network":"香港電車 Hong Kong Tramways","network:en":"Hong Kong Tramways","network:wikidata":"Q385245","network:wikipedia":"en:Hong Kong Tramways","network:zh":"香港電車","network:zh-Hans":"香港电车","network:zh-Hant":"香港電車","operator":"RATP Dev Transdev Asia","operator:wikidata":"Q30642347","operator:wikipedia":"en:RATP Dev Asia","route":"tram","type":"route"}}}