{"amenity/atm/firstnationalbank-571c0f":{"name":"First National Bank (US)","locationSet":{"include":["us-dc","us-md","us-nc","us-oh","us-pa","us-sc","us-va","us-wv"]},"geometry":["point","vertex"],"matchScore":2,"terms":["first national bank","fnb"],"tags":{"amenity":"atm","brand:wikidata":"Q5426765"},"addTags":{"amenity":"atm","brand":"First National Bank","brand:wikidata":"Q5426765","brand:wikipedia":"en:FNB Corporation","name":"First National Bank","operator":"First National Bank","operator:wikidata":"Q5426765","operator:wikipedia":"en:FNB Corporation"}},"amenity/atm/pinnaclebank-849a40":{"name":"Pinnacle Bank (US Southeast)","locationSet":{"include":["us-al","us-ga","us-nc","us-sc","us-tn","us-wv"]},"geometry":["point","vertex"],"matchScore":2,"terms":["pinnacle bank","pinnacle financial partners"],"tags":{"amenity":"atm","brand:wikidata":"Q7196294"},"addTags":{"amenity":"atm","brand":"Pinnacle Bank","brand:wikidata":"Q7196294","brand:wikipedia":"en:Pinnacle Financial Partners","name":"Pinnacle Bank","official_name":"Pinnacle Financial Partners","operator":"Pinnacle Bank","operator:wikidata":"Q7196294","operator:wikipedia":"en:Pinnacle Financial Partners"}},"amenity/atm/selfhelpcreditunion-f893c2":{"name":"Self-Help Credit Union","locationSet":{"include":["us-fl","us-nc","us-sc","us-va"]},"geometry":["point","vertex"],"matchScore":2,"terms":["self-help credit union"],"tags":{"amenity":"atm","brand:wikidata":"Q111381769"},"addTags":{"amenity":"atm","brand":"Self-Help Credit Union","brand:wikidata":"Q111381769","name":"Self-Help Credit Union","operator":"Self-Help Credit Union","operator:wikidata":"Q111381769"}},"amenity/atm/unitedbank-b1562d":{"name":"United Bank (West Virginia)","locationSet":{"include":["us-dc","us-md","us-nc","us-pa","us-sc","us-va","us-wv"]},"geometry":["point","vertex"],"matchScore":2,"terms":["united bank"],"tags":{"amenity":"atm","brand:wikidata":"Q16920636"},"addTags":{"amenity":"atm","brand":"United Bank","brand:wikidata":"Q16920636","brand:wikipedia":"en:United Bank (West Virginia)","name":"United Bank","operator":"United Bank","operator:wikidata":"Q16920636","operator:wikipedia":"en:United Bank (West Virginia)"}},"amenity/bank/firstnationalbank-fdc31a":{"name":"First National Bank (US)","locationSet":{"include":["us-dc","us-md","us-nc","us-oh","us-pa","us-sc","us-va","us-wv"]},"geometry":["point","area"],"matchScore":2,"terms":["first national bank","fnb"],"tags":{"amenity":"bank","brand:wikidata":"Q5426765"},"addTags":{"amenity":"bank","brand":"First National Bank","brand:wikidata":"Q5426765","brand:wikipedia":"en:FNB Corporation","name":"First National Bank"}},"amenity/bank/pinnaclebank-1187bc":{"name":"Pinnacle Bank (US Southeast)","locationSet":{"include":["us-al","us-ga","us-nc","us-sc","us-tn","us-wv"]},"geometry":["point","area"],"matchScore":2,"terms":["pinnacle bank","pinnacle financial partners"],"tags":{"amenity":"bank","brand:wikidata":"Q7196294"},"addTags":{"amenity":"bank","brand":"Pinnacle Bank","brand:wikidata":"Q7196294","brand:wikipedia":"en:Pinnacle Financial Partners","name":"Pinnacle Bank","official_name":"Pinnacle Financial Partners"}},"amenity/bank/selfhelpcreditunion-2b62fb":{"name":"Self-Help Credit Union","locationSet":{"include":["us-fl","us-nc","us-sc","us-va"]},"geometry":["point","area"],"matchScore":2,"terms":["self-help credit union"],"tags":{"amenity":"bank","brand:wikidata":"Q111381769"},"addTags":{"amenity":"bank","brand":"Self-Help Credit Union","brand:wikidata":"Q111381769","name":"Self-Help Credit Union"}},"amenity/bank/unitedbank-d6a32a":{"name":"United Bank (West Virginia)","locationSet":{"include":["us-dc","us-md","us-nc","us-pa","us-sc","us-va","us-wv"]},"geometry":["point","area"],"matchScore":2,"terms":["united bank"],"tags":{"amenity":"bank","brand:wikidata":"Q16920636"},"addTags":{"amenity":"bank","brand":"United Bank","brand:wikidata":"Q16920636","brand:wikipedia":"en:United Bank (West Virginia)","name":"United Bank"}},"amenity/clinic/gohealthurgentcare-610c16":{"name":"Novant-GoHealth Urgent Care","locationSet":{"include":["us-ga","us-nc","us-sc","us-va"]},"geometry":["point","area"],"matchScore":2,"terms":["gohealth urgent care","novant health"],"reference":{"key":"amenity","value":"clinic"},"tags":{"amenity":"clinic","brand:wikidata":"Q110282081"},"addTags":{"amenity":"clinic","brand":"GoHealth Urgent Care","brand:wikidata":"Q110282081","healthcare":"clinic","operator":"Novant Health","operator:wikidata":"Q14956815","operator:wikipedia":"en:Novant Health"}},"amenity/fuel/sheetz-7c9a51":{"name":"Sheetz","locationSet":{"include":["us-md","us-nc","us-oh","us-pa","us-va","us-wv"]},"geometry":["point","area"],"matchScore":2,"terms":["sheetz"],"fields":["name","brand","{amenity/fuel}"],"tags":{"amenity":"fuel","brand:wikidata":"Q7492551"},"addTags":{"amenity":"fuel","brand":"Sheetz","brand:wikidata":"Q7492551","brand:wikipedia":"en:Sheetz","name":"Sheetz"}},"amenity/ice_cream/jenissplendidicecreams-53b2e0":{"name":"Jeni's Splendid Ice Cream","locationSet":{"include":["us-al","us-ca","us-dc","us-fl","us-ga","us-il","us-mo","us-nc","us-oh","us-pa","us-sc","us-tn","us-tx"]},"geometry":["point","area"],"matchScore":2,"terms":["jeni's","jeni's splendid ice creams"],"tags":{"amenity":"ice_cream","brand:wikidata":"Q16851196"},"addTags":{"amenity":"ice_cream","brand":"Jeni's Splendid Ice Creams","brand:wikidata":"Q16851196","brand:wikipedia":"en:Jeni's Splendid Ice Creams","name":"Jeni's Splendid Ice Creams","short_name":"Jeni's"}},"amenity/restaurant/snooze-62450c":{"name":"Snooze","locationSet":{"include":["us-az","us-ca","us-co","us-ga","us-ks","us-mo","us-nc","us-tn","us-tx"]},"geometry":["point","area"],"matchScore":2,"terms":["snooze"],"tags":{"amenity":"restaurant","brand:wikidata":"Q111304345"},"addTags":{"amenity":"restaurant","brand":"Snooze","brand:wikidata":"Q111304345","cuisine":"breakfast","name":"Snooze"}},"shop/convenience/sheetz-ab596a":{"name":"Sheetz","locationSet":{"include":["us-md","us-nc","us-oh","us-pa","us-va","us-wv"]},"geometry":["point","area"],"matchScore":2,"terms":["sheetz"],"tags":{"brand:wikidata":"Q7492551","shop":"convenience"},"addTags":{"brand":"Sheetz","brand:wikidata":"Q7492551","brand:wikipedia":"en:Sheetz","name":"Sheetz","shop":"convenience"}},"shop/hairdresser/imagestudios-0d42d5":{"name":"Image Studios","locationSet":{"include":["us-ca","us-co","us-fl","us-ga","us-ky","us-mo","us-nc","us-nj","us-nv","us-ny","us-oh","us-or","us-sc","us-tn","us-tx","us-ut"]},"geometry":["point","area"],"matchScore":2,"terms":["image studios"],"tags":{"brand:wikidata":"Q110998819","shop":"hairdresser"},"addTags":{"brand":"Image Studios","brand:wikidata":"Q110998819","name":"Image Studios","shop":"hairdresser"}},"amenity/police/northcarolinastatehighwaypatrol-eadf83":{"name":"North Carolina State Highway Patrol","locationSet":{"include":["us-nc"]},"geometry":["point","area"],"matchScore":2,"terms":["nchp","ncshp","north carolina highway patrol","north carolina state highway patrol"],"tags":{"amenity":"police","operator:wikidata":"Q7054606"},"addTags":{"amenity":"police","operator":"North Carolina State Highway Patrol","operator:short":"NCSHP","operator:wikidata":"Q7054606","operator:wikipedia":"en:North Carolina State Highway Patrol"}},"amenity/school/cabarruscountyschools-15bd72":{"name":"Cabarrus County Schools","locationSet":{"include":["us-nc"]},"geometry":["area","point"],"matchScore":2,"terms":["cabarrus county schools"],"tags":{"amenity":"school","operator:wikidata":"Q5015260"},"addTags":{"amenity":"school","operator":"Cabarrus County Schools","operator:wikidata":"Q5015260","operator:wikipedia":"en:Cabarrus County Schools"}},"amenity/school/catawbacountyschools-15bd72":{"name":"Catawba County Schools","locationSet":{"include":["us-nc"]},"geometry":["area","point"],"matchScore":2,"terms":["catawba county schools"],"tags":{"amenity":"school","operator:wikidata":"Q5051594"},"addTags":{"amenity":"school","operator":"Catawba County Schools","operator:type":"public","operator:wikidata":"Q5051594","operator:wikipedia":"en:Catawba County Schools"}},"amenity/school/charlottemecklenburgschools-15bd72":{"name":"Charlotte-Mecklenburg Schools","locationSet":{"include":["us-nc"]},"geometry":["area","point"],"matchScore":2,"terms":["charlotte-mecklenburg schools","cms"],"tags":{"amenity":"school","operator:wikidata":"Q2944229"},"addTags":{"amenity":"school","operator":"Charlotte-Mecklenburg Schools","operator:type":"public","operator:wikidata":"Q2944229","operator:wikipedia":"en:Charlotte-Mecklenburg Schools","opreator:short":"CMS"}},"amenity/school/cherokeecountyschools-15bd72":{"name":"Cherokee County Schools (North Carolina)","locationSet":{"include":["us-nc"]},"geometry":["area","point"],"matchScore":2,"terms":["cherokee county schools"],"tags":{"amenity":"school","operator:wikidata":"Q5092142"},"addTags":{"amenity":"school","operator":"Cherokee County Schools","operator:type":"public","operator:wikidata":"Q5092142","operator:wikipedia":"en:Cherokee County Schools (North Carolina)"}},"amenity/school/durhampublicschools-15bd72":{"name":"Durham Public Schools","locationSet":{"include":["us-nc"]},"geometry":["area","point"],"matchScore":2,"terms":["dps","durham public schools"],"tags":{"amenity":"school","operator:wikidata":"Q5316544"},"addTags":{"amenity":"school","operator":"Durham Public Schools","operator:short":"DPS","operator:type":"public","operator:wikidata":"Q5316544","operator:wikipedia":"en:Durham Public Schools"}},"amenity/school/unioncountypublicschools-15bd72":{"name":"Union County Public Schools (North Carolina)","locationSet":{"include":["us-nc"]},"geometry":["area","point"],"matchScore":2,"terms":["ucps","union county public schools"],"tags":{"amenity":"school","operator:wikidata":"Q111337620"},"addTags":{"amenity":"school","operator":"Union County Public Schools","operator:short":"UCPS","operator:type":"public","operator:wikidata":"Q111337620"}},"amenity/school/wakecountypublicschoolsystem-15bd72":{"name":"Wake County Public School System","locationSet":{"include":["us-nc"]},"geometry":["area","point"],"matchScore":2,"terms":["q7960902","wake county public school system"],"tags":{"amenity":"school","operator:wikidata":"Q7973919"},"addTags":{"amenity":"school","operator":"Wake County Public School System","operator:short":"Q7960902","operator:type":"public","operator:wikidata":"Q7973919","operator:wikipedia":"en:Waterbury Public Schools"}},"leisure/nature_reserve/durhamparksandrecreation-b9a958":{"name":"DPR","locationSet":{"include":["us-nc"]},"geometry":["area","point"],"matchScore":2,"terms":["dpr","durham parks & recreation"],"tags":{"leisure":"nature_reserve","operator:wikidata":"Q110064011"},"addTags":{"leisure":"nature_reserve","operator":"Durham Parks & Recreation","operator:short":"DPR","operator:type":"public","operator:wikidata":"Q110064011"}},"leisure/nature_reserve/northcarolinadivisionofparksandrecreation-b9a958":{"name":"North Carolina State Parks","locationSet":{"include":["us-nc"]},"geometry":["area","point"],"matchScore":2,"terms":["ncdpr","north carolina division of parks and recreation","north carolina state parks"],"tags":{"leisure":"nature_reserve","operator:wikidata":"Q109328529"},"addTags":{"leisure":"nature_reserve","operator":"North Carolina Division of Parks and Recreation","operator:short":"NCDPR","operator:type":"public","operator:wikidata":"Q109328529"}},"leisure/park/durhamparksandrecreation-dc7d2a":{"name":"DPR","locationSet":{"include":["us-nc"]},"geometry":["area","point"],"matchScore":2,"terms":["dpr","durham parks & recreation"],"tags":{"leisure":"park","operator:wikidata":"Q110064011"},"addTags":{"leisure":"park","operator":"Durham Parks & Recreation","operator:short":"DPR","operator:type":"public","operator:wikidata":"Q110064011"}},"leisure/park/northcarolinadivisionofparksandrecreation-dc7d2a":{"name":"North Carolina State Parks","locationSet":{"include":["us-nc"]},"geometry":["area","point"],"matchScore":2,"terms":["ncdpr","north carolina division of parks and recreation","north carolina state parks"],"tags":{"leisure":"park","operator:wikidata":"Q109328529"},"addTags":{"leisure":"park","operator":"North Carolina Division of Parks and Recreation","operator:short":"NCDPR","operator:type":"public","operator:wikidata":"Q109328529"}},"office/government/northcarolinadivisionofmotorvehicles-d24a87":{"name":"North Carolina DMV","locationSet":{"include":["us-nc"]},"geometry":["point","area"],"matchScore":2,"terms":["dmv","north carolina division of motor vehicles","north carolina dmv"],"tags":{"office":"government","operator:wikidata":"Q7054481"},"addTags":{"government":"transportation","office":"government","operator":"North Carolina Division of Motor Vehicles","operator:short":"North Carolina DMV","operator:wikidata":"Q7054481","operator:wikipedia":"en:North Carolina Division of Motor Vehicles"}}}