{"amenity/atm/banquenationale-de364b":{"name":"Banque Nationale","locationSet":{"include":["ca-qc"]},"geometry":["point","vertex"],"matchScore":2,"terms":["banque nationale","banque nationale du canada","national bank","national bank of canada"],"tags":{"amenity":"atm","brand:wikidata":"Q634298"},"addTags":{"amenity":"atm","brand":"Banque Nationale","brand:en":"National Bank","brand:fr":"Banque Nationale","brand:wikidata":"Q634298","name":"Banque Nationale","name:en":"National Bank","name:fr":"Banque Nationale","official_name":"Banque Nationale du Canada","official_name:en":"National Bank of Canada","official_name:fr":"Banque Nationale du Canada","operator":"Banque Nationale","operator:wikidata":"Q634298"}},"amenity/bank/banquenationale-ff5d57":{"name":"Banque Nationale","locationSet":{"include":["ca-qc"]},"geometry":["point","area"],"matchScore":2,"terms":["banque nationale","banque nationale du canada","national bank","national bank of canada"],"tags":{"amenity":"bank","brand:wikidata":"Q634298"},"addTags":{"amenity":"bank","brand":"Banque Nationale","brand:en":"National Bank","brand:fr":"Banque Nationale","brand:wikidata":"Q634298","name":"Banque Nationale","name:en":"National Bank","name:fr":"Banque Nationale","official_name":"Banque Nationale du Canada","official_name:en":"National Bank of Canada","official_name:fr":"Banque Nationale du Canada"}},"amenity/fast_food/chicken/pfk-32490c":{"name":"PFK","locationSet":{"include":["ca-qc"]},"geometry":["point","area"],"matchScore":2,"terms":["kentucky fried chicken","kfc","poulet frit kentucky"],"reference":{"key":"cuisine","value":"chicken"},"tags":{"amenity":"fast_food","brand:wikidata":"Q524757","cuisine":"chicken"},"addTags":{"alt_name":"Poulet Frit Kentucky","amenity":"fast_food","brand":"KFC","brand:wikidata":"Q524757","cuisine":"chicken","name":"PFK","takeaway":"yes"}},"amenity/restaurant/cora-71aa4c":{"name":"Cora (Quebec)","locationSet":{"include":["ca-qc"]},"geometry":["point","area"],"matchScore":2,"terms":["cora"],"tags":{"amenity":"restaurant","brand:wikidata":"Q2996960"},"addTags":{"amenity":"restaurant","brand":"Cora","brand:wikidata":"Q2996960","cuisine":"breakfast","name":"Cora"}},"shop/alcohol/saqexpress-ebcba4":{"name":"SAQ Express","locationSet":{"include":["ca-qc"]},"geometry":["point","area"],"matchScore":2,"terms":["saq express"],"tags":{"brand:wikidata":"Q3488077","shop":"alcohol"},"addTags":{"brand":"SAQ Express","brand:wikidata":"Q3488077","name":"SAQ Express","shop":"alcohol"}},"shop/alcohol/saqselection-ebcba4":{"name":"SAQ Sélection","locationSet":{"include":["ca-qc"]},"geometry":["point","area"],"matchScore":2,"terms":["saq sélection"],"tags":{"brand:wikidata":"Q3488077","shop":"alcohol"},"addTags":{"brand":"SAQ Sélection","brand:wikidata":"Q3488077","name":"SAQ Sélection","shop":"alcohol"}},"shop/clothes/lequipeur-36b8ca":{"name":"L'Équipeur","locationSet":{"include":["ca-qc"]},"geometry":["point","area"],"matchScore":2,"terms":["l'équipeur","mark's"],"tags":{"brand:wikidata":"Q6766373","shop":"clothes"},"addTags":{"brand":"L'Équipeur","brand:wikidata":"Q6766373","name":"L'Équipeur","shop":"clothes"}},"shop/stationery/bureauengros-0e3c23":{"name":"Bureau en Gros","locationSet":{"include":["ca-qc"]},"geometry":["point","area"],"matchScore":2,"terms":["staples"],"tags":{"brand:wikidata":"Q17149420","shop":"stationery"},"addTags":{"brand":"Staples","brand:wikidata":"Q17149420","name":"Bureau en Gros","shop":"stationery"}},"shop/supermarket/metro-e1427b":{"name":"Metro (Quebec)","locationSet":{"include":["ca-qc"]},"geometry":["point","area"],"matchScore":2,"terms":["metro"],"tags":{"brand:wikidata":"Q1145669","shop":"supermarket"},"addTags":{"brand":"Metro","brand:wikidata":"Q1145669","name":"Metro","shop":"supermarket"}},"shop/trade/toromontcat-321e1f":{"name":"Toromont CAT","locationSet":{"include":["ca-mb","ca-nb","ca-nl","ca-ns","ca-nu","ca-on","ca-pe","ca-qc"]},"geometry":["point","area"],"matchScore":2,"terms":["toromont cat"],"tags":{"brand:wikidata":"Q109619691","shop":"trade"},"addTags":{"brand":"Toromont CAT","brand:wikidata":"Q109619691","name":"Toromont CAT","shop":"trade","trade":"construction_equipment"}},"amenity/police/sureteduquebec-abba03":{"name":"Sûreté du Québec","locationSet":{"include":["ca-qc"]},"geometry":["point","area"],"matchScore":2,"terms":["sq","sûreté du québec"],"tags":{"amenity":"police","operator:wikidata":"Q2915034"},"addTags":{"amenity":"police","operator":"Sûreté du Québec","operator:short":"SQ","operator:wikidata":"Q2915034"}},"amenity/post_box/postescanada-2241ae":{"name":"Postes Canada","locationSet":{"include":["ca-qc"]},"geometry":["point","vertex"],"matchScore":2,"terms":["canada post/ poste canada","poste canada","postes canada"],"tags":{"amenity":"post_box","operator:wikidata":"Q1032001"},"addTags":{"amenity":"post_box","operator":"Postes Canada","operator:wikidata":"Q1032001"}},"amenity/post_office/postescanada-525cac":{"name":"Postes Canada","locationSet":{"include":["ca-qc"]},"geometry":["point","area"],"matchScore":2,"terms":["canada post/ poste canada","poste canada","postes canada"],"fields":["name","operator","{amenity/post_office}"],"tags":{"amenity":"post_office","operator:wikidata":"Q1032001"},"addTags":{"amenity":"post_office","operator":"Postes Canada","operator:wikidata":"Q1032001"}},"amenity/school/centredeservicesscolairedelacapitale-d1e97c":{"name":"Centre de services scolaire de la Capitale","locationSet":{"include":["ca-qc"]},"geometry":["area","point"],"matchScore":2,"terms":["centre de services scolaire de la capitale"],"tags":{"amenity":"school","operator:wikidata":"Q104842688"},"addTags":{"amenity":"school","operator":"Centre de services scolaire de la Capitale","operator:type":"public","operator:wikidata":"Q104842688"}},"amenity/school/centredeservicesscolairedelaregiondesherbrooke-d1e97c":{"name":"Centre de services scolaire de la Région-de-Sherbrooke","locationSet":{"include":["ca-qc"]},"geometry":["area","point"],"matchScore":2,"terms":["centre de services scolaire de la région-de-sherbrooke"],"tags":{"amenity":"school","operator:wikidata":"Q104841572"},"addTags":{"amenity":"school","operator":"Centre de services scolaire de la Région-de-Sherbrooke","operator:type":"public","operator:wikidata":"Q104841572"}},"amenity/school/centredeservicesscolairedemontreal-d1e97c":{"name":"Centre de services scolaire de Montréal","locationSet":{"include":["ca-qc"]},"geometry":["area","point"],"matchScore":2,"terms":["centre de services scolaire de montréal"],"tags":{"amenity":"school","operator:wikidata":"Q98734381"},"addTags":{"amenity":"school","operator":"Centre de services scolaire de Montréal","operator:type":"public","operator:wikidata":"Q98734381"}},"amenity/school/centredeservicesscolairedesdraveurs-d1e97c":{"name":"Centre de services scolaire des Draveurs","locationSet":{"include":["ca-qc"]},"geometry":["area","point"],"matchScore":2,"terms":["centre de services scolaire des draveurs"],"tags":{"amenity":"school","operator:wikidata":"Q104840912"},"addTags":{"amenity":"school","operator":"Centre de services scolaire des Draveurs","operator:type":"public","operator:wikidata":"Q104840912"}},"amenity/school/commissionscolairedelacapitale-d1e97c":{"name":"Commission scolaire de la Capitale","locationSet":{"include":["ca-qc"]},"geometry":["area","point"],"matchScore":2,"terms":["commission scolaire de la capitale"],"tags":{"amenity":"school","operator:wikidata":"Q2986747"},"addTags":{"amenity":"school","operator":"Commission scolaire de la Capitale","operator:type":"public","operator:wikidata":"Q2986747"}},"amenity/school/commissionscolairedelaregiondesherbrooke-d1e97c":{"name":"Commission scolaire de la Région-de-Sherbrooke","locationSet":{"include":["ca-qc"]},"geometry":["area","point"],"matchScore":2,"terms":["commission scolaire de la région-de-sherbrooke"],"tags":{"amenity":"school","operator:wikidata":"Q5152771"},"addTags":{"amenity":"school","operator":"Commission scolaire de la Région-de-Sherbrooke","operator:type":"public","operator:wikidata":"Q5152771"}},"amenity/school/commissionscolairedemontreal-d1e97c":{"name":"Commission scolaire de Montréal","locationSet":{"include":["ca-qc"]},"geometry":["area","point"],"matchScore":2,"terms":["commission scolaire de montréal"],"tags":{"amenity":"school","operator:wikidata":"Q970756"},"addTags":{"amenity":"school","operator":"Commission scolaire de Montréal","operator:type":"public","operator:wikidata":"Q970756"}},"amenity/school/commissionscolairedesdraveurs-d1e97c":{"name":"Commission scolaire des Draveurs","locationSet":{"include":["ca-qc"]},"geometry":["area","point"],"matchScore":2,"terms":["commission scolaire des draveurs"],"tags":{"amenity":"school","operator:wikidata":"Q5152629"},"addTags":{"amenity":"school","operator":"Commission scolaire des Draveurs","operator:type":"public","operator:wikidata":"Q5152629"}},"leisure/nature_reserve/villedenicolet-9bd80d":{"name":"Ville de Nicolet","locationSet":{"include":["ca-qc"]},"geometry":["area","point"],"matchScore":2,"terms":["ville de nicolet"],"tags":{"leisure":"nature_reserve","operator:wikidata":"Q141595"},"addTags":{"leisure":"nature_reserve","operator":"Ville de Nicolet","operator:type":"public","operator:wikidata":"Q141595"}},"leisure/park/villedenicolet-8d83b2":{"name":"Ville de Nicolet","locationSet":{"include":["ca-qc"]},"geometry":["area","point"],"matchScore":2,"terms":["ville de nicolet"],"tags":{"leisure":"park","operator:wikidata":"Q141595"},"addTags":{"leisure":"park","operator":"Ville de Nicolet","operator:type":"public","operator:wikidata":"Q141595"}},"power/generator/hydroquebec-e9c9aa":{"name":"Hydro-Québec","locationSet":{"include":["ca-qc"]},"geometry":["point","vertex","area"],"matchScore":2,"terms":["hydro-québec"],"tags":{"operator:wikidata":"Q167840","power":"generator"},"addTags":{"operator":"Hydro-Québec","operator:wikidata":"Q167840","power":"generator"}},"power/line/hydroquebec-f669fe":{"name":"Hydro-Québec","locationSet":{"include":["ca-qc"]},"geometry":["line"],"matchScore":2,"terms":["hydro-québec"],"tags":{"operator:wikidata":"Q167840","power":"line"},"addTags":{"operator":"Hydro-Québec","operator:wikidata":"Q167840","power":"line"}},"power/minor_line/hydroquebec-8a4c04":{"name":"Hydro-Québec","locationSet":{"include":["ca-qc"]},"geometry":["line"],"matchScore":2,"terms":["hydro-québec"],"tags":{"operator:wikidata":"Q167840","power":"minor_line"},"addTags":{"operator":"Hydro-Québec","operator:wikidata":"Q167840","power":"minor_line"}},"power/plant/hydroquebec-ca99a3":{"name":"Hydro-Québec","locationSet":{"include":["ca-qc"]},"geometry":["area"],"matchScore":2,"terms":["hydro-québec"],"tags":{"operator:wikidata":"Q167840","power":"plant"},"addTags":{"operator":"Hydro-Québec","operator:wikidata":"Q167840","power":"plant"}},"power/pole/hydroquebec-8e54ec":{"name":"Hydro-Québec","locationSet":{"include":["ca-qc"]},"geometry":["point","vertex"],"matchScore":2,"terms":["hydro-québec"],"tags":{"operator:wikidata":"Q167840","power":"pole"},"addTags":{"operator":"Hydro-Québec","operator:wikidata":"Q167840","power":"pole"}},"power/substation/hydroquebec-72b7fb":{"name":"Hydro-Québec","locationSet":{"include":["ca-qc"]},"geometry":["area","point"],"matchScore":2,"terms":["hydro-québec"],"tags":{"operator:wikidata":"Q167840","power":"substation"},"addTags":{"operator":"Hydro-Québec","operator:wikidata":"Q167840","power":"substation"}},"power/tower/hydroquebec-e95ba8":{"name":"Hydro-Québec","locationSet":{"include":["ca-qc"]},"geometry":["point","vertex"],"matchScore":2,"terms":["hydro-québec"],"tags":{"operator:wikidata":"Q167840","power":"tower"},"addTags":{"operator":"Hydro-Québec","operator:wikidata":"Q167840","power":"tower"}},"power/transformer/hydroquebec-40df57":{"name":"Hydro-Québec","locationSet":{"include":["ca-qc"]},"geometry":["point","vertex"],"matchScore":2,"terms":["hydro-québec"],"tags":{"operator:wikidata":"Q167840","power":"transformer"},"addTags":{"operator":"Hydro-Québec","operator:wikidata":"Q167840","power":"transformer"}},"public_transport/station_ferry/societedestraversiersduquebec-354a4f":{"name":"Société des traversiers du Québec","locationSet":{"include":["ca-qc"]},"geometry":["vertex","point","area"],"matchScore":2,"terms":["société des traversiers du québec","stq"],"reference":{"key":"amenity","value":"ferry_terminal"},"tags":{"ferry":"yes","network:wikidata":"Q3488207","public_transport":"station"},"addTags":{"amenity":"ferry_terminal","ferry":"yes","network":"Société des traversiers du Québec","network:short":"STQ","network:wikidata":"Q3488207","public_transport":"station"}},"public_transport/platform/bus_point/exochamblyrichelieucarignan-000aa0":{"name":"exo-Chambly-Richelieu-Carignan","locationSet":{"include":["ca-qc"]},"geometry":["point","vertex"],"matchScore":2,"terms":["exo-chambly-richelieu-carignan"],"reference":{"key":"public_transport","value":"platform"},"tags":{"bus":"yes","network:wikidata":"Q5011933","public_transport":"platform"},"addTags":{"bus":"yes","highway":"bus_stop","network":"exo-Chambly-Richelieu-Carignan","network:wikidata":"Q5011933","public_transport":"platform"}},"public_transport/platform/bus_point/exolassomption-000aa0":{"name":"exo-L'Assomption","locationSet":{"include":["ca-qc"]},"geometry":["point","vertex"],"matchScore":2,"terms":["exo-l'assomption"],"reference":{"key":"public_transport","value":"platform"},"tags":{"bus":"yes","network:wikidata":"Q55596812","public_transport":"platform"},"addTags":{"bus":"yes","highway":"bus_stop","network":"exo-L'Assomption","network:wikidata":"Q55596812","public_transport":"platform"}},"public_transport/platform/bus_point/exolapresquile-000aa0":{"name":"exo-La Presqu'île","locationSet":{"include":["ca-qc"]},"geometry":["point","vertex"],"matchScore":2,"terms":["exo-la presqu'île"],"reference":{"key":"public_transport","value":"platform"},"tags":{"bus":"yes","network:wikidata":"Q4801810","public_transport":"platform"},"addTags":{"bus":"yes","highway":"bus_stop","network":"exo-La Presqu'île","network:wikidata":"Q4801810","public_transport":"platform"}},"public_transport/platform/bus_point/exolaurentides-000aa0":{"name":"exo-Laurentides","locationSet":{"include":["ca-qc"]},"geometry":["point","vertex"],"matchScore":2,"terms":["exo-laurentides"],"reference":{"key":"public_transport","value":"platform"},"tags":{"bus":"yes","network:wikidata":"Q2994089","public_transport":"platform"},"addTags":{"bus":"yes","highway":"bus_stop","network":"exo-Laurentides","network:wikidata":"Q2994089","public_transport":"platform"}},"public_transport/platform/bus_point/exolerichelain-000aa0":{"name":"exo-Le Richelain","locationSet":{"include":["ca-qc"]},"geometry":["point","vertex"],"matchScore":2,"terms":["exo-le richelain"],"reference":{"key":"public_transport","value":"platform"},"tags":{"bus":"yes","network:wikidata":"Q2994087","public_transport":"platform"},"addTags":{"bus":"yes","highway":"bus_stop","network":"exo-Le Richelain","network:wikidata":"Q2994087","public_transport":"platform"}},"public_transport/platform/bus_point/exorousillon-000aa0":{"name":"exo-Rousillon","locationSet":{"include":["ca-qc"]},"geometry":["point","vertex"],"matchScore":2,"terms":["exo-rousillon"],"reference":{"key":"public_transport","value":"platform"},"tags":{"bus":"yes","network:wikidata":"Q2994090","public_transport":"platform"},"addTags":{"bus":"yes","highway":"bus_stop","network":"exo-Rousillon","network:wikidata":"Q2994090","public_transport":"platform"}},"public_transport/platform/bus_point/exosaintejulie-000aa0":{"name":"exo-Sainte-Julie","locationSet":{"include":["ca-qc"]},"geometry":["point","vertex"],"matchScore":2,"terms":["exo-sainte-julie"],"reference":{"key":"public_transport","value":"platform"},"tags":{"bus":"yes","network:wikidata":"Q55611277","public_transport":"platform"},"addTags":{"bus":"yes","highway":"bus_stop","network":"exo-Sainte-Julie","network:wikidata":"Q55611277","public_transport":"platform"}},"public_transport/platform/bus_point/exosorelvarennes-000aa0":{"name":"exo-Sorel-Varennes","locationSet":{"include":["ca-qc"]},"geometry":["point","vertex"],"matchScore":2,"terms":["exo-sorel-varennes"],"reference":{"key":"public_transport","value":"platform"},"tags":{"bus":"yes","network:wikidata":"Q5011938","public_transport":"platform"},"addTags":{"bus":"yes","highway":"bus_stop","network":"exo-Sorel-Varennes","network:wikidata":"Q5011938","public_transport":"platform"}},"public_transport/platform/bus_point/exosudouest-000aa0":{"name":"exo-Sud-Ouest","locationSet":{"include":["ca-qc"]},"geometry":["point","vertex"],"matchScore":2,"terms":["exo-sud-ouest"],"reference":{"key":"public_transport","value":"platform"},"tags":{"bus":"yes","network:wikidata":"Q2994092","public_transport":"platform"},"addTags":{"bus":"yes","highway":"bus_stop","network":"exo-Sud-Ouest","network:wikidata":"Q2994092","public_transport":"platform"}},"public_transport/platform/bus_point/exoterrebonnemascouche-000aa0":{"name":"exo-Terrebonne-Mascouche","locationSet":{"include":["ca-qc"]},"geometry":["point","vertex"],"matchScore":2,"terms":["exo-terrebonne-mascouche"],"reference":{"key":"public_transport","value":"platform"},"tags":{"bus":"yes","network:wikidata":"Q55596813","public_transport":"platform"},"addTags":{"bus":"yes","highway":"bus_stop","network":"exo-Terrebonne-Mascouche","network:wikidata":"Q55596813","public_transport":"platform"}},"public_transport/platform/bus_point/exovalleedurichelieu-000aa0":{"name":"exo-Vallée du Richelieu","locationSet":{"include":["ca-qc"]},"geometry":["point","vertex"],"matchScore":2,"terms":["exo-vallée du richelieu"],"reference":{"key":"public_transport","value":"platform"},"tags":{"bus":"yes","network:wikidata":"Q2994091","public_transport":"platform"},"addTags":{"bus":"yes","highway":"bus_stop","network":"exo-Vallée du Richelieu","network:wikidata":"Q2994091","public_transport":"platform"}},"public_transport/platform/bus_point/rtc-000aa0":{"name":"RTC (Réseau de transport de la Capitale)","locationSet":{"include":["ca-qc"]},"geometry":["point","vertex"],"matchScore":2,"terms":["réseau de transport de la capitale","rtc"],"reference":{"key":"public_transport","value":"platform"},"tags":{"bus":"yes","network:wikidata":"Q3456768","public_transport":"platform"},"addTags":{"bus":"yes","highway":"bus_stop","network":"RTC","network:wikidata":"Q3456768","operator":"Réseau de transport de la Capitale","public_transport":"platform"}},"public_transport/platform/bus_point/stl-000aa0":{"name":"STL","locationSet":{"include":["ca-qc"]},"geometry":["point","vertex"],"matchScore":2,"terms":["stl"],"reference":{"key":"public_transport","value":"platform"},"tags":{"bus":"yes","network:wikidata":"Q3488029","public_transport":"platform"},"addTags":{"bus":"yes","highway":"bus_stop","network":"STL","network:wikidata":"Q3488029","public_transport":"platform"}},"public_transport/platform/bus_point/stm-000aa0":{"name":"STM (Société de transport de Montréal)","locationSet":{"include":["ca-qc"]},"geometry":["point","vertex"],"matchScore":2,"terms":["stm"],"reference":{"key":"public_transport","value":"platform"},"tags":{"bus":"yes","network:wikidata":"Q1817151","public_transport":"platform"},"addTags":{"bus":"yes","highway":"bus_stop","network":"STM","network:wikidata":"Q1817151","public_transport":"platform"}},"public_transport/platform/bus_point/sto-000aa0":{"name":"STO","locationSet":{"include":["ca-qc"]},"geometry":["point","vertex"],"matchScore":2,"terms":["sto"],"reference":{"key":"public_transport","value":"platform"},"tags":{"bus":"yes","network:wikidata":"Q3488034","public_transport":"platform"},"addTags":{"bus":"yes","highway":"bus_stop","network":"STO","network:wikidata":"Q3488034","public_transport":"platform"}},"public_transport/platform/bus_point/sttr-000aa0":{"name":"STTR","locationSet":{"include":["ca-qc"]},"geometry":["point","vertex"],"matchScore":2,"terms":["sttr"],"reference":{"key":"public_transport","value":"platform"},"tags":{"bus":"yes","network:wikidata":"Q3488031","public_transport":"platform"},"addTags":{"bus":"yes","highway":"bus_stop","network":"STTR","network:wikidata":"Q3488031","public_transport":"platform"}},"type/route/bus/exochamblyrichelieucarignan-26ae8b":{"name":"exo-Chambly-Richelieu-Carignan","locationSet":{"include":["ca-qc"]},"geometry":["relation"],"matchScore":2,"terms":["exo-chambly-richelieu-carignan"],"reference":{"key":"route","value":"bus"},"tags":{"network:wikidata":"Q5011933","route":"bus","type":"route"},"addTags":{"network":"exo-Chambly-Richelieu-Carignan","network:wikidata":"Q5011933","route":"bus","type":"route"}},"type/route/bus/exolassomption-26ae8b":{"name":"exo-L'Assomption","locationSet":{"include":["ca-qc"]},"geometry":["relation"],"matchScore":2,"terms":["exo-l'assomption"],"reference":{"key":"route","value":"bus"},"tags":{"network:wikidata":"Q55596812","route":"bus","type":"route"},"addTags":{"network":"exo-L'Assomption","network:wikidata":"Q55596812","route":"bus","type":"route"}},"type/route/bus/exolapresquile-26ae8b":{"name":"exo-La Presqu'île","locationSet":{"include":["ca-qc"]},"geometry":["relation"],"matchScore":2,"terms":["exo-la presqu'île"],"reference":{"key":"route","value":"bus"},"tags":{"network:wikidata":"Q4801810","route":"bus","type":"route"},"addTags":{"network":"exo-La Presqu'île","network:wikidata":"Q4801810","route":"bus","type":"route"}},"type/route/bus/exolaurentides-26ae8b":{"name":"exo-Laurentides","locationSet":{"include":["ca-qc"]},"geometry":["relation"],"matchScore":2,"terms":["exo-laurentides"],"reference":{"key":"route","value":"bus"},"tags":{"network:wikidata":"Q2994089","route":"bus","type":"route"},"addTags":{"network":"exo-Laurentides","network:wikidata":"Q2994089","route":"bus","type":"route"}},"type/route/bus/exolerichelain-26ae8b":{"name":"exo-Le Richelain","locationSet":{"include":["ca-qc"]},"geometry":["relation"],"matchScore":2,"terms":["exo-le richelain"],"reference":{"key":"route","value":"bus"},"tags":{"network:wikidata":"Q2994087","route":"bus","type":"route"},"addTags":{"network":"exo-Le Richelain","network:wikidata":"Q2994087","route":"bus","type":"route"}},"type/route/bus/exorousillon-26ae8b":{"name":"exo-Rousillon","locationSet":{"include":["ca-qc"]},"geometry":["relation"],"matchScore":2,"terms":["exo-rousillon"],"reference":{"key":"route","value":"bus"},"tags":{"network:wikidata":"Q2994090","route":"bus","type":"route"},"addTags":{"network":"exo-Rousillon","network:wikidata":"Q2994090","route":"bus","type":"route"}},"type/route/bus/exosaintejulie-26ae8b":{"name":"exo-Sainte-Julie","locationSet":{"include":["ca-qc"]},"geometry":["relation"],"matchScore":2,"terms":["exo-sainte-julie"],"reference":{"key":"route","value":"bus"},"tags":{"network:wikidata":"Q55611277","route":"bus","type":"route"},"addTags":{"network":"exo-Sainte-Julie","network:wikidata":"Q55611277","route":"bus","type":"route"}},"type/route/bus/exosorelvarennes-26ae8b":{"name":"exo-Sorel-Varennes","locationSet":{"include":["ca-qc"]},"geometry":["relation"],"matchScore":2,"terms":["exo-sorel-varennes"],"reference":{"key":"route","value":"bus"},"tags":{"network:wikidata":"Q5011938","route":"bus","type":"route"},"addTags":{"network":"exo-Sorel-Varennes","network:wikidata":"Q5011938","route":"bus","type":"route"}},"type/route/bus/exosudouest-26ae8b":{"name":"exo-Sud-Ouest","locationSet":{"include":["ca-qc"]},"geometry":["relation"],"matchScore":2,"terms":["exo-sud-ouest"],"reference":{"key":"route","value":"bus"},"tags":{"network:wikidata":"Q2994092","route":"bus","type":"route"},"addTags":{"network":"exo-Sud-Ouest","network:wikidata":"Q2994092","route":"bus","type":"route"}},"type/route/bus/exoterrebonnemascouche-26ae8b":{"name":"exo-Terrebonne-Mascouche","locationSet":{"include":["ca-qc"]},"geometry":["relation"],"matchScore":2,"terms":["exo-terrebonne-mascouche"],"reference":{"key":"route","value":"bus"},"tags":{"network:wikidata":"Q55596813","route":"bus","type":"route"},"addTags":{"network":"exo-Terrebonne-Mascouche","network:wikidata":"Q55596813","route":"bus","type":"route"}},"type/route/bus/exovalleedurichelieu-26ae8b":{"name":"exo-Vallée du Richelieu","locationSet":{"include":["ca-qc"]},"geometry":["relation"],"matchScore":2,"terms":["exo-vallée du richelieu"],"reference":{"key":"route","value":"bus"},"tags":{"network:wikidata":"Q2994091","route":"bus","type":"route"},"addTags":{"network":"exo-Vallée du Richelieu","network:wikidata":"Q2994091","route":"bus","type":"route"}},"type/route/bus/rtc-26ae8b":{"name":"RTC (Réseau de transport de la Capitale)","locationSet":{"include":["ca-qc"]},"geometry":["relation"],"matchScore":2,"terms":["réseau de transport de la capitale","rtc"],"reference":{"key":"route","value":"bus"},"tags":{"network:wikidata":"Q3456768","route":"bus","type":"route"},"addTags":{"network":"RTC","network:wikidata":"Q3456768","operator":"Réseau de transport de la Capitale","route":"bus","type":"route"}},"type/route/bus/stl-26ae8b":{"name":"STL","locationSet":{"include":["ca-qc"]},"geometry":["relation"],"matchScore":2,"terms":["stl"],"reference":{"key":"route","value":"bus"},"tags":{"network:wikidata":"Q3488029","route":"bus","type":"route"},"addTags":{"network":"STL","network:wikidata":"Q3488029","route":"bus","type":"route"}},"type/route/bus/stm-26ae8b":{"name":"STM (Société de transport de Montréal)","locationSet":{"include":["ca-qc"]},"geometry":["relation"],"matchScore":2,"terms":["stm"],"reference":{"key":"route","value":"bus"},"tags":{"network:wikidata":"Q1817151","route":"bus","type":"route"},"addTags":{"network":"STM","network:wikidata":"Q1817151","route":"bus","type":"route"}},"type/route/bus/sto-26ae8b":{"name":"STO","locationSet":{"include":["ca-qc"]},"geometry":["relation"],"matchScore":2,"terms":["sto"],"reference":{"key":"route","value":"bus"},"tags":{"network:wikidata":"Q3488034","route":"bus","type":"route"},"addTags":{"network":"STO","network:wikidata":"Q3488034","route":"bus","type":"route"}},"type/route/bus/sttr-26ae8b":{"name":"STTR","locationSet":{"include":["ca-qc"]},"geometry":["relation"],"matchScore":2,"terms":["sttr"],"reference":{"key":"route","value":"bus"},"tags":{"network:wikidata":"Q3488031","route":"bus","type":"route"},"addTags":{"network":"STTR","network:wikidata":"Q3488031","route":"bus","type":"route"}},"type/route/ferry/societedestraversiersduquebec-8d4ae6":{"name":"Société des traversiers du Québec","locationSet":{"include":["ca-qc"]},"geometry":["relation"],"matchScore":2,"terms":["société des traversiers du québec","stq"],"reference":{"key":"route","value":"ferry"},"tags":{"network:wikidata":"Q3488207","route":"ferry","type":"route"},"addTags":{"network":"Société des traversiers du Québec","network:short":"STQ","network:wikidata":"Q3488207","route":"ferry","type":"route"}},"route/ferry/societedestraversiersduquebec-8d4ae6":{"name":"Société des traversiers du Québec","locationSet":{"include":["ca-qc"]},"geometry":["line"],"matchScore":2,"terms":["société des traversiers du québec","stq"],"tags":{"network:wikidata":"Q3488207","route":"ferry"},"addTags":{"network":"Société des traversiers du Québec","network:short":"STQ","network:wikidata":"Q3488207","route":"ferry"}},"type/route/train/exo-8dfa87":{"name":"exo","locationSet":{"include":["ca-qc"]},"geometry":["relation"],"matchScore":2,"terms":["exo"],"reference":{"key":"route","value":"train"},"tags":{"network:wikidata":"Q392496","route":"train","type":"route"},"addTags":{"network":"exo","network:wikidata":"Q392496","route":"train","type":"route"}}}